{
"type": "FeatureCollection",
"name": "igarape_lage",
"crs": { "type": "name", "properties": { "name": "urn:ogc:def:crs:OGC:1.3:CRS84" } },
"features": [
{ "type": "Feature", "properties": { "area_ha": 176.06 }, "geometry": { "type": "MultiPolygon", "coordinates": [ [ [ [ -65.277459635079637, -10.561023719898719 ], [ -65.277614542842628, -10.560814621695497 ], [ -65.278069125579108, -10.560675439613377 ], [ -65.278069125579137, -10.560414354062626 ], [ -65.277834957734299, -10.560407397970938 ], [ -65.277764379796068, -10.560153133104372 ], [ -65.277546831141663, -10.560109608812972 ], [ -65.277406225953172, -10.560653601280816 ], [ -65.277067934890809, -10.560632029768794 ], [ -65.276937341175923, -10.5609801956072 ], [ -65.277459635079637, -10.561023719898719 ] ] ], [ [ [ -65.271334573721802, -10.560655737448661 ], [ -65.271582405264112, -10.560849579755784 ], [ -65.271517284041991, -10.560580475548111 ], [ -65.271756544873469, -10.560196564964981 ], [ -65.27180431493386, -10.559402924311383 ], [ -65.27214836072811, -10.559499993650046 ], [ -65.27219189523035, -10.559325967426885 ], [ -65.271809379098727, -10.559127676906558 ], [ -65.271801488730176, -10.558759960375641 ], [ -65.271656165426592, -10.559264836284308 ], [ -65.271234250614, -10.55936952037214 ], [ -65.271277438453396, -10.559887885286198 ], [ -65.271103645863022, -10.560718974648758 ], [ -65.271334573721802, -10.560655737448661 ] ] ], [ [ [ -65.275587754536232, -10.558194067243603 ], [ -65.275718359643335, -10.558716363008157 ], [ -65.276110059832902, -10.558498687301986 ], [ -65.276240654081406, -10.558194067243594 ], [ -65.275891091505414, -10.558063399804928 ], [ -65.275587754536232, -10.558194067243603 ] ] ], [ [ [ -65.277503296105607, -10.558455152794236 ], [ -65.277894996295416, -10.558455152266411 ], [ -65.278025590543905, -10.558237602279151 ], [ -65.2778514612598, -10.55801992762866 ], [ -65.27724207503303, -10.557889322521721 ], [ -65.277046989583411, -10.558149320467365 ], [ -65.276893805606264, -10.558150532207872 ], [ -65.276893805606292, -10.558368082722886 ], [ -65.277329029973174, -10.558368082722886 ], [ -65.277397084471275, -10.558233105129398 ], [ -65.277503296105607, -10.558455152794236 ] ] ], [ [ [ -65.278504601925945, -10.558150407544591 ], [ -65.278678616435727, -10.558063330288919 ], [ -65.278852756221852, -10.557366901565754 ], [ -65.278417531854473, -10.557497506672767 ], [ -65.278286926747498, -10.557671646815452 ], [ -65.278504601925945, -10.558150407544591 ] ] ], [ [ [ -65.279201151637864, -10.556757411594191 ], [ -65.277938646995537, -10.557366787646705 ], [ -65.27828681161661, -10.557497381481708 ], [ -65.278755564479354, -10.55714916406234 ], [ -65.279026907223042, -10.557410311410381 ], [ -65.279375176116488, -10.557192750678857 ], [ -65.279201151637864, -10.556757411594191 ] ] ], [ [ [ -65.27554529174509, -10.554669142208356 ], [ -65.275560228238604, -10.554508348451936 ], [ -65.27571823365416, -10.554493464548266 ], [ -65.275718244512618, -10.553971169311577 ], [ -65.275457149070377, -10.554014711029849 ], [ -65.275326543963615, -10.554406526347822 ], [ -65.275674516230637, -10.555194466505338 ], [ -65.275457149962094, -10.55545124607718 ], [ -65.27574311551831, -10.555463527888087 ], [ -65.27571835964271, -10.555712445546991 ], [ -65.27588083807845, -10.55577572232248 ], [ -65.275979570390248, -10.556060736576576 ], [ -65.27626001280818, -10.556112837861395 ], [ -65.276617553234331, -10.556424856431189 ], [ -65.276749764746469, -10.55691394429668 ], [ -65.276116428025617, -10.557364322748505 ], [ -65.275268379096303, -10.557403971589103 ], [ -65.274978485591177, -10.556361547359071 ], [ -65.275108743154433, -10.555973780424512 ], [ -65.27462998375114, -10.556060850495912 ], [ -65.274845400663679, -10.556185704224591 ], [ -65.274781957573367, -10.556578893858331 ], [ -65.273493402367521, -10.556931207326871 ], [ -65.273323806691778, -10.556670340995266 ], [ -65.273193327574248, -10.556713876030933 ], [ -65.273454538321829, -10.557366787646544 ], [ -65.273806939476302, -10.557481456771894 ], [ -65.273759283038089, -10.557715057187725 ], [ -65.273933308049521, -10.557715056659882 ], [ -65.274015788213461, -10.557499779218048 ], [ -65.274668451112404, -10.557410617096306 ], [ -65.27538481323576, -10.557546941334525 ], [ -65.275587628546418, -10.557889197330416 ], [ -65.275612046640646, -10.557506582736782 ], [ -65.275892384654739, -10.557540916517269 ], [ -65.276458340118481, -10.557323241338963 ], [ -65.276801501938138, -10.557020731129359 ], [ -65.277372680139891, -10.557279706303364 ], [ -65.277633775223066, -10.5572362964588 ], [ -65.277218523335293, -10.55709332076634 ], [ -65.276588934367197, -10.556147920567099 ], [ -65.276030008964781, -10.555860067573013 ], [ -65.275892721338565, -10.555534381673432 ], [ -65.27597944333462, -10.554972463859837 ], [ -65.27565272130991, -10.554875362741718 ], [ -65.27554529174509, -10.554669142208356 ] ], [ [ -65.273753325736124, -10.55697528501749 ], [ -65.273848339878967, -10.557149604758472 ], [ -65.273720292521958, -10.557323022651291 ], [ -65.273541808744199, -10.557111003138834 ], [ -65.273753325736124, -10.55697528501749 ] ], [ [ -65.274930307112015, -10.55733616851462 ], [ -65.27460649041177, -10.557339488363084 ], [ -65.274413298556638, -10.557061983605132 ], [ -65.274505341011263, -10.556742134632001 ], [ -65.274853490136437, -10.556539934661011 ], [ -65.274974029590027, -10.556573146930809 ], [ -65.274930307112015, -10.55733616851462 ] ] ], [ [ [ -65.27291201893695, -10.555438989372439 ], [ -65.272593958632726, -10.55558190277825 ], [ -65.272148486717967, -10.555407824960925 ], [ -65.271937064752919, -10.555579386292926 ], [ -65.271495450324522, -10.555625500667137 ], [ -65.271451926680811, -10.555843061398049 ], [ -65.271756556266268, -10.556017190268685 ], [ -65.272321989372458, -10.555800619856951 ], [ -65.272843639014397, -10.556147858235475 ], [ -65.272810684823327, -10.555867211773805 ], [ -65.273070700386199, -10.555822309396603 ], [ -65.273454411798923, -10.556104260867899 ], [ -65.273932775151778, -10.555362803608093 ], [ -65.273847635389345, -10.555233622486437 ], [ -65.273048214042959, -10.555392104330934 ], [ -65.273628551941869, -10.554841744833499 ], [ -65.273280386786666, -10.55431944959698 ], [ -65.272540301681374, -10.554885411733101 ], [ -65.272836379123063, -10.554909211824613 ], [ -65.27291201893695, -10.555438989372439 ] ] ], [ [ [ -65.260306841885594, -10.551925022635764 ], [ -65.259871595800703, -10.551925022635807 ], [ -65.25974100119447, -10.552099169454824 ], [ -65.259784525729373, -10.552229642164958 ], [ -65.260307023536939, -10.552187139055206 ], [ -65.260611691407078, -10.552360247271976 ], [ -65.260655110779041, -10.552186221577582 ], [ -65.260306841885594, -10.551925022635764 ] ] ], [ [ [ -65.277196203982456, -10.551750320894849 ], [ -65.276545410190806, -10.551271997100068 ], [ -65.276110164104566, -10.551315532135746 ], [ -65.276023105424969, -10.551446125970671 ], [ -65.276560259775408, -10.551539106409569 ], [ -65.276589060355249, -10.55175075730113 ], [ -65.276864775308383, -10.551670152266247 ], [ -65.277067934889345, -10.552011966987331 ], [ -65.277196203982456, -10.551750320894849 ] ] ], [ [ [ -65.277329030334556, -10.549791673452164 ], [ -65.27767731026043, -10.548964639681712 ], [ -65.277067945387117, -10.549008181967057 ], [ -65.277024411244838, -10.549182200940882 ], [ -65.277372364128851, -10.549361766696943 ], [ -65.27728498450422, -10.549529490925663 ], [ -65.276980875316042, -10.549443532320383 ], [ -65.277111469924634, -10.549878750239564 ], [ -65.277329030334556, -10.549791673452164 ] ] ], [ [ [ -65.289431769893866, -10.537514925300339 ], [ -65.289127151158056, -10.538124405055527 ], [ -65.289388052481939, -10.538433478059725 ], [ -65.289127150624807, -10.538864511406041 ], [ -65.28930129076754, -10.539343272135941 ], [ -65.289351355676857, -10.539343272138861 ], [ -65.289417217574382, -10.538126072634507 ], [ -65.289431769893866, -10.537514925300339 ] ] ], [ [ [ -65.282395227810838, -10.535396467748985 ], [ -65.282901514909099, -10.535207436388069 ], [ -65.282901514010391, -10.534989882487595 ], [ -65.282379219730174, -10.534989900592084 ], [ -65.282507402689404, -10.535256092709888 ], [ -65.282118009881685, -10.535425243588513 ], [ -65.28203093981044, -10.536034609424794 ], [ -65.282137173760589, -10.535732421780393 ], [ -65.282379094480703, -10.535729856820602 ], [ -65.282395227810838, -10.535396467748985 ] ] ], [ [ [ -65.281508508524468, -10.534597952719885 ], [ -65.281769614474115, -10.534597952719901 ], [ -65.28176960308312, -10.534075646738577 ], [ -65.281543645946826, -10.534082486908341 ], [ -65.281464869224507, -10.533945052903636 ], [ -65.281160228239045, -10.533945052903629 ], [ -65.280986098954088, -10.53424979762549 ], [ -65.280986098954116, -10.534510883176338 ], [ -65.281290210035479, -10.534424917338439 ], [ -65.281508508524468, -10.534597952719885 ] ] ], [ [ [ -65.290318659938777, -10.521467378828287 ], [ -65.290209142889751, -10.521534988408956 ], [ -65.289780165299078, -10.521276357523616 ], [ -65.289606035642777, -10.521494039643571 ], [ -65.289649571582686, -10.521755128469747 ], [ -65.289910666146625, -10.521929257340496 ], [ -65.29030247061057, -10.521668047654321 ], [ -65.29030977631119, -10.521631540081115 ], [ -65.290318659938777, -10.521467378828287 ] ] ], [ [ [ -65.290597227146492, -10.516319800095621 ], [ -65.290389667188151, -10.517358193041442 ], [ -65.290387408681298, -10.518800485580314 ], [ -65.289910781262776, -10.519056070176715 ], [ -65.29025482765752, -10.519133015981946 ], [ -65.290346131619643, -10.520100786370213 ], [ -65.290571843205328, -10.516788857096367 ], [ -65.290597227146492, -10.516319800095621 ] ] ], [ [ [ -65.291501483440115, -10.493034364700533 ], [ -65.291517344046326, -10.493162723555304 ], [ -65.291260367363222, -10.493239794024984 ], [ -65.29123889345496, -10.493665532944748 ], [ -65.290868551661219, -10.49363161702246 ], [ -65.29086855257566, -10.49393624067722 ], [ -65.291042681328847, -10.494066834512253 ], [ -65.291694601980026, -10.494110542459165 ], [ -65.291608647649255, -10.496896612358595 ], [ -65.291921934884101, -10.49184313342098 ], [ -65.291949689583959, -10.491330349654778 ], [ -65.291772790002852, -10.492564803144598 ], [ -65.291529553771639, -10.492825197289333 ], [ -65.291260241401204, -10.49258676848997 ], [ -65.290955622113444, -10.492673838561309 ], [ -65.290999157149201, -10.493370274469376 ], [ -65.291337661450896, -10.493026184039257 ], [ -65.291501483440115, -10.493034364700533 ] ] ], [ [ [ -65.292185367924745, -10.486976126503047 ], [ -65.292304054219031, -10.484783409744988 ], [ -65.292218138679559, -10.485098731610714 ], [ -65.292173561026686, -10.486361894534486 ], [ -65.292043997620198, -10.486622476332862 ], [ -65.292087224723986, -10.487488725799528 ], [ -65.2917827874073, -10.488538017887869 ], [ -65.292043987148375, -10.489016770374661 ], [ -65.292185367924745, -10.486976126503047 ] ] ], [ [ [ -65.291801911053184, -10.480580174648727 ], [ -65.291869847004321, -10.480832183668864 ], [ -65.292229900007513, -10.48087964471639 ], [ -65.292429726523849, -10.481078245184934 ], [ -65.292392278288375, -10.482660655694815 ], [ -65.292522757438078, -10.480614633680991 ], [ -65.29216298310368, -10.480610124717909 ], [ -65.29082501700384, -10.479787468003348 ], [ -65.291128720195005, -10.480439732975883 ], [ -65.29091202409677, -10.480833577643589 ], [ -65.290955622111127, -10.481354604624681 ], [ -65.291086216362416, -10.481485209203871 ], [ -65.291611895139894, -10.480569703246854 ], [ -65.291801911053184, -10.480580174648727 ] ] ], [ [ [ -65.289475420042521, -10.480353298276434 ], [ -65.289736526010913, -10.48039683331206 ], [ -65.289954189800298, -10.480135737544551 ], [ -65.289649445084009, -10.479656862896377 ], [ -65.289301291288808, -10.479961597401903 ], [ -65.289475420042521, -10.480353298276434 ] ] ], [ [ [ -65.292614484104973, -10.471167187064419 ], [ -65.292348732395041, -10.471036926361679 ], [ -65.29226167317907, -10.471254476349481 ], [ -65.292871048580679, -10.471602756107039 ], [ -65.293043137963323, -10.471129604532594 ], [ -65.293043432095772, -10.47112417097722 ], [ -65.292614484104973, -10.471167187064419 ] ] ], [ [ [ -65.286421446476069, -10.470616385289068 ], [ -65.286166768185595, -10.470688645548758 ], [ -65.286146675411359, -10.471024555260847 ], [ -65.285687882793354, -10.471167530941106 ], [ -65.285687882793383, -10.471428616491886 ], [ -65.28585696909775, -10.471341851557678 ], [ -65.286032218877224, -10.4714616754737 ], [ -65.285992628043132, -10.471907501884289 ], [ -65.286210188123036, -10.471907501356458 ], [ -65.286389371275789, -10.471603061771596 ], [ -65.286645538479732, -10.471820431285117 ], [ -65.28674763563005, -10.471488004838712 ], [ -65.28695027287408, -10.471472151527589 ], [ -65.287053452107884, -10.471226885434499 ], [ -65.287255018123844, -10.471167406277923 ], [ -65.28744165686841, -10.470751942844878 ], [ -65.287603298409294, -10.470732055921285 ], [ -65.287433391492613, -10.470611574939683 ], [ -65.28743371391127, -10.470371840732158 ], [ -65.287690368870102, -10.470166092613072 ], [ -65.28766294253694, -10.469964369397115 ], [ -65.287908043659158, -10.469861355207891 ], [ -65.287951578694845, -10.469600269656951 ], [ -65.287252392935983, -10.469708619159691 ], [ -65.286993923007699, -10.469600270184824 ], [ -65.286558583506419, -10.469861479871009 ], [ -65.286538490801149, -10.470153854544519 ], [ -65.286210302831918, -10.470253303034275 ], [ -65.286421719313111, -10.470402517592463 ], [ -65.286421446476069, -10.470616385289068 ] ], [ [ -65.286818351673872, -10.470015166036848 ], [ -65.286994455724098, -10.470036981577149 ], [ -65.286940401725545, -10.470231329007731 ], [ -65.286841219451077, -10.470243250402575 ], [ -65.286818351673872, -10.470015166036848 ] ] ], [ [ [ -65.220820553692931, -10.457192659825344 ], [ -65.220905415437358, -10.456974551188125 ], [ -65.220357777419082, -10.456654419236953 ], [ -65.220298133265032, -10.456409153852087 ], [ -65.22003704900429, -10.456452688887794 ], [ -65.220124119075635, -10.456800844504301 ], [ -65.220495872943275, -10.456986524171608 ], [ -65.220646528648345, -10.457236194333158 ], [ -65.220820553692931, -10.457192659825344 ] ] ], [ [ [ -65.285373302431466, -10.453031224663684 ], [ -65.284754234482605, -10.452997263741286 ], [ -65.28260401216474, -10.452883649884505 ], [ -65.282248551998649, -10.452884084755466 ], [ -65.285036139103852, -10.453143963842582 ], [ -65.285373302431466, -10.453031224663684 ] ] ], [ [ [ -65.222397811881635, -10.450640561774843 ], [ -65.222736095263897, -10.450009378940011 ], [ -65.222606686130874, -10.449707547827062 ], [ -65.221877843869649, -10.449668894182238 ], [ -65.220353797879568, -10.449700061908741 ], [ -65.22012642827444, -10.449709628643282 ], [ -65.22021571582755, -10.449897942927523 ], [ -65.220124119607618, -10.450314134934278 ], [ -65.220254376739163, -10.450527870334939 ], [ -65.219993513967452, -10.450793009581959 ], [ -65.220602889371079, -10.450793009054156 ], [ -65.220820553694253, -10.45066240447497 ], [ -65.220814514306198, -10.449914665918691 ], [ -65.220992397835047, -10.449960856423548 ], [ -65.220907750249637, -10.450270599898639 ], [ -65.221179573096663, -10.450382610935218 ], [ -65.221072594126824, -10.450856042228487 ], [ -65.220777144609499, -10.451010809429118 ], [ -65.220990586625646, -10.451218362017816 ], [ -65.220944256792777, -10.451463047669094 ], [ -65.220341793861238, -10.451750912928439 ], [ -65.220428853469144, -10.452142595159847 ], [ -65.220787757823274, -10.452124012322848 ], [ -65.22047233638429, -10.453012027555204 ], [ -65.220689032521932, -10.453230338202772 ], [ -65.220559469964996, -10.453709867716496 ], [ -65.220776102586527, -10.454144573918821 ], [ -65.220864215214945, -10.455190058929238 ], [ -65.221081774762695, -10.455277117728059 ], [ -65.221255967026337, -10.455104371627273 ], [ -65.220930630468985, -10.454811471104902 ], [ -65.221038228871862, -10.454319472139977 ], [ -65.220914155627568, -10.454290745637996 ], [ -65.220821751582363, -10.453929064782836 ], [ -65.220823159172269, -10.45344189132614 ], [ -65.221062639629764, -10.452935427436222 ], [ -65.221386520012757, -10.453056830908965 ], [ -65.221608901097369, -10.452885088598467 ], [ -65.221777252542438, -10.453188969166405 ], [ -65.221517239825104, -10.453405244273171 ], [ -65.221601888313003, -10.453584364047998 ], [ -65.221343100607058, -10.454014612966194 ], [ -65.221727979397883, -10.454214163949878 ], [ -65.221691380892494, -10.454580568429915 ], [ -65.221821658687119, -10.45474938407869 ], [ -65.221430170678659, -10.455320664036272 ], [ -65.221691369504057, -10.455494792906455 ], [ -65.221892946486378, -10.455380133154627 ], [ -65.221994927712387, -10.455539861184038 ], [ -65.221821985466448, -10.455712468612649 ], [ -65.22195259057348, -10.45584307371967 ], [ -65.222170139799005, -10.455886608755327 ], [ -65.222387814444147, -10.455451269143323 ], [ -65.222252683100635, -10.455171003756195 ], [ -65.222431412989323, -10.454535753805319 ], [ -65.222294262639323, -10.45400332814668 ], [ -65.222649025191785, -10.453840462078903 ], [ -65.22262832281146, -10.453457750523437 ], [ -65.222910246261151, -10.453535716301396 ], [ -65.223258515691299, -10.453274506615243 ], [ -65.223090858058228, -10.453040197869166 ], [ -65.223389120798373, -10.452969761365582 ], [ -65.223441565605995, -10.45272279661202 ], [ -65.223563260941091, -10.452708551151529 ], [ -65.223565682897089, -10.451789327850788 ], [ -65.224042145800468, -10.451358975790486 ], [ -65.224521031726411, -10.449835363465938 ], [ -65.224085807319995, -10.449791828430346 ], [ -65.223962781072146, -10.450366433244692 ], [ -65.223824597106116, -10.450401318929663 ], [ -65.223907229124109, -10.450588955534624 ], [ -65.223693981143967, -10.450618994635843 ], [ -65.223451798212068, -10.45101518525351 ], [ -65.222686295262704, -10.450964695468199 ], [ -65.222397811881635, -10.450640561774843 ] ], [ [ -65.221121299221409, -10.449762041937166 ], [ -65.221304775448914, -10.449704945941265 ], [ -65.221236689159809, -10.449932288039655 ], [ -65.221121299221409, -10.449762041937166 ] ], [ [ -65.221305970916447, -10.452606672561137 ], [ -65.22144468307151, -10.452584411354593 ], [ -65.221368735367747, -10.452745422778092 ], [ -65.221305970916447, -10.452606672561137 ] ], [ [ -65.221735340157764, -10.450271192786149 ], [ -65.221634413681656, -10.450470778030738 ], [ -65.221533920659439, -10.450483619278378 ], [ -65.221532151833912, -10.450329978472894 ], [ -65.221735340157764, -10.450271192786149 ] ], [ [ -65.221650704537311, -10.453822715283053 ], [ -65.221666493052226, -10.453678618155424 ], [ -65.221760546037316, -10.453827291825059 ], [ -65.221650704537311, -10.453822715283053 ] ], [ [ -65.221741048493698, -10.455121720519321 ], [ -65.221847250094882, -10.455109173361189 ], [ -65.221763811772917, -10.45522724259718 ], [ -65.221741048493698, -10.455121720519321 ] ], [ [ -65.221855584070994, -10.450399782968534 ], [ -65.221957183052481, -10.450360056929988 ], [ -65.221917448694199, -10.450491205062832 ], [ -65.221855584070994, -10.450399782968534 ] ], [ [ -65.222300807882135, -10.4539604383474 ], [ -65.222145651164595, -10.454067077464396 ], [ -65.221953580263644, -10.453884171633069 ], [ -65.222213176335543, -10.453754496283738 ], [ -65.222300807882135, -10.4539604383474 ] ], [ [ -65.222431473812534, -10.4535358076376 ], [ -65.222115108902628, -10.453574867354531 ], [ -65.222043613460116, -10.453349489834432 ], [ -65.222182386126505, -10.453312807185149 ], [ -65.222431473812534, -10.4535358076376 ] ], [ [ -65.22221790801369, -10.452872693342014 ], [ -65.222321359735901, -10.452843170996251 ], [ -65.222244725448277, -10.452965622037409 ], [ -65.22221790801369, -10.452872693342014 ] ], [ [ -65.222779693269672, -10.453056698934001 ], [ -65.222545093250773, -10.453059682109247 ], [ -65.222524951916284, -10.452911417785067 ], [ -65.222750734138643, -10.452932691626295 ], [ -65.222779693269672, -10.453056698934001 ] ], [ [ -65.222910298376064, -10.452229533430854 ], [ -65.222765117301023, -10.452266860172015 ], [ -65.222731977174575, -10.452126670220297 ], [ -65.222881339763873, -10.452105526188049 ], [ -65.222910298376064, -10.452229533430854 ] ], [ [ -65.223214555066093, -10.452556085697998 ], [ -65.223225943786346, -10.452480200886994 ], [ -65.223289642001461, -10.452568462268401 ], [ -65.223214555066093, -10.452556085697998 ] ], [ [ -65.223389248702276, -10.452229751088499 ], [ -65.223318678242279, -10.452353439142907 ], [ -65.223211568178527, -10.452333985853434 ], [ -65.223273949051304, -10.452128964065867 ], [ -65.223389248702276, -10.452229751088499 ] ], [ [ -65.223480907781138, -10.452183858100161 ], [ -65.223391542757497, -10.452147707915225 ], [ -65.223517530644671, -10.452040374073828 ], [ -65.223480907781138, -10.452183858100161 ] ] ], [ [ [ -65.219040172829523, -10.452851214245557 ], [ -65.218992082195683, -10.452491000641951 ], [ -65.218817952908296, -10.452360396062801 ], [ -65.218513322755101, -10.452447465606314 ], [ -65.219079267363639, -10.45323097105153 ], [ -65.219207549586955, -10.453012863069088 ], [ -65.219040172829523, -10.452851214245557 ] ] ], [ [ [ -65.216815341267605, -10.451446034589001 ], [ -65.217207145733468, -10.451228359938529 ], [ -65.217033005590821, -10.450836669286636 ], [ -65.216815638694513, -10.450753921307081 ], [ -65.217294215804955, -10.45035778389428 ], [ -65.217053097955144, -10.450301877700747 ], [ -65.217076540093373, -10.450140097971211 ], [ -65.216946061470622, -10.450096573680268 ], [ -65.216721358331043, -10.450679416954831 ], [ -65.216467175686617, -10.450923747251982 ], [ -65.21642363018762, -10.451358964517659 ], [ -65.216815341267605, -10.451446034589001 ] ] ], [ [ [ -65.083685317007607, -10.623104811890837 ], [ -65.083756762302642, -10.623211884771967 ], [ -65.084465328711815, -10.623251259152031 ], [ -65.085642031464971, -10.623278380781732 ], [ -65.085383068549547, -10.623148340997105 ], [ -65.083685317007607, -10.623104811890837 ] ] ], [ [ [ -65.037799390267793, -10.619491386728988 ], [ -65.038059557248971, -10.619969522280845 ], [ -65.037973529876965, -10.620274903434902 ], [ -65.039061779734396, -10.620144298327926 ], [ -65.038848051272552, -10.619916145156401 ], [ -65.03901239592156, -10.619752806496056 ], [ -65.039105429941912, -10.619970157657354 ], [ -65.039279454912787, -10.6199701581853 ], [ -65.039364288017168, -10.619403762470034 ], [ -65.039067870239961, -10.619027663499095 ], [ -65.039105314236693, -10.61879482615827 ], [ -65.03893118549, -10.618533627217984 ], [ -65.038715609279649, -10.618673008510321 ], [ -65.038495939442342, -10.618620697289328 ], [ -65.038539904025214, -10.618903454378849 ], [ -65.038060589085731, -10.618968977574733 ], [ -65.037799390267793, -10.619491386728988 ] ] ], [ [ [ -65.098443694093547, -10.615442645687367 ], [ -65.098487229453625, -10.615616654620634 ], [ -65.098830428595832, -10.615486354685387 ], [ -65.099053058889538, -10.615660189656303 ], [ -65.099662549713813, -10.614702412332875 ], [ -65.099706084424867, -10.614136588085234 ], [ -65.099575605345024, -10.614136588085223 ], [ -65.099321528649767, -10.61462270805313 ], [ -65.099096593925438, -10.614354263263584 ], [ -65.098791974378315, -10.614484874910197 ], [ -65.098738431844197, -10.614725188991974 ], [ -65.098530764489155, -10.61483314865596 ], [ -65.098704556978007, -10.615177378570742 ], [ -65.098443694093547, -10.615442645687367 ] ] ], [ [ [ -65.008587254233021, -10.611698512152998 ], [ -65.008717922890185, -10.611348952118966 ], [ -65.00858736993743, -10.611306811298101 ], [ -65.008108495086887, -10.611611562474128 ], [ -65.007890819908738, -10.611916307721289 ], [ -65.00792736081263, -10.612152180064095 ], [ -65.007716680086517, -10.61222104651924 ], [ -65.007846976704457, -10.612443042559027 ], [ -65.00779374666979, -10.612852109040601 ], [ -65.00746345061674, -10.613112471346398 ], [ -65.007150724622988, -10.612961142125675 ], [ -65.007150725156677, -10.613309308472717 ], [ -65.00778761142108, -10.613759534460771 ], [ -65.00806496090587, -10.614180009186114 ], [ -65.009109790366068, -10.615137768696957 ], [ -65.00958632352166, -10.615355004122168 ], [ -65.007652484805647, -10.613409607685885 ], [ -65.008108369693829, -10.613265756249442 ], [ -65.008238973947428, -10.612786991236907 ], [ -65.008022415666488, -10.612438776989393 ], [ -65.008195439765686, -10.612351520493505 ], [ -65.008164410944218, -10.612066671986542 ], [ -65.008587254233021, -10.611698512152998 ] ], [ [ -65.007829793198724, -10.6132589787195 ], [ -65.007809887211081, -10.613153943510685 ], [ -65.007907159221972, -10.613141456733111 ], [ -65.007829793198724, -10.6132589787195 ] ] ], [ [ [ -65.001295605421021, -10.60930679788707 ], [ -65.001185226073375, -10.610611659699105 ], [ -65.000751074379423, -10.610653785235428 ], [ -65.000794609415166, -10.611176080978654 ], [ -65.001403984743376, -10.611306685557757 ], [ -65.001621649059473, -10.611002065520768 ], [ -65.001320850497564, -10.610730253469837 ], [ -65.001665131134345, -10.610611157053221 ], [ -65.002403996968212, -10.611089073249781 ], [ -65.002380035149656, -10.610703391623073 ], [ -65.003232624398876, -10.610611157058626 ], [ -65.004518549705836, -10.611318227067043 ], [ -65.004753952157756, -10.611559392793415 ], [ -65.004756286798752, -10.611916176057278 ], [ -65.005072785499451, -10.611876561177422 ], [ -65.005446767737737, -10.612205771033359 ], [ -65.005361841449982, -10.61301515445502 ], [ -65.004799832377486, -10.613614174096281 ], [ -65.004364482340634, -10.614789488939316 ], [ -65.004717719726301, -10.61448504887889 ], [ -65.004843356870623, -10.614963628554092 ], [ -65.004949609971561, -10.614705004524048 ], [ -65.00514798694806, -10.614702418868047 ], [ -65.005069588182437, -10.614334535568362 ], [ -65.005409197162138, -10.614397673618333 ], [ -65.005679078654282, -10.613463834882072 ], [ -65.006582406427498, -10.612438156817889 ], [ -65.005496278096317, -10.611524486476588 ], [ -65.005267115493339, -10.611519976204171 ], [ -65.003820719434557, -10.610730958900103 ], [ -65.003101840272478, -10.609957224664662 ], [ -65.002785618331444, -10.609952714905075 ], [ -65.001186424735792, -10.60913005898702 ], [ -65.001295605421021, -10.60930679788707 ] ], [ [ -65.001312375491636, -10.610237478957908 ], [ -65.001402348225312, -10.610130635329723 ], [ -65.001447295833614, -10.610267101984171 ], [ -65.001390795620566, -10.61031586444304 ], [ -65.001312375491636, -10.610237478957908 ] ], [ [ -65.002370255108374, -10.610482454853113 ], [ -65.002308401708532, -10.610391046117334 ], [ -65.00240997139224, -10.610351312915245 ], [ -65.002370255108374, -10.610482454853113 ] ] ], [ [ [ -65.100663970374441, -10.611176080454541 ], [ -65.100794523330109, -10.610611519127689 ], [ -65.100659853812232, -10.610275717905907 ], [ -65.100879296359892, -10.609695450224166 ], [ -65.1007510513071, -10.609608944375582 ], [ -65.100402771021805, -10.609783084518298 ], [ -65.100618187285363, -10.610038544398753 ], [ -65.100446306591166, -10.610348926050111 ], [ -65.100668509915437, -10.610672829474304 ], [ -65.100402771555622, -10.610958416549476 ], [ -65.100663970374441, -10.611176080454541 ] ] ], [ [ [ -65.093387659077834, -10.607736614379879 ], [ -65.092783175600502, -10.607735752080746 ], [ -65.092479279366472, -10.607519263191685 ], [ -65.091738334729484, -10.607561611952686 ], [ -65.090955668281495, -10.607301587485518 ], [ -65.09130393770532, -10.607693277600687 ], [ -65.09189336700932, -10.607661283469742 ], [ -65.091956974101947, -10.607954488342607 ], [ -65.092255629261302, -10.608026406838736 ], [ -65.09217464981397, -10.608302779373407 ], [ -65.092348778561472, -10.608476908242721 ], [ -65.09252280354039, -10.608520443806281 ], [ -65.092953055964543, -10.60817439829267 ], [ -65.093480585186796, -10.608215698028761 ], [ -65.09379001371164, -10.608043955895521 ], [ -65.093959277276838, -10.608611957620086 ], [ -65.09387379832458, -10.608955856502288 ], [ -65.094046529788784, -10.608955794163098 ], [ -65.094351275038562, -10.608477033448469 ], [ -65.094094300472989, -10.608312888827612 ], [ -65.094133610721883, -10.607954613548314 ], [ -65.093655830753121, -10.607823830223614 ], [ -65.09365927270602, -10.60755073570137 ], [ -65.094002995080558, -10.607257921184575 ], [ -65.094002994753481, -10.606996842235745 ], [ -65.093524235058624, -10.607040383860168 ], [ -65.093387659077834, -10.607736614379879 ] ] ], [ [ [ -65.089518886407163, -10.605603589822016 ], [ -65.089257686727265, -10.605168371265691 ], [ -65.08899562722813, -10.605254255041725 ], [ -65.088735370600489, -10.605037766158715 ], [ -65.088586862521908, -10.605329214952256 ], [ -65.088387101176735, -10.605342510880561 ], [ -65.088602352984196, -10.605642146883573 ], [ -65.088520332964066, -10.605799110217422 ], [ -65.087445322584671, -10.605195959722035 ], [ -65.086951517548414, -10.604516756104141 ], [ -65.087211529517319, -10.604123398600906 ], [ -65.087167994153816, -10.603905854703491 ], [ -65.08663932955065, -10.603990345648738 ], [ -65.08655850365443, -10.603818784632207 ], [ -65.085879856823396, -10.603544278464282 ], [ -65.085827078621179, -10.603407241374013 ], [ -65.086079618262218, -10.603339774561443 ], [ -65.086079617728615, -10.603209283387317 ], [ -65.085738439384443, -10.603009266340937 ], [ -65.085687802941294, -10.60251273356217 ], [ -65.085165508536804, -10.602730408740522 ], [ -65.085108673448573, -10.602958447656766 ], [ -65.084599437910981, -10.602469199054418 ], [ -65.084294807495056, -10.602425670102937 ], [ -65.085034903429886, -10.603339774561434 ], [ -65.085276041833453, -10.603351314990997 ], [ -65.085731464000688, -10.603862194989473 ], [ -65.086016105236183, -10.603874567080391 ], [ -65.086036209250395, -10.60407987016784 ], [ -65.086273111721525, -10.604131983216103 ], [ -65.086764639877657, -10.604578496630218 ], [ -65.08716810931648, -10.605255315603015 ], [ -65.087734075641748, -10.60577773655899 ], [ -65.08803015025785, -10.60584520326576 ], [ -65.088211844745146, -10.606300103813684 ], [ -65.087908215457574, -10.606517963429503 ], [ -65.087821082700799, -10.606864843508653 ], [ -65.08812484833966, -10.607170221294705 ], [ -65.08786468042257, -10.607649874348434 ], [ -65.08808234506597, -10.607998022850211 ], [ -65.088649594045364, -10.60817222585996 ], [ -65.088812322341482, -10.608001927655419 ], [ -65.089132294664864, -10.608000258166756 ], [ -65.089172014473291, -10.608302830967542 ], [ -65.089605967012105, -10.608259233064318 ], [ -65.089780746493929, -10.608042662792082 ], [ -65.090128376578591, -10.608085093449526 ], [ -65.090215446650006, -10.607606332735235 ], [ -65.09004078242117, -10.607735833495648 ], [ -65.089683393180152, -10.607689212442267 ], [ -65.089605956150621, -10.607388657556974 ], [ -65.089156109800484, -10.607338656741572 ], [ -65.088919398385144, -10.60706194963365 ], [ -65.089040001014055, -10.606822570830399 ], [ -65.088955353989505, -10.606599917652535 ], [ -65.089078437648155, -10.606520066942659 ], [ -65.089359599094294, -10.606480322129451 ], [ -65.09034616692054, -10.607127322136908 ], [ -65.090737982241563, -10.607257927243955 ], [ -65.090866238287177, -10.607170418183566 ], [ -65.0906508078684, -10.606953307728091 ], [ -65.09023555079682, -10.606853865082281 ], [ -65.090041317369113, -10.606474422335749 ], [ -65.089746822785642, -10.606561429550432 ], [ -65.089575860651905, -10.606456815855207 ], [ -65.089605955617344, -10.60603906070568 ], [ -65.089117505720566, -10.605714600547048 ], [ -65.089518886407163, -10.605603589822016 ] ], [ [ -65.085594888146559, -10.603383110808174 ], [ -65.085426940367142, -10.603205243008833 ], [ -65.085644078300987, -10.603117196242076 ], [ -65.085594888146559, -10.603383110808174 ] ] ], [ [ [ -65.084190921595265, -10.603204486929208 ], [ -65.083815922431228, -10.603296364204251 ], [ -65.083943920565233, -10.603607868171681 ], [ -65.083728852359968, -10.603644644489611 ], [ -65.083641782288666, -10.603949265060734 ], [ -65.083981391962624, -10.604234407037993 ], [ -65.083990062574117, -10.604558755560117 ], [ -65.084155532097824, -10.604626222342528 ], [ -65.084251272788208, -10.60495057088113 ], [ -65.084468821942053, -10.604907035845452 ], [ -65.084537488099727, -10.604627681304919 ], [ -65.084860637263134, -10.604732895702799 ], [ -65.085206683942559, -10.604297105896697 ], [ -65.08516538251294, -10.604079994846249 ], [ -65.084831353948914, -10.604203194722755 ], [ -65.084817102227646, -10.603688179525262 ], [ -65.084560450217907, -10.603613046516877 ], [ -65.084599437910896, -10.602948084446783 ], [ -65.084207737752152, -10.602948083918895 ], [ -65.084190921595265, -10.603204486929208 ] ], [ [ -65.084098429621619, -10.603380710972306 ], [ -65.08429479924466, -10.603296248013011 ], [ -65.08433827984129, -10.60351374204304 ], [ -65.084281507626685, -10.603567938000902 ], [ -65.084098429621619, -10.603380710972306 ] ] ], [ [ [ -64.997181423081102, -10.603727661496109 ], [ -64.99726814496033, -10.603514028639745 ], [ -64.997055028758766, -10.603308300156716 ], [ -64.996661262091024, -10.602258280649602 ], [ -64.996049164495901, -10.599900631425406 ], [ -64.995396149822938, -10.598942861168645 ], [ -64.994873844561923, -10.598942860640756 ], [ -64.994729799453623, -10.599360604396887 ], [ -64.994394948307729, -10.599378211525362 ], [ -64.994339758690089, -10.599663214501428 ], [ -64.99409021392006, -10.599770026318481 ], [ -64.993916010762717, -10.600206645689925 ], [ -64.994089866260623, -10.600897883999744 ], [ -64.993916073777612, -10.601032417667561 ], [ -64.994307763068875, -10.600988882631819 ], [ -64.994580638754002, -10.60044266888689 ], [ -64.994873718856638, -10.600292315538136 ], [ -64.994985096748962, -10.599952620268809 ], [ -64.995558739681783, -10.600050853575166 ], [ -64.995657127544831, -10.600375463585479 ], [ -64.99543979970224, -10.600901943765233 ], [ -64.995352729954789, -10.601685443202584 ], [ -64.995526744067504, -10.601641908166918 ], [ -64.995760557334634, -10.600873164019248 ], [ -64.996163776742137, -10.600917759506844 ], [ -64.996876456737112, -10.60333978530416 ], [ -64.997877762558005, -10.605951887444329 ], [ -64.999445023842441, -10.607910964049484 ], [ -65.000228643088775, -10.608651048381912 ], [ -65.000400431784328, -10.608650608812352 ], [ -64.999414802566591, -10.607719331566345 ], [ -64.998232948724109, -10.606186567867754 ], [ -64.998182381242572, -10.605690791169287 ], [ -64.997710528276514, -10.605185262005381 ], [ -64.997357822677444, -10.604347962450589 ], [ -64.997355215031575, -10.603949378996436 ], [ -64.997181423081102, -10.603727661496109 ] ], [ [ -64.995377029650427, -10.599256683534168 ], [ -64.995526872050689, -10.599334590620931 ], [ -64.995461861175173, -10.599455663375599 ], [ -64.995362607047639, -10.599443317485751 ], [ -64.995377029650427, -10.599256683534168 ] ] ], [ [ [ -64.997268145495937, -10.593762191396072 ], [ -64.997137655553857, -10.593762191923972 ], [ -64.996571710625574, -10.593979873146687 ], [ -64.997268208508004, -10.594424665237117 ], [ -64.997130634219445, -10.594954528242315 ], [ -64.996789386130487, -10.595111777501796 ], [ -64.996615245987854, -10.595459933101928 ], [ -64.997311680531354, -10.595111652816595 ], [ -64.997320981881018, -10.594700467745801 ], [ -64.997790566250089, -10.594458620711816 ], [ -64.998223682199466, -10.593631022023214 ], [ -64.997964832093146, -10.593283306003675 ], [ -64.998005760106267, -10.593464203135584 ], [ -64.99779069162399, -10.593631592865298 ], [ -64.997763643782051, -10.593885839195329 ], [ -64.997254889087756, -10.594043090808665 ], [ -64.997158966058038, -10.593933608090826 ], [ -64.997268145495937, -10.593762191396072 ] ] ], [ [ [ -65.005805706410513, -10.593455048549773 ], [ -65.005577986176917, -10.593340464428312 ], [ -65.005670406846917, -10.593109155114673 ], [ -65.005404669100344, -10.592866999729132 ], [ -65.005583336775715, -10.592369059508277 ], [ -65.005204027735033, -10.592392714959914 ], [ -65.005322126561765, -10.59202077922293 ], [ -65.005125877570833, -10.59180571354438 ], [ -65.00549626670454, -10.591672395745075 ], [ -65.0051648032738, -10.591580631535228 ], [ -65.00509384062893, -10.591255752105386 ], [ -65.00549626756623, -10.590975817823789 ], [ -65.005279790637971, -10.590672612693215 ], [ -65.005365661597779, -10.590409982903191 ], [ -65.005017381846059, -10.590061713363935 ], [ -65.004799821830744, -10.590061713891851 ], [ -65.004782526060183, -10.590439910093091 ], [ -65.004320947300045, -10.59058413379198 ], [ -65.004303033969208, -10.590788512343222 ], [ -65.003886120937423, -10.590974844701362 ], [ -65.004146680599021, -10.590322912831892 ], [ -65.003580840832043, -10.590061713891879 ], [ -65.003450246586596, -10.590279263857576 ], [ -65.003537316657997, -10.590584009107248 ], [ -65.003663863355399, -10.590607518453298 ], [ -65.003666879141406, -10.590889513196872 ], [ -65.003406711223249, -10.590975955715475 ], [ -65.003406712084725, -10.591237045388334 ], [ -65.003846589946818, -10.591479200778727 ], [ -65.003616750405257, -10.591441403359839 ], [ -65.003450246586894, -10.591585439612386 ], [ -65.003762992076787, -10.591854160603562 ], [ -65.003624910863081, -10.591932615480054 ], [ -65.003493781622595, -10.591803114790697 ], [ -65.003397410316012, -10.592127229891174 ], [ -65.003189036906605, -10.592238454401354 ], [ -65.003661831656302, -10.592353795517017 ], [ -65.003473677334611, -10.592792047902067 ], [ -65.002541199387878, -10.592740246152335 ], [ -65.002547549929204, -10.592562827674167 ], [ -65.002753570852335, -10.592499550148727 ], [ -65.002762861239049, -10.592306040705235 ], [ -65.002971235169142, -10.592151270391319 ], [ -65.002873467982795, -10.592002670751267 ], [ -65.003014769671282, -10.591803104044665 ], [ -65.002884165097882, -10.591672509683729 ], [ -65.002368776768805, -10.591732935534671 ], [ -65.002492412789493, -10.591584045918795 ], [ -65.002370415337609, -10.591217432492202 ], [ -65.002710024955363, -10.59114996457094 ], [ -65.002710024955434, -10.590540598756338 ], [ -65.002318324797784, -10.590627669355618 ], [ -65.002130747446657, -10.591002718814963 ], [ -65.001752379868108, -10.591193630890368 ], [ -65.0018829222889, -10.591357003873426 ], [ -65.001744200539761, -10.591616059471974 ], [ -65.001600327919832, -10.591628708260512 ], [ -65.001534578992135, -10.591454834505456 ], [ -65.001273494803499, -10.591498369541121 ], [ -65.001443399287126, -10.591618856379162 ], [ -65.00136056540849, -10.591890070923304 ], [ -65.001491159120306, -10.59197712972064 ], [ -65.001876449639269, -10.591788185300294 ], [ -65.002017591178088, -10.592268127995109 ], [ -65.0017959157653, -10.592499561422686 ], [ -65.002101965986782, -10.592696900576051 ], [ -65.002084542085996, -10.592875543815289 ], [ -65.001621775089177, -10.5928914906826 ], [ -65.00166288672456, -10.593157683419681 ], [ -65.001530011153591, -10.593193838323725 ], [ -65.001360564875071, -10.592673815504169 ], [ -65.00130091142745, -10.592875543790987 ], [ -65.000941701482901, -10.593102208560799 ], [ -65.000421808869675, -10.59320060623619 ], [ -65.00035914389035, -10.592978561281882 ], [ -64.999515480382072, -10.592928068417677 ], [ -64.999321393131936, -10.592778531589138 ], [ -64.999270767998709, -10.592499675889487 ], [ -64.9991396276221, -10.593020991369153 ], [ -64.998922487713287, -10.59280442113918 ], [ -64.998681427539594, -10.592994668507478 ], [ -64.998661266637598, -10.592760885575634 ], [ -64.9984001824497, -10.5926738155043 ], [ -64.998506362382088, -10.592969358447792 ], [ -64.997747156914784, -10.593152576211509 ], [ -64.997921286195776, -10.593283180790607 ], [ -64.998584326156561, -10.593243550760839 ], [ -64.998915570718268, -10.593648477141038 ], [ -64.99840018244997, -10.593979866574349 ], [ -64.998390179507979, -10.594349718146614 ], [ -64.996775503701102, -10.596139495682459 ], [ -64.99639755994788, -10.595982478743093 ], [ -64.996223430341459, -10.596069554842854 ], [ -64.996223431200647, -10.59624357449006 ], [ -64.996606575135146, -10.596659311798005 ], [ -64.996658781023825, -10.596940124314727 ], [ -64.997137551250106, -10.597070728893803 ], [ -64.997485820999103, -10.596678907547769 ], [ -64.997529418723175, -10.596419097584159 ], [ -64.997442296499912, -10.596200153921432 ], [ -64.99711012397276, -10.596140671431577 ], [ -64.9970962643023, -10.595976730100055 ], [ -64.99768280714737, -10.595425496575958 ], [ -64.998443602320492, -10.595416397538472 ], [ -64.998555806707373, -10.595114884722792 ], [ -64.998885084458848, -10.595060512633351 ], [ -64.999009557784234, -10.595242257395748 ], [ -64.999261124593488, -10.595028773374095 ], [ -64.999711187637885, -10.594937817864492 ], [ -65.000533284032699, -10.595198722360125 ], [ -65.000361556441547, -10.594888995157852 ], [ -65.000677901504005, -10.594753032217513 ], [ -65.000857115618274, -10.594875769339623 ], [ -65.000849283060731, -10.59519074878876 ], [ -65.000620469802868, -10.595416408812488 ], [ -65.000962659371282, -10.595749528202113 ], [ -65.001012284590402, -10.59611295863715 ], [ -65.001455679266343, -10.595853988004636 ], [ -65.001845927930958, -10.596232293879469 ], [ -65.001752380196834, -10.596504773958202 ], [ -65.002415038169545, -10.596639569675245 ], [ -65.002492464941469, -10.59680951867997 ], [ -65.002840630061186, -10.596765984172253 ], [ -65.003101903288851, -10.596547039986048 ], [ -65.003058305239605, -10.59633075850029 ], [ -65.002823717399579, -10.596223278738556 ], [ -65.002854069854578, -10.596087030290956 ], [ -65.003493655596401, -10.595982353530216 ], [ -65.003406912497496, -10.59581365810949 ], [ -65.003549696528395, -10.595566893535013 ], [ -65.003711330774834, -10.595590538209184 ], [ -65.00377497027192, -10.595385235747909 ], [ -65.004103146095929, -10.595242257923864 ], [ -65.003906896372186, -10.594809631007527 ], [ -65.004103146422636, -10.594545690776755 ], [ -65.003950958735075, -10.59416190203641 ], [ -65.004031492654789, -10.59405321315363 ], [ -65.004504720206484, -10.594071002566235 ], [ -65.004667818898142, -10.594284549481547 ], [ -65.005186423730621, -10.59398197677635 ], [ -65.005774451653537, -10.593977051763142 ], [ -65.005791837225715, -10.594260446673312 ], [ -65.005539928299498, -10.594328146859436 ], [ -65.005663997705511, -10.594604161958809 ], [ -65.005365788690469, -10.594719848241901 ], [ -65.00540932319258, -10.594893977638563 ], [ -65.005824569148956, -10.59481928026818 ], [ -65.00580113904725, -10.595155198598633 ], [ -65.005975267794625, -10.595242257396011 ], [ -65.006198799581995, -10.594850766098833 ], [ -65.006584769155637, -10.59519872288833 ], [ -65.007150598592915, -10.595155187852656 ], [ -65.007324738735619, -10.594850567287414 ], [ -65.007011871069253, -10.594865413590883 ], [ -65.007293709521065, -10.594304377469809 ], [ -65.007496644922583, -10.594240512554498 ], [ -65.007078945192859, -10.594254675651793 ], [ -65.006845864205104, -10.593892797030602 ], [ -65.006638439661174, -10.594066874309684 ], [ -65.006306065330364, -10.593885887163243 ], [ -65.006138154068793, -10.593726630335837 ], [ -65.006323432381876, -10.593588040506996 ], [ -65.005975152630171, -10.593239770967674 ], [ -65.005805706410513, -10.593455048549773 ] ], [ [ -64.998416194164164, -10.594473513758221 ], [ -64.998735080295077, -10.594308333007476 ], [ -64.998923126484783, -10.594721327965432 ], [ -64.998851718185648, -10.595022203274025 ], [ -64.998085749419616, -10.594940055024059 ], [ -64.998416194164164, -10.594473513758221 ] ], [ [ -64.999437763365549, -10.593508216793181 ], [ -64.999349445233634, -10.593363835265784 ], [ -64.999529486356934, -10.593464203159089 ], [ -64.999437763365549, -10.593508216793181 ] ], [ [ -65.000291298808818, -10.593796524140568 ], [ -65.000010967907897, -10.59363158681685 ], [ -64.999640381081562, -10.594100575239988 ], [ -64.999451929443296, -10.594040292482431 ], [ -64.999817602766925, -10.593335918657266 ], [ -65.000272244376958, -10.593284212858791 ], [ -65.000403317688225, -10.593458811912205 ], [ -65.000291298808818, -10.593796524140568 ] ], [ [ -65.000450438798623, -10.59455581563023 ], [ -65.000478815472547, -10.594452906139422 ], [ -65.000554750107298, -10.594584979248507 ], [ -65.000450438798623, -10.59455581563023 ] ], [ [ -65.000621541838782, -10.594068345515167 ], [ -65.000750893032986, -10.593893703357811 ], [ -65.001229844603628, -10.593936206325784 ], [ -65.001447453559564, -10.593676028179079 ], [ -65.001621772935238, -10.593849227602556 ], [ -65.000969587823249, -10.594239890956727 ], [ -65.000621541838782, -10.594068345515167 ] ], [ [ -65.000971046945978, -10.595726250522864 ], [ -65.001007591072465, -10.595636470862864 ], [ -65.001105598477892, -10.59576222377553 ], [ -65.000971046945978, -10.595726250522864 ] ], [ [ -65.001044594428919, -10.595299908044584 ], [ -65.001370700697294, -10.595198785240795 ], [ -65.001535228612099, -10.595287283390984 ], [ -65.001437373066778, -10.595503530486759 ], [ -65.001128268107379, -10.595453591655074 ], [ -65.001044594428919, -10.595299908044584 ] ], [ [ -65.001368834294169, -10.593638393213846 ], [ -65.001275975793945, -10.593594808299491 ], [ -65.001400041460769, -10.593524366556798 ], [ -65.001368834294169, -10.593638393213846 ] ], [ [ -65.001856631159342, -10.595054624034542 ], [ -65.001854370896467, -10.594953362485588 ], [ -65.001996283490982, -10.595054624034816 ], [ -65.001856631159342, -10.595054624034542 ] ], [ [ -65.002318209633401, -10.59541652275127 ], [ -65.002092534150407, -10.595278282187879 ], [ -65.00222262181552, -10.595188382616042 ], [ -65.002718195390386, -10.595288032555644 ], [ -65.002797744640759, -10.595504958552285 ], [ -65.002440770380971, -10.595719028414702 ], [ -65.002318209633401, -10.59541652275127 ] ], [ [ -65.00303942294137, -10.594319241680036 ], [ -65.00311646194578, -10.594887636195132 ], [ -65.002531328012736, -10.595067898528605 ], [ -65.002173227821586, -10.595008991510895 ], [ -65.002150159647599, -10.594661152336915 ], [ -65.002448814740575, -10.594632767424427 ], [ -65.002551315489683, -10.594335799671313 ], [ -65.002926417469482, -10.594458689624421 ], [ -65.00303942294137, -10.594319241680036 ] ], [ [ -65.002263505316108, -10.595839176881256 ], [ -65.002350525649049, -10.595764740700806 ], [ -65.002318287463595, -10.595895345819288 ], [ -65.002263505316108, -10.595839176881256 ] ], [ [ -65.002623017895289, -10.596016440464062 ], [ -65.002555120504837, -10.59614741607297 ], [ -65.002371046033105, -10.596175988205557 ], [ -65.00243196675217, -10.595892593829264 ], [ -65.002623017895289, -10.596016440464062 ] ], [ [ -65.003827440022093, -10.592636621921237 ], [ -65.004140271485795, -10.592615350939955 ], [ -65.004103272122194, -10.593109041176058 ], [ -65.004396672873568, -10.592978498414302 ], [ -65.004335443128937, -10.593276839875106 ], [ -65.003929121117935, -10.593283306531363 ], [ -65.003842900338697, -10.593499795358372 ], [ -65.003456656248218, -10.593472251000973 ], [ -65.003462626367764, -10.593216001628919 ], [ -65.003754876672659, -10.593196110719523 ], [ -65.003885470384446, -10.592978446815119 ], [ -65.003827440022093, -10.592636621921237 ] ], [ [ -65.004466048364733, -10.591722386180546 ], [ -65.004474983222877, -10.591964882233716 ], [ -65.004115651843662, -10.592131504723634 ], [ -65.004125992058917, -10.591637948614338 ], [ -65.004466048364733, -10.591722386180546 ] ], [ [ -65.004180583118682, -10.591458900424405 ], [ -65.004273176612372, -10.591488251214958 ], [ -65.00415110601628, -10.591562804964367 ], [ -65.004180583118682, -10.591458900424405 ] ], [ [ -65.004673337233157, -10.59322965263029 ], [ -65.004776764592663, -10.593200126506751 ], [ -65.004703003725609, -10.593322650449569 ], [ -65.004673337233157, -10.59322965263029 ] ], [ [ -65.004973945295788, -10.593370255178975 ], [ -65.004956059345844, -10.593531219597873 ], [ -65.004760337171163, -10.593571413796795 ], [ -65.004860524342661, -10.593383246777098 ], [ -65.004973945295788, -10.593370255178975 ] ], [ [ -65.005235067885437, -10.593196236459983 ], [ -65.004864203865537, -10.593195005696273 ], [ -65.004896077990836, -10.592828461105301 ], [ -65.005167222941466, -10.592726428140288 ], [ -65.005540345031832, -10.593283773975831 ], [ -65.005324461784866, -10.59338003620309 ], [ -65.005235067885437, -10.593196236459983 ] ], [ [ -65.005104514928419, -10.590531025822553 ], [ -65.004962368065534, -10.59062315906859 ], [ -65.004890856453542, -10.590441321178536 ], [ -65.004983976794492, -10.590413773428446 ], [ -65.005104514928419, -10.590531025822553 ] ], [ [ -65.005061264527612, -10.593504909789038 ], [ -65.00528389727458, -10.593370563656595 ], [ -65.005477610866478, -10.593685017414098 ], [ -65.005061264527612, -10.593504909789038 ] ] ], [ [ [ -65.007237668992275, -10.592499544081633 ], [ -65.007020056497865, -10.592117308187332 ], [ -65.007194133956943, -10.591890053577758 ], [ -65.007063591532841, -10.591594887777598 ], [ -65.00723766866507, -10.590975949112888 ], [ -65.006845979368876, -10.59123715932688 ], [ -65.00645416372052, -10.592238471743871 ], [ -65.006497699083781, -10.592499550676816 ], [ -65.006816940254097, -10.592506016803778 ], [ -65.006802444867105, -10.592717236601157 ], [ -65.007020108650238, -10.592804295398594 ], [ -65.007150598593398, -10.5928042959265 ], [ -65.007237668992275, -10.592499544081633 ] ] ], [ [ [ -65.001314670071054, -10.591846085641361 ], [ -65.001014765563781, -10.591722801692724 ], [ -65.001099343799169, -10.591150089783685 ], [ -65.000664003976667, -10.591541911171896 ], [ -65.000664004837773, -10.591715930780596 ], [ -65.000838144446902, -10.592020665284238 ], [ -65.001229948906342, -10.592238339934646 ], [ -65.001314670071054, -10.591846085641361 ] ] ], [ [ [ -64.99509152027241, -10.591977140994434 ], [ -64.995483324198176, -10.592194804898824 ], [ -64.99635392060884, -10.592194804898826 ], [ -64.996484514854316, -10.591585439612636 ], [ -64.996004790956178, -10.591888999030258 ], [ -64.995658465471323, -10.591715864383429 ], [ -64.995875024354973, -10.591367764434297 ], [ -64.99565736003828, -10.591237159855252 ], [ -64.995222124845711, -10.59128069436303 ], [ -64.995330776783618, -10.591549799938822 ], [ -64.99509152027241, -10.591977140994434 ] ] ], [ [ [ -65.006845979367881, -10.58640477036765 ], [ -65.007020119510599, -10.586752925968497 ], [ -65.007455354705684, -10.586839995511907 ], [ -65.007540181085943, -10.586708951649078 ], [ -65.007411819670111, -10.586317700824248 ], [ -65.006845979367881, -10.58640477036765 ] ] ], [ [ [ -65.007977879433398, -10.583705598684061 ], [ -65.007466686586099, -10.583923210993602 ], [ -65.007251550512919, -10.583775545646697 ], [ -65.007436233090942, -10.583235790351733 ], [ -65.007778618604362, -10.583164906505839 ], [ -65.008108380241325, -10.583444262729746 ], [ -65.008207430047847, -10.583149576201683 ], [ -65.008413114629803, -10.583139518008002 ], [ -65.008543719736878, -10.582878307793971 ], [ -65.00828262468292, -10.582747827899308 ], [ -65.007840913688767, -10.582962923294273 ], [ -65.007803624130489, -10.582617222264437 ], [ -65.007673134183563, -10.582617222792354 ], [ -65.007063654545632, -10.583531458013502 ], [ -65.007059096414181, -10.583848138615775 ], [ -65.006802444331768, -10.584097413477188 ], [ -65.006454164046559, -10.584967989506014 ], [ -65.006715248238308, -10.584837384399027 ], [ -65.006759432338328, -10.584664348685434 ], [ -65.007141423618805, -10.58481801452483 ], [ -65.007167636737492, -10.585121844599456 ], [ -65.006845979901271, -10.585490523872577 ], [ -65.00701999348783, -10.585751620148091 ], [ -65.007131370461593, -10.585542523408296 ], [ -65.007455343844569, -10.585490409934074 ], [ -65.007510543685854, -10.585248941920181 ], [ -65.007915001046584, -10.58488949787219 ], [ -65.008048842427812, -10.584896866299275 ], [ -65.008195439451029, -10.585185664684426 ], [ -65.008611561605832, -10.5848024277999 ], [ -65.008848464986201, -10.584793849363479 ], [ -65.008979070093247, -10.584489228798166 ], [ -65.00867433570491, -10.584140949040753 ], [ -65.008282624683162, -10.584140949040725 ], [ -65.007982445354259, -10.584706560033364 ], [ -65.007595951511064, -10.584293124602782 ], [ -65.007619479306214, -10.584101193259817 ], [ -65.008761457925814, -10.583834809574094 ], [ -65.008761394915027, -10.583705598156142 ], [ -65.007977879433398, -10.583705598684061 ] ], [ [ -65.007673561808815, -10.584620301935086 ], [ -65.007512900109404, -10.584804316579774 ], [ -65.007320210790866, -10.584644200173962 ], [ -65.007461313895462, -10.584358822502564 ], [ -65.007673561808815, -10.584620301935086 ] ] ], [ [ [ -65.008631906055157, -10.580179080242353 ], [ -65.008717870741293, -10.579787445473865 ], [ -65.008369705614882, -10.57987451501727 ], [ -65.008500002267198, -10.580227117368709 ], [ -65.008413240650711, -10.580701556010514 ], [ -65.008848464987054, -10.580570950903516 ], [ -65.008848464453507, -10.580309854627895 ], [ -65.008631906055157, -10.580179080242353 ] ] ], [ [ [ -65.214899788841947, -10.455886733424299 ], [ -65.214725763797347, -10.455930268987823 ], [ -65.214333959331839, -10.456496099254373 ], [ -65.2146232717771, -10.456526003744056 ], [ -65.214812718770432, -10.456757309468422 ], [ -65.215030393948865, -10.456496099254418 ], [ -65.214899788841947, -10.455886733424299 ] ] ], [ [ [ -65.185964028172137, -10.453072685738917 ], [ -65.186297270406811, -10.453100366471071 ], [ -65.186382131898469, -10.452664582587687 ], [ -65.18612324536322, -10.452578071242499 ], [ -65.185774975544305, -10.452969893875983 ], [ -65.185828970546964, -10.453229254450196 ], [ -65.185600836324141, -10.453361690611755 ], [ -65.185600824935392, -10.453796926513878 ], [ -65.185731314942956, -10.453796927041738 ], [ -65.185964028172137, -10.453072685738917 ] ] ], [ [ [ -65.215465859403039, -10.451968580741905 ], [ -65.215378800720288, -10.452186141467889 ], [ -65.215988164734384, -10.452708551151249 ], [ -65.216017186945919, -10.452584411379204 ], [ -65.216292909450829, -10.452534421753262 ], [ -65.216036255370895, -10.452372328794432 ], [ -65.216095327305183, -10.452111431824362 ], [ -65.216641190269556, -10.4522296657589 ], [ -65.216826642649508, -10.451968517885955 ], [ -65.217120086517198, -10.452099060124038 ], [ -65.217294215804714, -10.451663834964315 ], [ -65.217163725793995, -10.451620300456502 ], [ -65.21688915196961, -10.45190123140349 ], [ -65.216467165223307, -10.451446160313839 ], [ -65.216441741490797, -10.451796396219427 ], [ -65.216249374948589, -10.451663834964393 ], [ -65.215944744795337, -10.451707370527913 ], [ -65.215465859403039, -10.451968580741905 ] ] ], [ [ [ -64.995613929280481, -10.445002975043543 ], [ -64.995352729923027, -10.445177114658296 ], [ -64.9953962649587, -10.445481735221591 ], [ -64.995613929280537, -10.44552526972933 ], [ -64.996421963763041, -10.445346754932419 ], [ -64.996832806025878, -10.445568804765021 ], [ -64.997178863341432, -10.44530716067648 ], [ -64.996919876097266, -10.445090045114849 ], [ -64.996619539048581, -10.44514637598899 ], [ -64.996832858152487, -10.444914510733765 ], [ -64.99678926013388, -10.444349948980562 ], [ -64.996658665883373, -10.444306414472809 ], [ -64.996049290493573, -10.444567624158887 ], [ -64.996114053958337, -10.445036613004739 ], [ -64.995613929280481, -10.445002975043543 ] ] ], [ [ [ -65.08856174202667, -10.443129863613756 ], [ -65.088517580292304, -10.442956827835692 ], [ -65.088082355894059, -10.442869757764345 ], [ -65.088430636179481, -10.443522658619958 ], [ -65.088774201798842, -10.443220310873334 ], [ -65.089083535755989, -10.443304983441665 ], [ -65.089083535756018, -10.443043897907009 ], [ -65.08856174202667, -10.443129863613756 ] ] ], [ [ [ -65.008407293863868, -10.438385847913164 ], [ -65.008980478099588, -10.438559726894743 ], [ -65.009632095657992, -10.438559664550809 ], [ -65.009843950086776, -10.438385847909537 ], [ -65.010111096156706, -10.438646734094217 ], [ -65.010728573751607, -10.43858244249652 ], [ -65.01093826183444, -10.4387338041655 ], [ -65.011634718154951, -10.438603199058502 ], [ -65.011676031594106, -10.438298020261197 ], [ -65.009539723487109, -10.438133861994668 ], [ -65.006439877380075, -10.437915814279373 ], [ -65.005888208553074, -10.437950298736874 ], [ -65.005931732732549, -10.438124313665943 ], [ -65.006192942946555, -10.438254918773076 ], [ -65.007455458980914, -10.438429058915803 ], [ -65.008407293863868, -10.438385847913164 ] ] ], [ [ [ -65.003885596912369, -10.438037244122459 ], [ -65.004754889646918, -10.438124376537594 ], [ -65.005063668268733, -10.438015965382002 ], [ -65.005583348196851, -10.438167848701601 ], [ -65.005713310785566, -10.437864702061884 ], [ -65.004051073367108, -10.437747761277295 ], [ -65.003885596912369, -10.438037244122459 ] ] ], [ [ [ -65.002927815271448, -10.437950173523147 ], [ -65.003837052621762, -10.437732703967104 ], [ -65.002431408918198, -10.437633807036779 ], [ -65.002091630607325, -10.437609900289408 ], [ -65.001839450235948, -10.437602018451695 ], [ -65.002927815271448, -10.437950173523147 ] ] ], [ [ [ -64.998727580274775, -10.437373186265534 ], [ -64.996489173227531, -10.437253394221358 ], [ -64.995091519707415, -10.437123133059576 ], [ -64.995396254100825, -10.437340683023519 ], [ -64.998917547444591, -10.437515128887643 ], [ -64.999183813060171, -10.437645428801334 ], [ -64.999575513274451, -10.437645428273406 ], [ -64.999736586833492, -10.437444189609487 ], [ -64.998727580274775, -10.437373186265534 ] ] ], [ [ [ -64.926610908638324, -10.613309422413925 ], [ -64.926654443674096, -10.61396232325883 ], [ -64.926915527848095, -10.614005858294478 ], [ -64.926787181913966, -10.613739025096615 ], [ -64.927087429312934, -10.613482997187681 ], [ -64.926915538711086, -10.613135282799179 ], [ -64.926610908638324, -10.613309422413925 ] ] ], [ [ [ -64.898051925240594, -10.613396492486437 ], [ -64.903101863336332, -10.613657702700129 ], [ -64.901316093114588, -10.613525911700902 ], [ -64.901099262558603, -10.61317881783577 ], [ -64.90061580444862, -10.613439683581486 ], [ -64.900304145965038, -10.61343551751197 ], [ -64.900227268163562, -10.613265825033332 ], [ -64.899527428549376, -10.613439683601536 ], [ -64.898051925240594, -10.613396492486437 ] ] ], [ [ [ -64.984468855867576, -10.611567895771195 ], [ -64.98499126543328, -10.611176080978064 ], [ -64.985034800468966, -10.611045600557025 ], [ -64.984602057301714, -10.611008822960358 ], [ -64.984605540650506, -10.610769115123963 ], [ -64.984904258379203, -10.610478251386764 ], [ -64.984635410361037, -10.610357684464702 ], [ -64.984904258379231, -10.610042901030035 ], [ -64.984643293632672, -10.609874476056218 ], [ -64.985165405576339, -10.609217129058941 ], [ -64.984643111182251, -10.609521874308621 ], [ -64.984098372067464, -10.610252073397525 ], [ -64.983598270326411, -10.610218434879428 ], [ -64.983863481491412, -10.610711067699881 ], [ -64.983641805895829, -10.611002054775234 ], [ -64.983772399606863, -10.611393755628457 ], [ -64.984468855867576, -10.611567895771195 ] ] ], [ [ [ -64.985339671753053, -10.61021831019336 ], [ -64.985613262537512, -10.609715780325265 ], [ -64.985949036218386, -10.609478214587005 ], [ -64.986085731823877, -10.609027713745983 ], [ -64.986602061753658, -10.608259358274143 ], [ -64.986271461451807, -10.608600973665762 ], [ -64.9860362323234, -10.608607638559535 ], [ -64.985857670717181, -10.609360530631278 ], [ -64.985578563338436, -10.609599047873258 ], [ -64.985078461218876, -10.609434810681377 ], [ -64.985034927036892, -10.609608830440147 ], [ -64.985339671753053, -10.61021831019336 ] ] ], [ [ [ -64.932139858165257, -10.599378210999683 ], [ -64.932096323663274, -10.599726377341662 ], [ -64.932348231483246, -10.599837602862488 ], [ -64.932400720709396, -10.600157787047843 ], [ -64.93203890534356, -10.60079774385558 ], [ -64.931220937104385, -10.601032198400281 ], [ -64.930833807095524, -10.600901937248132 ], [ -64.930752085718197, -10.601437979786928 ], [ -64.930529061526144, -10.601554969224726 ], [ -64.930522525699502, -10.601874511674984 ], [ -64.930267851312408, -10.602033854613222 ], [ -64.930267852165812, -10.602556154660087 ], [ -64.930354922237214, -10.602860899909796 ], [ -64.930582402214256, -10.602903021762184 ], [ -64.930485463792962, -10.602992888021642 ], [ -64.930572597415733, -10.603688065587498 ], [ -64.930904757510177, -10.603834607500017 ], [ -64.931051482274512, -10.604123405197729 ], [ -64.931312629470668, -10.604122136137164 ], [ -64.931183077728051, -10.604036277878439 ], [ -64.931269030883598, -10.603644633748774 ], [ -64.931060658197453, -10.602928590406185 ], [ -64.931225496381785, -10.602904424199018 ], [ -64.93132188043171, -10.602535212780346 ], [ -64.931573776667193, -10.602512608877964 ], [ -64.931606391192815, -10.602376286609248 ], [ -64.931922057272132, -10.602512602442372 ], [ -64.93218326748638, -10.602120787118139 ], [ -64.932061333381938, -10.601839981344426 ], [ -64.93227034810046, -10.601859582815026 ], [ -64.932749222950591, -10.601337156469691 ], [ -64.932664411631976, -10.601070330099352 ], [ -64.932966897809024, -10.600727672415594 ], [ -64.933019348453385, -10.600350146854334 ], [ -64.933178608502786, -10.600407777540806 ], [ -64.933184699021496, -10.600640602344264 ], [ -64.93335871313009, -10.600597067308609 ], [ -64.933924668593974, -10.599639421213684 ], [ -64.933491925405676, -10.59938496723432 ], [ -64.933442832136151, -10.599081992797531 ], [ -64.933619923344466, -10.598768720500283 ], [ -64.933141153123159, -10.598638115921243 ], [ -64.932822978260319, -10.599142928967435 ], [ -64.932618743236702, -10.599204077318342 ], [ -64.93259642532864, -10.59941184920679 ], [ -64.932139858165257, -10.599378210999683 ] ], [ [ -64.930746674006983, -10.602251216435866 ], [ -64.930546174153136, -10.602288303789932 ], [ -64.930535198954487, -10.602139580936118 ], [ -64.930674392816513, -10.602126819125081 ], [ -64.930746674006983, -10.602251216435866 ] ], [ [ -64.930594424598866, -10.602912444545543 ], [ -64.930647077077055, -10.602603936525011 ], [ -64.930920872463616, -10.60312212317406 ], [ -64.93091967848261, -10.603558982375075 ], [ -64.930815019957279, -10.60369807118504 ], [ -64.930594424598866, -10.602912444545543 ] ], [ [ -64.932555238607165, -10.599586042358075 ], [ -64.932618427911251, -10.599634402001398 ], [ -64.932444804371158, -10.599721044568321 ], [ -64.932555238607165, -10.599586042358075 ] ], [ [ -64.932536106027271, -10.600609127065878 ], [ -64.932563340067091, -10.600513916976418 ], [ -64.932642099965449, -10.600635458445531 ], [ -64.932536106027271, -10.600609127065878 ] ], [ [ -64.93344584621822, -10.600281684053382 ], [ -64.933208999668039, -10.600239709059053 ], [ -64.933173186680492, -10.60008593627129 ], [ -64.933334412488151, -10.600083849542544 ], [ -64.93344584621822, -10.600281684053382 ] ] ], [ [ [ -64.991608716887356, -10.601467768024092 ], [ -64.991739195430668, -10.600988996571154 ], [ -64.991262917658148, -10.599863853516872 ], [ -64.991151130876105, -10.599119599557369 ], [ -64.991260310038726, -10.598899314859052 ], [ -64.99112982063258, -10.598812256061768 ], [ -64.990825086778713, -10.600248797771435 ], [ -64.991294670069266, -10.600708302744927 ], [ -64.991391041708965, -10.601250092845751 ], [ -64.991608716887356, -10.601467768024092 ] ] ], [ [ [ -64.991868518393161, -10.596113020979747 ], [ -64.991738358149746, -10.596286037621296 ], [ -64.990955691351218, -10.595895408144054 ], [ -64.990999226920579, -10.596374179596904 ], [ -64.991260373584964, -10.596711812947827 ], [ -64.99091215631573, -10.596766108857437 ], [ -64.990825086778059, -10.596983773289638 ], [ -64.991042698403049, -10.597212095438 ], [ -64.990868621813945, -10.598159116059335 ], [ -64.991216775536756, -10.598507385598555 ], [ -64.991177320267553, -10.598190557765257 ], [ -64.991477985750919, -10.597897895099241 ], [ -64.991534026852094, -10.597525970283156 ], [ -64.991780942134341, -10.597394566314854 ], [ -64.991739322527238, -10.597941440881021 ], [ -64.991991861287431, -10.598139502993059 ], [ -64.992087602812745, -10.598638001451727 ], [ -64.992392284512391, -10.598995843930075 ], [ -64.992253562178306, -10.599626505973276 ], [ -64.991913462136623, -10.599378210997516 ], [ -64.991826392599123, -10.600510007985502 ], [ -64.992081511962425, -10.600712522179119 ], [ -64.992087602813228, -10.60103242841355 ], [ -64.992827687024032, -10.601554837567599 ], [ -64.993132327967686, -10.601554837567607 ], [ -64.993282219697619, -10.601209141125329 ], [ -64.993524132426728, -10.601337162917151 ], [ -64.9935260472529, -10.601182114376556 ], [ -64.993698283431442, -10.601206557282234 ], [ -64.993785342640791, -10.601032542352876 ], [ -64.993429182020961, -10.600539355350463 ], [ -64.99365473753393, -10.600335981782187 ], [ -64.993397948673092, -10.600044033118692 ], [ -64.99339352678642, -10.599726480536701 ], [ -64.993136552892892, -10.599605879635423 ], [ -64.993132317106145, -10.599073465747807 ], [ -64.992762819607691, -10.599237709417467 ], [ -64.992680054190458, -10.598789005370934 ], [ -64.993437062355881, -10.598812130848344 ], [ -64.993446363840931, -10.598575085961349 ], [ -64.993828877143429, -10.598246186130758 ], [ -64.993716562759744, -10.597773486084469 ], [ -64.994100350340972, -10.59759321219887 ], [ -64.994482018378804, -10.597854359535738 ], [ -64.994568973283549, -10.597767414677692 ], [ -64.994100016488858, -10.597267533382642 ], [ -64.994090087891294, -10.59707085410702 ], [ -64.993812391148779, -10.597281571960524 ], [ -64.99335000314683, -10.596679039313923 ], [ -64.992866539685451, -10.596676641186448 ], [ -64.992522826607285, -10.596287223465067 ], [ -64.991868518393161, -10.596113020979747 ] ], [ [ -64.992139117700489, -10.596525625569539 ], [ -64.992033419561324, -10.596436994474576 ], [ -64.992082298230088, -10.596374481119971 ], [ -64.992139117700489, -10.596525625569539 ] ], [ [ -64.992727488049908, -10.600418775659362 ], [ -64.992680054100248, -10.600312731623159 ], [ -64.992764002592111, -10.600276215850975 ], [ -64.992727488049908, -10.600418775659362 ] ], [ [ -64.992935604784392, -10.601205450136783 ], [ -64.992784384476735, -10.600941419012218 ], [ -64.992883613076287, -10.600660492836536 ], [ -64.993219567422685, -10.60059809886104 ], [ -64.993293528774387, -10.601154365582959 ], [ -64.992935604784392, -10.601205450136783 ] ] ], [ [ [ -64.934577820162204, -10.597332064323165 ], [ -64.934490750090916, -10.597636684883145 ], [ -64.934877483414667, -10.597593455062993 ], [ -64.935416153073547, -10.597754716245314 ], [ -64.935351447373691, -10.598050195904328 ], [ -64.934839030376452, -10.598594455667879 ], [ -64.935187184628688, -10.598507385596532 ], [ -64.935264623770834, -10.598293901191683 ], [ -64.935491940740661, -10.598376779961601 ], [ -64.93570960537815, -10.598202633874989 ], [ -64.935567863123808, -10.597976989328455 ], [ -64.935670016693123, -10.597713279137356 ], [ -64.936142719381976, -10.59715735943738 ], [ -64.935654592811844, -10.597153414240681 ], [ -64.935535464914352, -10.596896713966446 ], [ -64.934882554549603, -10.596940249530173 ], [ -64.934708424947388, -10.597070860588689 ], [ -64.935041658197633, -10.597260719487767 ], [ -64.93505228040415, -10.597440030073324 ], [ -64.934577820162204, -10.597332064323165 ] ] ], [ [ [ -64.995483324199, -10.596722574349537 ], [ -64.995091519739944, -10.597593149849702 ], [ -64.995396149823165, -10.597723754428761 ], [ -64.995962094425153, -10.597027319071268 ], [ -64.99578795428252, -10.596766108857278 ], [ -64.995483324199, -10.596722574349537 ] ] ], [ [ [ -64.985862091853519, -10.596635510290891 ], [ -64.986123291530546, -10.597462544214421 ], [ -64.986297316830687, -10.597419003172037 ], [ -64.98621059408444, -10.596987712917374 ], [ -64.986384386577697, -10.596504898643605 ], [ -64.986036221459045, -10.596417829100185 ], [ -64.985862091853519, -10.596635510290891 ] ] ], [ [ [ -64.983032314859898, -10.596678914100167 ], [ -64.983772295299374, -10.596678913572266 ], [ -64.983946424046579, -10.596417817826143 ], [ -64.983685329532889, -10.595808338600889 ], [ -64.983293524748959, -10.596069554828574 ], [ -64.983032314859898, -10.596678914100167 ] ] ], [ [ [ -64.994917379597069, -10.596548308993626 ], [ -64.995047869537999, -10.596548308465691 ], [ -64.994982214161283, -10.596066824835781 ], [ -64.995132694315487, -10.595503028473528 ], [ -64.994873844561212, -10.595547127858575 ], [ -64.994797630323347, -10.595807185902956 ], [ -64.994525438248289, -10.595634197929932 ], [ -64.994264354061912, -10.595721268001252 ], [ -64.994220819026339, -10.596330633815258 ], [ -64.994834876767939, -10.596289496426873 ], [ -64.994917379597069, -10.596548308993626 ] ] ], [ [ [ -64.97667618879025, -10.595068117252257 ], [ -64.977039206959375, -10.594900003046494 ], [ -64.977329110020364, -10.595329327466287 ], [ -64.977764449840123, -10.595024576201816 ], [ -64.97782805638272, -10.594818448739995 ], [ -64.978069194765013, -10.59476337253056 ], [ -64.978109565128022, -10.59457941437517 ], [ -64.978330531007487, -10.595068117780254 ], [ -64.978635150228612, -10.595111652815902 ], [ -64.978635150228712, -10.594110471682242 ], [ -64.977285690151334, -10.594110471682196 ], [ -64.977195867293617, -10.594262325491318 ], [ -64.976893874830296, -10.59411047168218 ], [ -64.976873770122594, -10.594446379070664 ], [ -64.976589118718806, -10.5943716824241 ], [ -64.976153779224049, -10.594719837494829 ], [ -64.97667618879025, -10.595068117252257 ] ] ], [ [ [ -64.995178590344068, -10.593587937314195 ], [ -64.995569362493981, -10.594153247913813 ], [ -64.99530919545127, -10.594415206185039 ], [ -64.995483335060371, -10.594719837495527 ], [ -64.99591855971596, -10.594763365965855 ], [ -64.995835725026467, -10.59418742358269 ], [ -64.996223304639827, -10.594066811960532 ], [ -64.996395210646156, -10.593718092081106 ], [ -64.995661907478677, -10.593556451789732 ], [ -64.995712549401915, -10.593259388255547 ], [ -64.996092699532966, -10.593022095789745 ], [ -64.99574454527405, -10.592978560754062 ], [ -64.995724440873687, -10.593140328135846 ], [ -64.995265659555287, -10.593370382650406 ], [ -64.995178590344068, -10.593587937314195 ] ] ], [ [ [ -64.986863334982417, -10.59411992025518 ], [ -64.987037412113338, -10.593718656360776 ], [ -64.986297431672568, -10.593588051781714 ], [ -64.986224867916761, -10.593842795275039 ], [ -64.985557871829158, -10.593978762151403 ], [ -64.985296021548322, -10.593631586817423 ], [ -64.984675041997136, -10.593496471367478 ], [ -64.984399688494662, -10.593270009225748 ], [ -64.984381774404042, -10.592760874829958 ], [ -64.984023933431246, -10.592371487598642 ], [ -64.984124511211505, -10.592010189050734 ], [ -64.984264957046022, -10.591842676521653 ], [ -64.98486067119191, -10.591933594684335 ], [ -64.985121933557522, -10.591627580940722 ], [ -64.984817136156437, -10.590758274463267 ], [ -64.984641571586081, -10.590756657984441 ], [ -64.984662220974087, -10.591271491980942 ], [ -64.984386010631667, -10.591073012452863 ], [ -64.984600989706166, -10.590716230169917 ], [ -64.984468855871171, -10.590192318999598 ], [ -64.983641805357976, -10.590322923578714 ], [ -64.983682733372873, -10.59059089045512 ], [ -64.983337060642057, -10.59115007851025 ], [ -64.983286492896113, -10.591558795206733 ], [ -64.98313268632144, -10.591764186231401 ], [ -64.9829017097519, -10.5917595797558 ], [ -64.98285361639644, -10.592206865475969 ], [ -64.982509894105021, -10.592586752000097 ], [ -64.982857132074173, -10.59289073216787 ], [ -64.982596901488776, -10.593804332722417 ], [ -64.982996754529765, -10.593812777893511 ], [ -64.982879392234707, -10.594144110178419 ], [ -64.981942530261932, -10.593979804232145 ], [ -64.978635276257023, -10.594110471682214 ], [ -64.978635276790769, -10.595155198597793 ], [ -64.979608670002179, -10.595108273502133 ], [ -64.97968011711329, -10.595634073243998 ], [ -64.979897792291666, -10.595938818493716 ], [ -64.980507156762357, -10.595721143315343 ], [ -64.981232525319214, -10.595074143174189 ], [ -64.982205034015564, -10.594676301931445 ], [ -64.982336279322269, -10.594198521511034 ], [ -64.9826753637156, -10.594308420065152 ], [ -64.982596964502804, -10.5946327674237 ], [ -64.983201231105568, -10.594243187018627 ], [ -64.983491095614013, -10.594383930074514 ], [ -64.983554185601065, -10.594612152753038 ], [ -64.983337049247339, -10.594632892637879 ], [ -64.983259622311905, -10.594846376639191 ], [ -64.983119384930845, -10.594719962181284 ], [ -64.982858174716895, -10.594894102323968 ], [ -64.982858174716895, -10.595111652816117 ], [ -64.983686623076608, -10.595285855301944 ], [ -64.984179723358508, -10.595113950726349 ], [ -64.984164214925158, -10.595547002644894 ], [ -64.984371638667213, -10.59532939034408 ], [ -64.984642985151112, -10.595547003172831 ], [ -64.984736540121503, -10.595182093099174 ], [ -64.984904195690461, -10.595111646265948 ], [ -64.984908431108252, -10.594709844231295 ], [ -64.985040024341259, -10.59467853737582 ], [ -64.985165468590651, -10.595102204243146 ], [ -64.985034927033936, -10.595285803704995 ], [ -64.985165520745525, -10.595459932573585 ], [ -64.985349674898046, -10.595420302576477 ], [ -64.985687836869019, -10.595677607751941 ], [ -64.985886273992634, -10.595250836467201 ], [ -64.986244606066265, -10.595353493435919 ], [ -64.986294446341162, -10.595616323742306 ], [ -64.985905627213782, -10.595721268001578 ], [ -64.986036221459003, -10.596243563215658 ], [ -64.986350980650698, -10.596160398180416 ], [ -64.986471582677567, -10.59641770388629 ], [ -64.986645607653628, -10.596461238394033 ], [ -64.986527497719933, -10.595915174022599 ], [ -64.986868352533605, -10.595764983547413 ], [ -64.987182870283547, -10.595857773800674 ], [ -64.987827110023957, -10.596884161648338 ], [ -64.98777763374774, -10.597157799492717 ], [ -64.987995363561353, -10.596984690894356 ], [ -64.988082378997419, -10.597201334528391 ], [ -64.988256393111428, -10.597201334528387 ], [ -64.988125851013251, -10.596515534953948 ], [ -64.988299927613681, -10.596243677683375 ], [ -64.98807262076366, -10.596326567870785 ], [ -64.987951974835951, -10.596118403811456 ], [ -64.988169323040324, -10.596025888565332 ], [ -64.988170365683047, -10.595328693969671 ], [ -64.988367770997726, -10.595163766378338 ], [ -64.990099717737593, -10.595509493502485 ], [ -64.990172060709213, -10.596069423601055 ], [ -64.99031598785065, -10.595737908936941 ], [ -64.990648585522905, -10.595590098515814 ], [ -64.990563750002309, -10.595460057787426 ], [ -64.98833721948553, -10.595109198221559 ], [ -64.98813232378302, -10.594995976990244 ], [ -64.988125798866719, -10.594676427673331 ], [ -64.987818416008281, -10.594871816104403 ], [ -64.987690448510008, -10.594676427673392 ], [ -64.987020925412764, -10.594625934758579 ], [ -64.986863334982417, -10.59411992025518 ] ], [ [ -64.983563004204072, -10.594813838333208 ], [ -64.983470146241757, -10.594770254033675 ], [ -64.983594211811322, -10.594699813678758 ], [ -64.983563004204072, -10.594813838333208 ] ], [ [ -64.984339438512791, -10.595113186110202 ], [ -64.984433820935905, -10.59497823751434 ], [ -64.984523361379033, -10.595154160361295 ], [ -64.984339438512791, -10.595113186110202 ] ], [ [ -64.987036574276502, -10.595502406988251 ], [ -64.986234671951479, -10.595102575124521 ], [ -64.98616782771353, -10.594894158221024 ], [ -64.986515172616166, -10.594851474156949 ], [ -64.987603430589488, -10.595145739342192 ], [ -64.987363500839862, -10.595493696310891 ], [ -64.987036574276502, -10.595502406988251 ] ], [ [ -64.986247537918516, -10.596023433964781 ], [ -64.986207295173088, -10.595947470630913 ], [ -64.986338554127656, -10.595987460397762 ], [ -64.986247537918516, -10.596023433964781 ] ], [ [ -64.986634118810187, -10.595716758192326 ], [ -64.986585149535429, -10.59561094767948 ], [ -64.986728557140637, -10.595687726279413 ], [ -64.986634118810187, -10.595716758192326 ] ], [ [ -64.987864701664606, -10.595416488886885 ], [ -64.987722494658158, -10.595455547986443 ], [ -64.987653438403044, -10.595314523423808 ], [ -64.987792360842462, -10.595291818335021 ], [ -64.987864701664606, -10.595416488886885 ] ] ], [ [ [ -64.992435882235085, -10.589931114854997 ], [ -64.99241796921865, -10.590222556798773 ], [ -64.992000531878674, -10.590366465207975 ], [ -64.991956997704079, -10.590671089924268 ], [ -64.992109711297942, -10.590847942780607 ], [ -64.991993705229405, -10.591350026073311 ], [ -64.991434576742648, -10.591454834505779 ], [ -64.991434577276337, -10.591933605958674 ], [ -64.991695776095128, -10.59223833993433 ], [ -64.992202088906808, -10.59229782249049 ], [ -64.992044067775851, -10.592717236600734 ], [ -64.992478301293573, -10.592891546427261 ], [ -64.992348813025629, -10.593283192064431 ], [ -64.99252069369453, -10.593408163167204 ], [ -64.992566140018411, -10.593932277995821 ], [ -64.992392347527911, -10.594284487138712 ], [ -64.992651298792154, -10.594670679152726 ], [ -64.992653249268216, -10.595237936084908 ], [ -64.992305277990468, -10.595764792290863 ], [ -64.99230527745685, -10.595982353529905 ], [ -64.993001775013639, -10.595894014442885 ], [ -64.993001711999824, -10.595634197929961 ], [ -64.992523942918837, -10.595677552558096 ], [ -64.992871106892892, -10.595416398066138 ], [ -64.992740564787155, -10.595188086738119 ], [ -64.992827571323815, -10.594284601078094 ], [ -64.992609959690739, -10.593534943089107 ], [ -64.992784036288398, -10.59310915511505 ], [ -64.992544252477003, -10.592632879242478 ], [ -64.992740501252968, -10.591933709151967 ], [ -64.992653431715254, -10.591716044719796 ], [ -64.992364804901555, -10.591743632779783 ], [ -64.992309097891464, -10.591487768534597 ], [ -64.993001893528501, -10.591455741380505 ], [ -64.993480608254714, -10.59167238447068 ], [ -64.994003028682826, -10.591367639221 ], [ -64.994131389135234, -10.59106245498562 ], [ -64.993785405653796, -10.590748700729247 ], [ -64.994003018148888, -10.590322792296655 ], [ -64.993959791248969, -10.589630685033974 ], [ -64.994090087892872, -10.589365152793636 ], [ -64.993393538183824, -10.58888626792919 ], [ -64.992871232919171, -10.588973337472629 ], [ -64.992733595715947, -10.58973032372942 ], [ -64.992435882235085, -10.589931114854997 ] ], [ [ -64.992392284512391, -10.590966375877182 ], [ -64.992225113480117, -10.590949304769961 ], [ -64.992245992824849, -10.590711233528934 ], [ -64.992342722374957, -10.590742999373228 ], [ -64.992392284512391, -10.590966375877182 ] ] ], [ [ [ -64.994525564808541, -10.591062905245373 ], [ -64.994830298663032, -10.591367639221064 ], [ -64.995091404574538, -10.591411174256709 ], [ -64.995097929387441, -10.591222229949221 ], [ -64.995221998819986, -10.591193499606302 ], [ -64.995265533322183, -10.590409982903484 ], [ -64.995004438805552, -10.590322924106228 ], [ -64.994834877551781, -10.590494666117333 ], [ -64.994351424132191, -10.590540598756641 ], [ -64.994351424132191, -10.590671079178279 ], [ -64.994649633714587, -10.590743344579868 ], [ -64.994695468751331, -10.590898872506353 ], [ -64.994525564808541, -10.591062905245373 ] ] ], [ [ [ -64.994656158495872, -10.445438325400261 ], [ -64.994482029743097, -10.445612454268796 ], [ -64.994394959138504, -10.446091225720897 ], [ -64.994699589277886, -10.446265365335679 ], [ -64.994801687984491, -10.445976475769296 ], [ -64.995221998849487, -10.445699535086348 ], [ -64.994656158495872, -10.445438325400261 ] ] ], [ [ [ -64.890433283105011, -10.431376383133015 ], [ -64.891265576306509, -10.431509223831997 ], [ -64.891782869210758, -10.43176819845408 ], [ -64.89213104524103, -10.431724663418439 ], [ -64.892215891998887, -10.431463019226996 ], [ -64.891743387369971, -10.431229264315666 ], [ -64.891826289134784, -10.430984693033992 ], [ -64.891347414599139, -10.43063641327662 ], [ -64.890781563390235, -10.430592878240979 ], [ -64.890433293961607, -10.43085408792701 ], [ -64.890346224423666, -10.431158822429831 ], [ -64.890433283105011, -10.431376383133015 ] ], [ [ -64.891628826279671, -10.431332214936807 ], [ -64.891739282045421, -10.431539883970208 ], [ -64.89163092027492, -10.431584286380476 ], [ -64.891490508940109, -10.431352740471358 ], [ -64.891628826279671, -10.431332214936807 ] ] ], [ [ [ -64.893818766663429, -10.430919821808313 ], [ -64.893654886601027, -10.430941157998246 ], [ -64.893785480851378, -10.431202242990464 ], [ -64.894177181441094, -10.431115165788013 ], [ -64.894177180527706, -10.430636402001712 ], [ -64.893959631850592, -10.430505807641559 ], [ -64.893818766663429, -10.430919821808313 ] ] ], [ [ [ -64.831573914882085, -10.430592878243019 ], [ -64.83139978612985, -10.430941044049456 ], [ -64.831682562457246, -10.431079659277451 ], [ -64.831486855667862, -10.431376383658973 ], [ -64.832096220194785, -10.431245778551945 ], [ -64.832009150123554, -10.430592877715004 ], [ -64.831573914882085, -10.430592878243019 ] ] ], [ [ [ -64.852123744665363, -10.42919969422463 ], [ -64.851774182821941, -10.429417317801612 ], [ -64.851941789622828, -10.429489575058406 ], [ -64.851991846610133, -10.429809121847597 ], [ -64.852949513138086, -10.42993972695464 ], [ -64.85308017037346, -10.429764318210484 ], [ -64.852953446998285, -10.429493908522243 ], [ -64.853167177459682, -10.429417307054598 ], [ -64.853252034554075, -10.429199197240296 ], [ -64.852514277894869, -10.428982081394544 ], [ -64.85246920425196, -10.429375383240501 ], [ -64.852813073422823, -10.429287025474963 ], [ -64.852842462740526, -10.429405057859217 ], [ -64.852466031838318, -10.429545639028449 ], [ -64.852296476746289, -10.429243291608611 ], [ -64.852123744665363, -10.42919969422463 ] ] ], [ [ [ -64.854995659814762, -10.428764406744119 ], [ -64.854778099749524, -10.428764406216166 ], [ -64.854821635318686, -10.4295479229087 ], [ -64.855126369178222, -10.42993972695472 ], [ -64.855343929621611, -10.429852649784765 ], [ -64.855301592264055, -10.429328836859851 ], [ -64.855474534350236, -10.429156221537136 ], [ -64.854995659814762, -10.428764406744119 ] ] ], [ [ [ -64.853798638905204, -10.428132009217258 ], [ -64.853413773333259, -10.428111381166634 ], [ -64.853167292572891, -10.428111381209181 ], [ -64.852775488108733, -10.428459536269846 ], [ -64.853167188316647, -10.428720745955898 ], [ -64.853120244845343, -10.428355347741327 ], [ -64.853427882937766, -10.428286500687282 ], [ -64.853558992780847, -10.42863367641252 ], [ -64.853608615227017, -10.428313788595677 ], [ -64.853798638905204, -10.428132009217258 ] ] ], [ [ [ -64.831530327717232, -10.428504465147457 ], [ -64.831617449917431, -10.428807816026511 ], [ -64.831878545016906, -10.428851351590149 ], [ -64.831917495329506, -10.428505469168039 ], [ -64.832270360337986, -10.428633676411796 ], [ -64.832444499947343, -10.428329045113006 ], [ -64.832357441266382, -10.428024311138506 ], [ -64.83195110666567, -10.428104913864194 ], [ -64.831878545017105, -10.427806635432216 ], [ -64.831660995809827, -10.427676030325197 ], [ -64.831573862752933, -10.428153521875059 ], [ -64.831671442890368, -10.428457809505238 ], [ -64.831530327717232, -10.428504465147457 ] ], [ [ -64.832044400356594, -10.428292356358895 ], [ -64.832013383962916, -10.428188336028146 ], [ -64.832116816049179, -10.428158806719368 ], [ -64.832044400356594, -10.428292356358895 ] ] ], [ [ [ -64.830050199112108, -10.427588967870658 ], [ -64.830224328775898, -10.427893580277381 ], [ -64.83043548196018, -10.427965849145064 ], [ -64.830398480308972, -10.428328941909285 ], [ -64.830572609061392, -10.428677210919448 ], [ -64.831094925231824, -10.428677210919448 ], [ -64.831376295650443, -10.42839986652927 ], [ -64.831573799767298, -10.428459536269127 ], [ -64.831573799767284, -10.428329055860265 ], [ -64.831142683251699, -10.428339045901973 ], [ -64.831052421513178, -10.427892955884277 ], [ -64.831269054517747, -10.42780651073409 ], [ -64.831312589553434, -10.427632495289565 ], [ -64.830617437053974, -10.427545362869372 ], [ -64.830400668577269, -10.427642184232624 ], [ -64.830353536668554, -10.427458292798043 ], [ -64.830050199112108, -10.427588967870658 ] ], [ [ -64.830609767487189, -10.428282941287993 ], [ -64.830526010004235, -10.428119906834548 ], [ -64.830700802679161, -10.428246964196498 ], [ -64.830609767487189, -10.428282941287993 ] ], [ [ -64.830630255893212, -10.427901082626068 ], [ -64.830574916287489, -10.427670927236287 ], [ -64.830744154181829, -10.427769848797595 ], [ -64.830630255893212, -10.427901082626068 ] ] ], [ [ [ -64.830186628654445, -10.427327948879872 ], [ -64.830528958911415, -10.427458230448671 ], [ -64.830581791158551, -10.42700351288069 ], [ -64.830872307809202, -10.426979650295689 ], [ -64.831747950767053, -10.427675905099086 ], [ -64.832009150124179, -10.427545300520073 ], [ -64.832224612194409, -10.427022445421011 ], [ -64.831748739253285, -10.426949418081971 ], [ -64.829305990603402, -10.42681831230829 ], [ -64.829736157028464, -10.426959977842749 ], [ -64.829786383401242, -10.427160358262713 ], [ -64.82961484966674, -10.427284101053196 ], [ -64.829788989276096, -10.427545300520038 ], [ -64.830093619411628, -10.427501764956379 ], [ -64.830186628654445, -10.427327948879872 ] ], [ [ -64.831534821020782, -10.42738321262161 ], [ -64.831562862680457, -10.427278340281278 ], [ -64.831640822341967, -10.427409550349353 ], [ -64.831534821020782, -10.42738321262161 ] ] ] ] } }
]
}
