{
"type": "FeatureCollection",
"name": "igarapé_ribeirão",
"crs": { "type": "name", "properties": { "name": "urn:ogc:def:crs:OGC:1.3:CRS84" } },
"features": [
{ "type": "Feature", "properties": { "patch_id": 73.0, "area_ha": 0.5514, "lon_centro": -64.973626, "lat_centro": -10.356251 }, "geometry": { "type": "Polygon", "coordinates": [ [ [ -64.97406397153155, -10.35601736160929 ], [ -64.973933377278115, -10.355973827101518 ], [ -64.973019256607756, -10.356104431680624 ], [ -64.973019256607813, -10.35640905224159 ], [ -64.973281449462476, -10.356269383622712 ], [ -64.973367526039553, -10.356452586749338 ], [ -64.973715806324932, -10.356583191856341 ], [ -64.974151041069646, -10.356365631148192 ], [ -64.97406397153155, -10.35601736160929 ] ] ] } },
{ "type": "Feature", "properties": { "patch_id": 72.0, "area_ha": 0.2784, "lon_centro": -64.975908, "lat_centro": -10.347433 }, "geometry": { "type": "Polygon", "coordinates": [ [ [ -64.97593709350167, -10.347397243079648 ], [ -64.976066582641025, -10.347005598479344 ], [ -64.975631358746014, -10.347092679297074 ], [ -64.975892568960134, -10.347832650214876 ], [ -64.976240723316735, -10.347876185250552 ], [ -64.97593709350167, -10.347397243079648 ] ] ] } },
{ "type": "Feature", "properties": { "patch_id": 70.0, "area_ha": 0.6535, "lon_centro": -65.13546, "lat_centro": -10.344753 }, "geometry": { "type": "Polygon", "coordinates": [ [ [ -65.136667329763839, -10.344698252329199 ], [ -65.136339230955258, -10.344801480192192 ], [ -65.136231979407157, -10.344611182257843 ], [ -65.136014430144044, -10.344654717293547 ], [ -65.135964493031949, -10.344826278347853 ], [ -65.135709569831221, -10.344567647750118 ], [ -65.133707072828713, -10.344698260894287 ], [ -65.134027252076493, -10.344771941405712 ], [ -65.134398018257357, -10.344802431529912 ], [ -65.134882612107546, -10.344699159125677 ], [ -65.134920377623914, -10.344845387988149 ], [ -65.135247300413141, -10.344872272631253 ], [ -65.135274208622363, -10.344872267795427 ], [ -65.135356366764867, -10.344698432825513 ], [ -65.135699343647659, -10.344909446610639 ], [ -65.135776321967811, -10.344915776957535 ], [ -65.136839275863409, -10.344915372722788 ], [ -65.136667329763839, -10.344698252329199 ] ] ] } },
{ "type": "Feature", "properties": { "patch_id": 71.0, "area_ha": 0.3861, "lon_centro": -64.975375, "lat_centro": -10.329743 }, "geometry": { "type": "Polygon", "coordinates": [ [ [ -64.975544288671117, -10.329286849708526 ], [ -64.975108938314534, -10.329635129993896 ], [ -64.975065403812053, -10.329939761301212 ], [ -64.97532660264028, -10.330157425205226 ], [ -64.97558769778523, -10.330026820626166 ], [ -64.975545278122311, -10.32963518684145 ], [ -64.975718302359184, -10.32946097910477 ], [ -64.975544288671117, -10.329286849708526 ] ] ] } },
{ "type": "Feature", "properties": { "patch_id": 69.0, "area_ha": 0.433, "lon_centro": -65.102716, "lat_centro": -10.326387 }, "geometry": { "type": "Polygon", "coordinates": [ [ [ -65.102843028224441, -10.326026706328157 ], [ -65.102884152938842, -10.325673442271107 ], [ -65.102623057783433, -10.325760511814549 ], [ -65.102730644391229, -10.326078371729585 ], [ -65.102405319649918, -10.326545411407993 ], [ -65.102623046931939, -10.326935832570568 ], [ -65.102840607051235, -10.326979368134118 ], [ -65.102841804541072, -10.326368476742132 ], [ -65.103012555050725, -10.326108237753107 ], [ -65.102843028224441, -10.326026706328157 ] ] ] } },
{ "type": "Feature", "properties": { "patch_id": 63.0, "area_ha": 0.7774, "lon_centro": -65.157483, "lat_centro": -10.317997 }, "geometry": { "type": "Polygon", "coordinates": [ [ [ -65.157912427176555, -10.317793600284977 ], [ -65.157629877355291, -10.3178804638892 ], [ -65.157542581125242, -10.31774204587874 ], [ -65.157694751465186, -10.317488844290084 ], [ -65.157390132651201, -10.317314714892602 ], [ -65.157383603358241, -10.317590732228226 ], [ -65.157215992508625, -10.317619460142323 ], [ -65.157298644737836, -10.317980539610041 ], [ -65.156998306479295, -10.3178806708842 ], [ -65.156954782827782, -10.318228836711976 ], [ -65.157172446622042, -10.31844650061724 ], [ -65.157651227813474, -10.318402965581582 ], [ -65.157797924749516, -10.318114166482115 ], [ -65.158173637390561, -10.31805468582416 ], [ -65.158173637390533, -10.317924205391984 ], [ -65.157912427176555, -10.317793600284977 ] ] ] } },
{ "type": "Feature", "properties": { "patch_id": 68.0, "area_ha": 4.7172, "lon_centro": -65.15647, "lat_centro": -10.317507 }, "geometry": { "type": "Polygon", "coordinates": [ [ [ -65.155300335888299, -10.312090511140328 ], [ -65.154995705688478, -10.312046975576822 ], [ -65.155937374044754, -10.312759357118154 ], [ -65.156301745907868, -10.313439971515253 ], [ -65.156475771000288, -10.313527042114448 ], [ -65.156637543627738, -10.313329255754644 ], [ -65.156780333985822, -10.314097450864574 ], [ -65.156604080985986, -10.316840815083385 ], [ -65.156214686252056, -10.317271188648094 ], [ -65.156344748526166, -10.317642257708377 ], [ -65.155605133237401, -10.318056079408391 ], [ -65.155648731224716, -10.318446501145052 ], [ -65.155949244918673, -10.318654180078003 ], [ -65.155909941438836, -10.318881851501754 ], [ -65.156084081581525, -10.319055991644436 ], [ -65.156382347370439, -10.31890875434782 ], [ -65.156345292328723, -10.319578422817688 ], [ -65.156562651622821, -10.319704052043047 ], [ -65.156518390316094, -10.320754609875296 ], [ -65.156301693808103, -10.32088585672617 ], [ -65.156301757293363, -10.321102149066096 ], [ -65.156474781664997, -10.321232920145071 ], [ -65.156475588724007, -10.321794370560474 ], [ -65.156301756325988, -10.321929437431127 ], [ -65.156387629393038, -10.322061435578702 ], [ -65.15617115218663, -10.322451838356356 ], [ -65.156345291796356, -10.323235355068684 ], [ -65.156562840536765, -10.322321130064839 ], [ -65.156737328517195, -10.318494096301091 ], [ -65.15679394280258, -10.318202906869253 ], [ -65.156954656391719, -10.318228825966756 ], [ -65.156954656391775, -10.317880670356327 ], [ -65.156805940983361, -10.31792618640266 ], [ -65.156758423739177, -10.317752663801151 ], [ -65.156954719343076, -10.3175309964879 ], [ -65.156824114234865, -10.316826250219666 ], [ -65.156954719342878, -10.316747365845625 ], [ -65.156952467435815, -10.313439543139799 ], [ -65.155300335888299, -10.312090511140328 ] ] ] } },
{ "type": "Feature", "properties": { "patch_id": 67.0, "area_ha": 9.4806, "lon_centro": -65.148467, "lat_centro": -10.30703 }, "geometry": { "type": "Polygon", "coordinates": [ [ [ -65.150642202120736, -10.306996911439372 ], [ -65.150598667085077, -10.307127391870862 ], [ -65.150772499069973, -10.307175380589419 ], [ -65.150683316195341, -10.307654922403369 ], [ -65.150442297338643, -10.307680176371321 ], [ -65.150315766114787, -10.307483691571671 ], [ -65.150380864604898, -10.307301628413967 ], [ -65.150228169314104, -10.307255398416212 ], [ -65.150380864604912, -10.307214490217232 ], [ -65.150359301206066, -10.306684146776911 ], [ -65.150511470581705, -10.306518015301737 ], [ -65.15042440104348, -10.306169745761673 ], [ -65.150293910984544, -10.306126211253885 ], [ -65.149771500967745, -10.306561569943232 ], [ -65.149757632291312, -10.306805649947769 ], [ -65.149510280342653, -10.306822771824649 ], [ -65.149379080177368, -10.307039342138097 ], [ -65.149016754872946, -10.306990445797014 ], [ -65.148639464580896, -10.306561561082795 ], [ -65.148465439486586, -10.306561561610684 ], [ -65.14846545087039, -10.306822657366368 ], [ -65.148769887429637, -10.307088310568233 ], [ -65.1485427276031, -10.307341001436537 ], [ -65.148334730181858, -10.306996911967333 ], [ -65.148020307141962, -10.306992721142741 ], [ -65.147694187015588, -10.30671581229916 ], [ -65.147638169611255, -10.306300351396663 ], [ -65.147421490117807, -10.3064733052697 ], [ -65.147041161473254, -10.306411067042999 ], [ -65.146813597467045, -10.306132959545703 ], [ -65.146898062621176, -10.305777919695513 ], [ -65.146715925351558, -10.305698374768419 ], [ -65.146767468897977, -10.305386115647661 ], [ -65.14654990876771, -10.305429650155464 ], [ -65.146567302747329, -10.305683940617309 ], [ -65.146276075219731, -10.305686591600915 ], [ -65.146157967547907, -10.30542965015546 ], [ -65.145686107185256, -10.305141786768427 ], [ -65.145809687262627, -10.304907229727451 ], [ -65.145159648857145, -10.304628147746842 ], [ -65.144938997400047, -10.304123599613328 ], [ -65.144485250672744, -10.304359476319286 ], [ -65.143415386199308, -10.303644713693156 ], [ -65.144880546047318, -10.304879429677287 ], [ -65.144982647483602, -10.305211850301189 ], [ -65.145365800825147, -10.305453467485586 ], [ -65.145679197203762, -10.306169620558075 ], [ -65.14650636288151, -10.306561435879111 ], [ -65.14696097524326, -10.306570014241375 ], [ -65.147115853380939, -10.306953251200172 ], [ -65.147661735564455, -10.307139763698332 ], [ -65.147899484023043, -10.307519206663905 ], [ -65.148445366175224, -10.307792789226754 ], [ -65.149510291193735, -10.308912328333285 ], [ -65.150478098324385, -10.309133907689288 ], [ -65.150946936520086, -10.309434748233461 ], [ -65.151033891009178, -10.309391327655867 ], [ -65.150294122578288, -10.308787164341608 ], [ -65.150859751399707, -10.308651118119297 ], [ -65.150992719032402, -10.307989537958676 ], [ -65.151208032124529, -10.307649803444786 ], [ -65.151029367262538, -10.3072336308998 ], [ -65.151208031685414, -10.306909841368045 ], [ -65.150642202120736, -10.306996911439372 ] ] ] } },
{ "type": "Feature", "properties": { "patch_id": 66.0, "area_ha": 0.4769, "lon_centro": -65.140615, "lat_centro": -10.301544 }, "geometry": { "type": "Polygon", "coordinates": [ [ [ -65.140717285461363, -10.301643502793294 ], [ -65.140933763709057, -10.30142429331141 ], [ -65.140890227699543, -10.301163205914785 ], [ -65.140716213987446, -10.301119681624485 ], [ -65.140750457226645, -10.301269658206207 ], [ -65.140611623772472, -10.301286901877504 ], [ -65.140367933702038, -10.300858471410468 ], [ -65.140407237375513, -10.301129677517368 ], [ -65.140237328595106, -10.301206751695835 ], [ -65.140106724021223, -10.301554918050121 ], [ -65.140519251008527, -10.301433411172182 ], [ -65.140715905833744, -10.30177703660274 ], [ -65.140542073404248, -10.301903321149297 ], [ -65.140585609413677, -10.302120873513857 ], [ -65.14095227460534, -10.302146195445033 ], [ -65.141151553493728, -10.302425607490335 ], [ -65.140717285461363, -10.301643502793294 ] ] ] } },
{ "type": "Feature", "properties": { "patch_id": 65.0, "area_ha": 0.263, "lon_centro": -65.14285, "lat_centro": -10.299656 }, "geometry": { "type": "Polygon", "coordinates": [ [ [ -65.142675290592081, -10.299160605019308 ], [ -65.142849122583016, -10.299382609679251 ], [ -65.142675290592152, -10.29955242034033 ], [ -65.142718825627881, -10.300031181056484 ], [ -65.142936500806258, -10.300118251127797 ], [ -65.143023444980827, -10.299291210126286 ], [ -65.142675290592081, -10.299160605019308 ] ] ] } },
{ "type": "Feature", "properties": { "patch_id": 64.0, "area_ha": 0.3215, "lon_centro": -65.141919, "lat_centro": -10.299589 }, "geometry": { "type": "Polygon", "coordinates": [ [ [ -65.142196279303036, -10.299508885304668 ], [ -65.141586903849884, -10.299204140582885 ], [ -65.141630449736127, -10.299595830699738 ], [ -65.141978730021521, -10.299900575949431 ], [ -65.142239813805588, -10.299900689880355 ], [ -65.142196279303036, -10.299508885304668 ] ] ] } },
{ "type": "Feature", "properties": { "patch_id": 62.0, "area_ha": 0.289, "lon_centro": -65.142863, "lat_centro": -10.298218 }, "geometry": { "type": "Polygon", "coordinates": [ [ [ -65.142986317656764, -10.298156720128659 ], [ -65.142501150449206, -10.298115764163271 ], [ -65.142327010839651, -10.298551000589022 ], [ -65.142413954481597, -10.2985945248794 ], [ -65.14256370310099, -10.298328934161725 ], [ -65.142762234766963, -10.298550989843722 ], [ -65.142821891607809, -10.298304665050821 ], [ -65.143328201081232, -10.298159173994872 ], [ -65.143589400444853, -10.297767483877854 ], [ -65.142986317656764, -10.298156720128659 ] ] ] } },
{ "type": "Feature", "properties": { "patch_id": 61.0, "area_ha": 0.9174, "lon_centro": -65.139131, "lat_centro": -10.29424 }, "geometry": { "type": "Polygon", "coordinates": [ [ [ -65.139148941851616, -10.293675191053071 ], [ -65.138757137380992, -10.294110540881837 ], [ -65.138626532274145, -10.294763441740347 ], [ -65.139192361842703, -10.294806976776032 ], [ -65.139410037021094, -10.294589301597684 ], [ -65.139400235559336, -10.294196079277549 ], [ -65.139584177607247, -10.294066872231872 ], [ -65.139590706041702, -10.293790864212964 ], [ -65.139801852342302, -10.293675190525153 ], [ -65.139148941851616, -10.293675191053071 ] ] ] } },
{ "type": "Feature", "properties": { "patch_id": 60.0, "area_ha": 5.2854, "lon_centro": -65.212015, "lat_centro": -10.22095 }, "geometry": { "type": "Polygon", "coordinates": [ [ [ -65.212853757224664, -10.219709165448679 ], [ -65.212682251169284, -10.219904628991751 ], [ -65.212157196653976, -10.219665630413012 ], [ -65.211721846297365, -10.219970375662704 ], [ -65.211242971278551, -10.220579875189202 ], [ -65.211274017452666, -10.220864722677133 ], [ -65.210807621395887, -10.221145821097943 ], [ -65.210989333549236, -10.221415679895507 ], [ -65.210677016288926, -10.221407031311957 ], [ -65.210726486427347, -10.221637148083246 ], [ -65.210415806607926, -10.221929440995092 ], [ -65.210580657150018, -10.22199702469991 ], [ -65.210585393917654, -10.22215905181057 ], [ -65.210328736003717, -10.222060056846992 ], [ -65.210375219598347, -10.222269078346098 ], [ -65.210198130896799, -10.222538817568068 ], [ -65.210676890428431, -10.222625887639452 ], [ -65.210894565606807, -10.22249528253243 ], [ -65.210949373202226, -10.222234134667728 ], [ -65.211109946426376, -10.222272620637748 ], [ -65.211025296574476, -10.222495282532419 ], [ -65.211373450999204, -10.222495282532465 ], [ -65.211329915963546, -10.222234196989671 ], [ -65.211029400827329, -10.222026519087791 ], [ -65.211081195128997, -10.221818610184718 ], [ -65.211639678301481, -10.221624886978793 ], [ -65.211982952346105, -10.221711651362568 ], [ -65.212113547079326, -10.221581037234834 ], [ -65.212080001286623, -10.221341812148379 ], [ -65.212413144132071, -10.221147931069181 ], [ -65.212635051634606, -10.221232141797909 ], [ -65.212505487786956, -10.221668116854799 ], [ -65.213201933344891, -10.221537511219951 ], [ -65.213358608075396, -10.220158795002217 ], [ -65.213406479960014, -10.219624113382059 ], [ -65.212853757224664, -10.219709165448679 ] ] ] } }
]
}
