{
"type": "FeatureCollection",
"name": "karitiana",
"crs": { "type": "name", "properties": { "name": "urn:ogc:def:crs:OGC:1.3:CRS84" } },
"features": [
{ "type": "Feature", "properties": { "area_ha": 278.31 }, "geometry": { "type": "MultiPolygon", "coordinates": [ [ [ [ -64.197950198159546, -9.439281659339558 ], [ -64.197659277320383, -9.439478087592546 ], [ -64.197536323792804, -9.43976080509548 ], [ -64.197273937237199, -9.439776175093707 ], [ -64.196996745984507, -9.439726449356639 ], [ -64.196698559231919, -9.439930140080042 ], [ -64.19661170468963, -9.440111396448106 ], [ -64.196590958823933, -9.440437196649698 ], [ -64.196744721570184, -9.440632111313141 ], [ -64.196963644127024, -9.440696512323054 ], [ -64.197357449973111, -9.440738602611393 ], [ -64.198319594747176, -9.440699133928625 ], [ -64.198653905317556, -9.440401219174738 ], [ -64.198776182508567, -9.439923066045633 ], [ -64.198636298449799, -9.439525428996236 ], [ -64.19820554441975, -9.439338697189484 ], [ -64.197950198159546, -9.439281659339558 ] ] ], [ [ [ -64.220430510171369, -9.361252343916004 ], [ -64.220299095318566, -9.361187650498472 ], [ -64.220124936045721, -9.361405401982179 ], [ -64.220114230986312, -9.361470584480852 ], [ -64.219709584182965, -9.361428546076853 ], [ -64.219501794642355, -9.361407545494959 ], [ -64.218944738838331, -9.361550609756726 ], [ -64.218705022390154, -9.361779443629885 ], [ -64.21876070551761, -9.3620724078789 ], [ -64.219078462135641, -9.362277610245577 ], [ -64.219537885207103, -9.362352033700946 ], [ -64.219615395994808, -9.362634065019629 ], [ -64.219648458081195, -9.362709954577648 ], [ -64.220118132276895, -9.362588904947257 ], [ -64.22027145023398, -9.362664380594842 ], [ -64.22042518503379, -9.362859288431226 ], [ -64.220566737151628, -9.362695937041543 ], [ -64.220730153813363, -9.36253251033493 ], [ -64.220894442083718, -9.362618805537668 ], [ -64.221081239574787, -9.362889602444476 ], [ -64.221366087276621, -9.363062343011844 ], [ -64.221573005493966, -9.362833620462821 ], [ -64.221593997897642, -9.362583823233136 ], [ -64.221581510700076, -9.362138704460126 ], [ -64.221602199744282, -9.361802047431867 ], [ -64.221699907895925, -9.361606273926094 ], [ -64.221644715468102, -9.361454457603188 ], [ -64.221415137172073, -9.361455248433618 ], [ -64.221338345684742, -9.361379509681116 ], [ -64.221260227437966, -9.360923759241679 ], [ -64.221141147348419, -9.361260755127745 ], [ -64.220923562607652, -9.361565517342994 ], [ -64.22073831971295, -9.361739876827492 ], [ -64.220595669193699, -9.361588361358837 ], [ -64.22055144741789, -9.361447364653058 ], [ -64.220430510171369, -9.361252343916004 ] ] ], [ [ [ -64.220775342073367, -9.359817952619352 ], [ -64.220634056245856, -9.360057306312964 ], [ -64.220635420119606, -9.36044817556542 ], [ -64.220755978229974, -9.36053462147671 ], [ -64.221040255243366, -9.360544500432439 ], [ -64.221499524424743, -9.360575491687344 ], [ -64.221585200589317, -9.36006488910302 ], [ -64.221464377118451, -9.359902441144586 ], [ -64.221256095786899, -9.359740294286555 ], [ -64.220917196096806, -9.359741461067678 ], [ -64.220775342073367, -9.359817952619352 ] ] ], [ [ [ -64.034255100047233, -9.308300183056815 ], [ -64.033672775161435, -9.308533515452364 ], [ -64.032625149151386, -9.309144616165216 ], [ -64.032510077484048, -9.309666148201567 ], [ -64.032584440938692, -9.310172653852826 ], [ -64.032906073596834, -9.310504710195303 ], [ -64.033183385748032, -9.310634206270986 ], [ -64.033489210475722, -9.310546453366458 ], [ -64.034260335446987, -9.310080929475943 ], [ -64.034289443295464, -9.310066367295574 ], [ -64.034754274190533, -9.309529342300367 ], [ -64.034942346011263, -9.309051031207291 ], [ -64.034750824932246, -9.308356655801925 ], [ -64.034255100047233, -9.308300183056815 ] ] ], [ [ [ -64.022022163675487, -9.306829764650233 ], [ -64.021730324747281, -9.306714778526912 ], [ -64.021570670844099, -9.306946880577202 ], [ -64.021718271947478, -9.307583480605322 ], [ -64.021953072517007, -9.308132963850158 ], [ -64.022420950970442, -9.308638345226504 ], [ -64.022698637388743, -9.308898149044198 ], [ -64.023181261614624, -9.309461398023293 ], [ -64.023458401661955, -9.309532991499134 ], [ -64.023822613997837, -9.309474034685 ], [ -64.024099585540711, -9.309487717009823 ], [ -64.02439087935565, -9.309414491291816 ], [ -64.02453545102172, -9.309008698079987 ], [ -64.023703315874783, -9.308547799161758 ], [ -64.02329462087593, -9.30834628329618 ], [ -64.022987447430637, -9.307970742239496 ], [ -64.02281119857372, -9.307507958624289 ], [ -64.022022163675487, -9.306829764650233 ] ] ], [ [ [ -64.013200741274019, -9.293801527880058 ], [ -64.013532453371653, -9.293690645517849 ], [ -64.014121934678784, -9.293414119379165 ], [ -64.014175901623062, -9.292937554845977 ], [ -64.014008991654549, -9.292626529066721 ], [ -64.013695041530625, -9.292499155664039 ], [ -64.012957888209598, -9.292739452808586 ], [ -64.012515079757975, -9.292704061379391 ], [ -64.012108952781134, -9.292595271355896 ], [ -64.012035800351413, -9.292815360919564 ], [ -64.012240337607309, -9.293382810442335 ], [ -64.012205024571841, -9.293932616161076 ], [ -64.011838997909848, -9.294941447170796 ], [ -64.011397133400934, -9.29523587539078 ], [ -64.010530218969762, -9.295256653441774 ], [ -64.010214691254404, -9.294579575656726 ], [ -64.010009998673141, -9.293957154585801 ], [ -64.009880141184624, -9.293700992369002 ], [ -64.009474958352456, -9.29392202036059 ], [ -64.009198897392039, -9.294142683058352 ], [ -64.008959308483838, -9.294216654224293 ], [ -64.00851550161903, -9.293833113537797 ], [ -64.008402832857499, -9.293137137120967 ], [ -64.008456440609123, -9.292532308866878 ], [ -64.008584775905391, -9.292257093360721 ], [ -64.008436316925668, -9.291946012319254 ], [ -64.007753711984549, -9.291911291764009 ], [ -64.007476865588558, -9.2918571020972 ], [ -64.007035838135863, -9.292444699386026 ], [ -64.007314884661909, -9.293268472167121 ], [ -64.007224487593604, -9.293910051299308 ], [ -64.006745465905695, -9.294112961094271 ], [ -64.005786845372356, -9.294317221442808 ], [ -64.005288800972096, -9.294318623868318 ], [ -64.004735365965473, -9.294301857891023 ], [ -64.004791697021901, -9.294649847033421 ], [ -64.004941826782598, -9.295547278927808 ], [ -64.004684416625921, -9.295841180280146 ], [ -64.004241447278673, -9.295750808676797 ], [ -64.004019884341574, -9.295678137535658 ], [ -64.003931040883487, -9.295524705901999 ], [ -64.003972771892137, -9.295416822671209 ], [ -64.003851646791617, -9.295405808792612 ], [ -64.003557268690855, -9.295166378276219 ], [ -64.003390679382377, -9.294965287211024 ], [ -64.00281817118227, -9.294728689109782 ], [ -64.00268946545151, -9.294875639107005 ], [ -64.002579987864181, -9.295297388647345 ], [ -64.002433044215607, -9.295517684075609 ], [ -64.001898157366938, -9.295537508953656 ], [ -64.001842193602627, -9.295317783086816 ], [ -64.001932496497631, -9.29463955743511 ], [ -64.001968034036906, -9.294163044764922 ], [ -64.002114456434242, -9.293759515253221 ], [ -64.002241546583036, -9.293044539186907 ], [ -64.002240139630842, -9.292549806601142 ], [ -64.002903413980206, -9.29227309117995 ], [ -64.003253418474031, -9.292107196099719 ], [ -64.003601283513447, -9.29119004037938 ], [ -64.002936708382165, -9.291008671170824 ], [ -64.002511513931381, -9.290680040335097 ], [ -64.002216118787842, -9.290589251300668 ], [ -64.002087778740133, -9.290864465005409 ], [ -64.002273019523457, -9.291138798974883 ], [ -64.002513337893575, -9.291321360364496 ], [ -64.002680446054015, -9.291705686392392 ], [ -64.002441586516042, -9.29203618116836 ], [ -64.001833493898047, -9.292257770217203 ], [ -64.001243325884971, -9.292296072247863 ], [ -64.001113735403308, -9.292131523261252 ], [ -64.001039118728031, -9.291838555071038 ], [ -64.001222641668861, -9.291508216219205 ], [ -64.001590884096245, -9.291268977317847 ], [ -64.001590259301921, -9.291049096104576 ], [ -64.001423725271636, -9.290866327188084 ], [ -64.001275845528156, -9.2907568002195 ], [ -64.000981699318217, -9.29110577265223 ], [ -64.000723924246458, -9.291271407153662 ], [ -64.000299979212841, -9.291382536104917 ], [ -64.000152567468177, -9.291437919641099 ], [ -63.999784271766586, -9.291658833734516 ], [ -63.999434577448582, -9.291934666218843 ], [ -63.999399607919138, -9.292612736931487 ], [ -63.999658735964474, -9.292923512766654 ], [ -63.99989905448389, -9.293106075912105 ], [ -64.000157143269803, -9.293050382484415 ], [ -64.000248801460558, -9.292848566346899 ], [ -64.000488391924108, -9.292774600925288 ], [ -64.000894360825086, -9.292828434212536 ], [ -64.000931877404383, -9.293048212059251 ], [ -64.000876903539719, -9.293176631200513 ], [ -64.000453268462664, -9.293397701189628 ], [ -64.000268911782257, -9.293434864761108 ], [ -63.999900926169992, -9.293765719810192 ], [ -63.999403765107942, -9.294078612491816 ], [ -63.999109198814111, -9.294280996244805 ], [ -63.998722141809935, -9.294392020516865 ], [ -63.998685820822558, -9.294593681615913 ], [ -63.998650486570703, -9.295143488207565 ], [ -63.998909720015163, -9.295490911307102 ], [ -63.999039051161276, -9.295563843820442 ], [ -63.999500465816133, -9.295654170409076 ], [ -63.99959186498706, -9.295360737151601 ], [ -63.999942290330175, -9.295341432374297 ], [ -64.000329035679087, -9.295120466091404 ], [ -64.000161823924302, -9.294699492057953 ], [ -64.000087727318387, -9.294589758078867 ], [ -64.000160159592255, -9.294113142005047 ], [ -64.000546435269754, -9.293727264689117 ], [ -64.000694264129152, -9.293818468397685 ], [ -64.000695304845678, -9.294184937129033 ], [ -64.000843862583665, -9.294532668843848 ], [ -64.001157498786242, -9.29455011323244 ], [ -64.001322941133523, -9.294348089985046 ], [ -64.001211431423584, -9.294055225377525 ], [ -64.001081788165578, -9.293872353027345 ], [ -64.00108085118913, -9.293542531202823 ], [ -64.001486352338148, -9.293431452817943 ], [ -64.001708330146911, -9.293650713195015 ], [ -64.001728286804649, -9.294182040948865 ], [ -64.001655752503169, -9.294622010256086 ], [ -64.001508964721879, -9.294897275636647 ], [ -64.000716925463564, -9.295302615014972 ], [ -64.00057008464232, -9.295559556670657 ], [ -64.000466371422533, -9.295746236442657 ], [ -64.000359489517209, -9.295721567920943 ], [ -64.000396915530587, -9.295871254353571 ], [ -64.000203033734124, -9.296220234065464 ], [ -64.000167077691287, -9.296550159284523 ], [ -63.999928472879652, -9.296972270074724 ], [ -63.999597740112435, -9.297431285905171 ], [ -63.999414057094071, -9.297706653979354 ], [ -63.999340947722374, -9.297945065271261 ], [ -63.999415200906938, -9.298109769654079 ], [ -63.999894545159577, -9.29801680934329 ], [ -64.000170979709921, -9.297924417000276 ], [ -64.000854534388225, -9.298288972656666 ], [ -64.0010394663244, -9.298453366263692 ], [ -64.001389946592923, -9.298452383181097 ], [ -64.001647413537498, -9.298176807182449 ], [ -64.001517299416506, -9.297829024364283 ], [ -64.001423400932481, -9.297242933396189 ], [ -64.001404225400307, -9.296986457129577 ], [ -64.001401777301325, -9.296125255920991 ], [ -64.001530275658425, -9.295905012573822 ], [ -64.001972671624088, -9.295793829891842 ], [ -64.002323201277079, -9.295811169597414 ], [ -64.002416266385936, -9.296104085464163 ], [ -64.002271616210692, -9.297130611557664 ], [ -64.002366558931982, -9.298083170624095 ], [ -64.002581536639681, -9.297877361143808 ], [ -64.002623185785993, -9.297898194954506 ], [ -64.0026242559031, -9.297836463743346 ], [ -64.002808070337863, -9.297660488505308 ], [ -64.002918591495742, -9.297605207312262 ], [ -64.003011188114201, -9.297733212116018 ], [ -64.002975182551552, -9.298044813910057 ], [ -64.002551387059057, -9.298210916542919 ], [ -64.002422575788628, -9.298321219716929 ], [ -64.002442065151698, -9.298687636356149 ], [ -64.002701513700814, -9.299108349646186 ], [ -64.002739815074776, -9.299602978329691 ], [ -64.002943821167065, -9.299987199959835 ], [ -64.003202905983017, -9.300279648779068 ], [ -64.003591429575565, -9.300681674734429 ], [ -64.003776677427112, -9.300956007107136 ], [ -64.003833531733335, -9.301487230374299 ], [ -64.003963702040721, -9.301853335304168 ], [ -64.00418746411674, -9.302695589199057 ], [ -64.004317792188246, -9.303116664109991 ], [ -64.004521174890897, -9.303281003502121 ], [ -64.005313487467433, -9.302967271434127 ], [ -64.005976934616342, -9.302745518836563 ], [ -64.00649343735104, -9.302744062153588 ], [ -64.006918441134886, -9.302999392526909 ], [ -64.007123240267049, -9.303658461864421 ], [ -64.007419276867353, -9.303969126142531 ], [ -64.007954280218343, -9.303985938447486 ], [ -64.008212794769932, -9.304076825591311 ], [ -64.008306025009659, -9.304424709188623 ], [ -64.008380756350576, -9.304754321500218 ], [ -64.008566115169316, -9.305065297464418 ], [ -64.00926756011475, -9.30522822517111 ], [ -64.009821116963977, -9.305281629013821 ], [ -64.010023714470847, -9.30517111425919 ], [ -64.01068684600834, -9.304839412587475 ], [ -64.011000069937396, -9.304710260353449 ], [ -64.011663778868751, -9.304580114050097 ], [ -64.011958028731911, -9.30426777972629 ], [ -64.012033079482364, -9.304707331085247 ], [ -64.011407053579333, -9.305112223952914 ], [ -64.010799420185506, -9.30549874022274 ], [ -64.0109292309469, -9.305736578038596 ], [ -64.011206351981059, -9.305882380596218 ], [ -64.012074398929045, -9.306246388694344 ], [ -64.012203683776093, -9.306300992327351 ], [ -64.01277321052919, -9.305493141266551 ], [ -64.012991827698869, -9.304539698167762 ], [ -64.012803618576385, -9.303239263542983 ], [ -64.012541836352298, -9.302012331414685 ], [ -64.012629641958597, -9.300472907292875 ], [ -64.012498884117079, -9.299905249397861 ], [ -64.011939860370333, -9.297946218571049 ], [ -64.011752924280003, -9.297085543037818 ], [ -64.012012908290416, -9.297689482231721 ], [ -64.011657851761953, -9.296096342331753 ], [ -64.011785817073431, -9.295692862252089 ], [ -64.012338253081055, -9.295361473016753 ], [ -64.01268693842637, -9.294737484667861 ], [ -64.012869766304973, -9.294168937103018 ], [ -64.013200741274019, -9.293801527880058 ] ] ], [ [ [ -64.220600679480526, -9.2812310071324 ], [ -64.219700569607625, -9.280115739733324 ], [ -64.219143150925106, -9.280117640504297 ], [ -64.218498818728307, -9.280271843864353 ], [ -64.218008777141051, -9.280794681277767 ], [ -64.218184965935578, -9.281174099371206 ], [ -64.218394769473022, -9.281792271384523 ], [ -64.218417641495293, -9.282085350361701 ], [ -64.218801498750096, -9.282464060200445 ], [ -64.218966234340954, -9.28269150945528 ], [ -64.219077333849739, -9.283212298339045 ], [ -64.219035903079813, -9.283874756899364 ], [ -64.219146290281145, -9.284189252568614 ], [ -64.219529812945481, -9.284470243418667 ], [ -64.2203390771176, -9.284597773314596 ], [ -64.221434286581825, -9.285234633842554 ], [ -64.221415799845715, -9.283052309204177 ], [ -64.221305185680023, -9.282672669288786 ], [ -64.221007486994026, -9.281924508052796 ], [ -64.22088609422309, -9.281588335310554 ], [ -64.220600679480526, -9.2812310071324 ] ] ], [ [ [ -64.02504590325897, -9.282054454733094 ], [ -64.024786444548667, -9.281633758786388 ], [ -64.024766828522729, -9.281230698775962 ], [ -64.025088237215655, -9.280753367474711 ], [ -64.025031677291665, -9.280332089922586 ], [ -64.024551143352397, -9.280003644541074 ], [ -64.024255833514275, -9.27994035829783 ], [ -64.0239147296532, -9.279987143739016 ], [ -64.023574768288142, -9.280427880256463 ], [ -64.022884531580928, -9.280933750812721 ], [ -64.022507279189654, -9.281237167115368 ], [ -64.022047234463912, -9.281614113657447 ], [ -64.021994207169712, -9.282411336582213 ], [ -64.022475671942644, -9.283060443432829 ], [ -64.023158842604019, -9.283296694074243 ], [ -64.02355701383226, -9.283845258392734 ], [ -64.023973126506036, -9.284219697796162 ], [ -64.024242101920223, -9.284741145963302 ], [ -64.024482797889888, -9.285051955063681 ], [ -64.024768889379388, -9.285115267077002 ], [ -64.025082835579667, -9.285242631075416 ], [ -64.025763587265743, -9.284645165773467 ], [ -64.026047626572108, -9.28400302964296 ], [ -64.025972299429569, -9.283471865614583 ], [ -64.025850912436681, -9.282959157154448 ], [ -64.02559129225709, -9.282483492068671 ], [ -64.02504590325897, -9.282054454733094 ] ] ], [ [ [ -64.007967611791543, -9.259527129795639 ], [ -64.008390524661209, -9.25962728531908 ], [ -64.00853501868751, -9.25919254214366 ], [ -64.008999255716631, -9.258452863379 ], [ -64.009640104197871, -9.258320757849544 ], [ -64.009903785442702, -9.258797785090731 ], [ -64.010168831905261, -9.259752578215492 ], [ -64.010680963803438, -9.260475028134181 ], [ -64.011481499695108, -9.260125300513954 ], [ -64.01177114244372, -9.259487456519135 ], [ -64.011577095023355, -9.257880960286876 ], [ -64.011133652757067, -9.255696051984993 ], [ -64.010286720004359, -9.255104846339213 ], [ -64.009981347104059, -9.255337352776655 ], [ -64.009344262222456, -9.256786935329876 ], [ -64.008807739964055, -9.257729508150941 ], [ -64.008763112295796, -9.257411120237657 ], [ -64.00823868515495, -9.257484985078149 ], [ -64.007845787348643, -9.257688780409069 ], [ -64.007642793936952, -9.258051298366949 ], [ -64.007644608439989, -9.258688320459598 ], [ -64.007967611791543, -9.259527129795639 ] ] ], [ [ [ -64.220840233327934, -9.236696517144713 ], [ -64.220864434344662, -9.237166819672394 ], [ -64.221038470573944, -9.237166819672385 ], [ -64.221181523983418, -9.236794904272186 ], [ -64.221425189483782, -9.236690132051903 ], [ -64.221422258455846, -9.235641666945417 ], [ -64.220080814523456, -9.235382008479311 ], [ -64.219950209948109, -9.235730278013724 ], [ -64.220298489702017, -9.236775004879489 ], [ -64.220559351618036, -9.236601896741407 ], [ -64.220840233327934, -9.236696517144713 ] ], [ [ -64.220628309047072, -9.23566825838089 ], [ -64.220908203058045, -9.235687660995007 ], [ -64.221301925541127, -9.235948379903274 ], [ -64.221295575663362, -9.236219152617709 ], [ -64.221139346893167, -9.236343667845704 ], [ -64.220576816528052, -9.23606490392757 ], [ -64.220538099560287, -9.235809335198942 ], [ -64.220628309047072, -9.23566825838089 ] ], [ [ -64.220776246718714, -9.236599803118514 ], [ -64.220647683165993, -9.23642615023539 ], [ -64.220908202973831, -9.236340686535431 ], [ -64.221038583162297, -9.236513885526717 ], [ -64.220776246718714, -9.236599803118514 ] ] ], [ [ [ -64.004904562860915, -9.28948686588445 ], [ -64.004812037726353, -9.289383292581519 ], [ -64.004707319861964, -9.289316400666666 ], [ -64.004658270217206, -9.289365401436973 ], [ -64.004548082501501, -9.289536731215199 ], [ -64.004480308519632, -9.289488058924327 ], [ -64.004344412617527, -9.289268558159065 ], [ -64.004209004007066, -9.289220075924645 ], [ -64.003913992462387, -9.28926365997502 ], [ -64.003754424186212, -9.289367941868303 ], [ -64.003662125433451, -9.289343769734646 ], [ -64.003501774712049, -9.289173200143205 ], [ -64.003200214716713, -9.289076321268722 ], [ -64.003120439196763, -9.289131515975539 ], [ -64.003182498817367, -9.289332901044894 ], [ -64.003330552247547, -9.289503505321072 ], [ -64.003625981415055, -9.289606509121407 ], [ -64.003737039106966, -9.289740569977896 ], [ -64.003829911896617, -9.289966299734781 ], [ -64.003941126334766, -9.290155330771809 ], [ -64.004642191547006, -9.290196114951222 ], [ -64.004660498171589, -9.290147200629725 ], [ -64.004788679235446, -9.289817015976196 ], [ -64.004880490689317, -9.289670169235082 ], [ -64.004904562860915, -9.28948686588445 ] ] ], [ [ [ -63.997153695108921, -9.281708832728478 ], [ -63.997074196193466, -9.281861751201861 ], [ -63.996890017438744, -9.281959990690648 ], [ -63.996877720444417, -9.281960024975232 ], [ -63.996785855337741, -9.282088546391407 ], [ -63.996817184530194, -9.282296126683821 ], [ -63.997002122879117, -9.28246663142915 ], [ -63.997352674016227, -9.282496193090005 ], [ -63.997549426190055, -9.28249564419324 ], [ -63.997723484267951, -9.280992622468537 ], [ -63.997447130738209, -9.281109442965491 ], [ -63.997226078838942, -9.281213893304033 ], [ -63.997084853559237, -9.281281473708885 ], [ -63.997036166160072, -9.28145873773841 ], [ -63.997073385007511, -9.28157468351375 ], [ -63.997153695108921, -9.281708832728478 ] ] ], [ [ [ -63.996905512178387, -9.280915501434588 ], [ -63.997034906347899, -9.281012866631187 ], [ -63.997157703359647, -9.280951445514512 ], [ -63.997237357417561, -9.280853497448629 ], [ -63.99723687412903, -9.280682478399873 ], [ -63.997107307465889, -9.280524035032867 ], [ -63.996879779496766, -9.280512453622361 ], [ -63.996812767401103, -9.280732523815683 ], [ -63.996905512178387, -9.280915501434588 ] ] ], [ [ [ -63.995983470422274, -9.274462047329392 ], [ -63.995381205737566, -9.274561449166525 ], [ -63.99527129250702, -9.274830501474161 ], [ -63.995320823835513, -9.2749525212334 ], [ -63.99553017864001, -9.27506188059321 ], [ -63.995911274790522, -9.275024172827225 ], [ -63.996254998053594, -9.274815548221996 ], [ -63.996525388600567, -9.274765932297294 ], [ -63.996733985017386, -9.274606546574629 ], [ -63.996806972365427, -9.274325381050428 ], [ -63.996768392712582, -9.273726916829236 ], [ -63.996473168304952, -9.273691091757234 ], [ -63.99630108331349, -9.273716002388097 ], [ -63.99612917056816, -9.273801991214903 ], [ -63.996055872641207, -9.273973215756198 ], [ -63.996105576359149, -9.274156313672162 ], [ -63.995983470422274, -9.274462047329392 ] ] ], [ [ [ -63.994092682928979, -9.271132402865788 ], [ -63.9940685021717, -9.271279059139138 ], [ -63.994143175804076, -9.271596461508903 ], [ -63.994340609820519, -9.271840228280803 ], [ -63.994587161959963, -9.272059426912836 ], [ -63.994636967758595, -9.272279172145787 ], [ -63.99469927671614, -9.272572177156443 ], [ -63.994736407565448, -9.272657584257573 ], [ -63.994958023058878, -9.272754694290049 ], [ -63.995277530212867, -9.27268051138943 ], [ -63.995042447985632, -9.272168103297792 ], [ -63.994967945432052, -9.271911779527398 ], [ -63.994843293156642, -9.271313553912616 ], [ -63.994461134696699, -9.270972574580195 ], [ -63.994375092734806, -9.270985029361627 ], [ -63.994092682928979, -9.271132402865788 ] ] ], [ [ [ -63.99395931925762, -9.270350964513874 ], [ -63.993972578189101, -9.270692969005832 ], [ -63.994026069740599, -9.270766115038231 ], [ -63.994210358532754, -9.270708596374684 ], [ -63.994402535538633, -9.270541113875913 ], [ -63.994611256851435, -9.270426520280264 ], [ -63.99462327832525, -9.270328760810399 ], [ -63.994524320963961, -9.270121367830049 ], [ -63.99423711402661, -9.270020367580154 ], [ -63.994061149339807, -9.270122654232154 ], [ -63.99395931925762, -9.270350964513874 ] ] ], [ [ [ -64.003662815704644, -9.231813999029063 ], [ -64.00371881062344, -9.231003078674371 ], [ -64.004532306239085, -9.230103174841759 ], [ -64.004849119812405, -9.22877032031462 ], [ -64.003971687931312, -9.227672448815841 ], [ -64.003329048921941, -9.227153036914444 ], [ -64.002192274672964, -9.227098295068037 ], [ -64.001231752048611, -9.227535308941112 ], [ -64.000446335410089, -9.22805870099409 ], [ -63.999050929819674, -9.229307684493159 ], [ -63.997629952314867, -9.231830794445139 ], [ -63.997807261220586, -9.232698979423494 ], [ -63.99833674931282, -9.234434862924994 ], [ -63.999478852085822, -9.236371732372191 ], [ -63.999598287586785, -9.237384855983107 ], [ -63.999805403494065, -9.238484603012457 ], [ -64.000420222902036, -9.239467390762821 ], [ -64.00094687507702, -9.240189820021753 ], [ -64.001443157305317, -9.240477995033238 ], [ -64.002026138543457, -9.240505324642731 ], [ -64.002664870642576, -9.239634866217234 ], [ -64.003883954292775, -9.237865154126917 ], [ -64.004460615273601, -9.235662898026472 ], [ -64.004426878620563, -9.234041464996512 ], [ -64.003985942534896, -9.232710728041775 ], [ -64.003662815704644, -9.231813999029063 ] ] ] ] } }
]
}
