{
"type": "FeatureCollection",
"name": "karipuna",
"crs": { "type": "name", "properties": { "name": "urn:ogc:def:crs:OGC:1.3:CRS84" } },
"features": [
{ "type": "Feature", "properties": { "area_ha": 42.88 }, "geometry": { "type": "MultiPolygon", "coordinates": [ [ [ [ -64.402316054063476, -10.041994055039439 ], [ -64.402318463132858, -10.042347304378213 ], [ -64.402492488276621, -10.042303769870625 ], [ -64.402318348134102, -10.041433193883934 ], [ -64.402013717883065, -10.041476729447748 ], [ -64.401883123622142, -10.041955489585291 ], [ -64.402170752207198, -10.041838017068359 ], [ -64.402316054063476, -10.041994055039439 ] ] ], [ [ [ -64.402795951756289, -10.041543356768663 ], [ -64.40310197824337, -10.041302578027238 ], [ -64.402797233526542, -10.041084913598548 ], [ -64.402449079085685, -10.041084913598556 ], [ -64.402449079618606, -10.041694290120951 ], [ -64.402753709336778, -10.041781348914531 ], [ -64.402795951756289, -10.041543356768663 ] ], [ [ -64.402771946393543, -10.041565810419499 ], [ -64.402632381274216, -10.041539625674698 ], [ -64.402647483377095, -10.041398739509678 ], [ -64.402797884951156, -10.041434567688192 ], [ -64.402771946393543, -10.041565810419499 ] ] ], [ [ [ -64.402765353202412, -10.035420847683257 ], [ -64.402579684191593, -10.035381823925956 ], [ -64.402486087952965, -10.035744899389739 ], [ -64.402362009013331, -10.035773639246976 ], [ -64.402485592223769, -10.035964645568201 ], [ -64.402231393060532, -10.035991314953419 ], [ -64.402187869403534, -10.036165340590957 ], [ -64.402666628420448, -10.036383005019662 ], [ -64.402913065560554, -10.036127822150952 ], [ -64.403363199837074, -10.035991189170526 ], [ -64.403450259062623, -10.035773639246964 ], [ -64.40328314080547, -10.035703435351607 ], [ -64.40323259473017, -10.035381824454017 ], [ -64.403050122842188, -10.03543226160104 ], [ -64.402884429441229, -10.03525121881893 ], [ -64.402765353202412, -10.035420847683257 ] ] ], [ [ [ -64.469797779219135, -9.806909956733968 ], [ -64.469623638498689, -9.807127643577886 ], [ -64.469623639076502, -9.807258112294567 ], [ -64.469928373488216, -9.807345181837821 ], [ -64.470228159162289, -9.807214882543072 ], [ -64.470276664611561, -9.807388717401588 ], [ -64.470828605939516, -9.807424879328254 ], [ -64.471147354486973, -9.807780532194533 ], [ -64.471277844147878, -9.807737111662119 ], [ -64.471103704537697, -9.807345307090651 ], [ -64.470163804692191, -9.807070795982082 ], [ -64.470189468788718, -9.806822886662623 ], [ -64.469971365228162, -9.80703945706863 ], [ -64.469797779219135, -9.806909956733968 ] ] ], [ [ [ -64.467448167149783, -9.804646072516949 ], [ -64.467792420856028, -9.804494021574039 ], [ -64.468012727843572, -9.804602474590588 ], [ -64.468143321580257, -9.804384913915694 ], [ -64.468011437150452, -9.804167187124502 ], [ -64.467614572516709, -9.804382344575657 ], [ -64.467401946650895, -9.804123652088911 ], [ -64.467055009096256, -9.804342659046865 ], [ -64.467448167149783, -9.804646072516949 ] ] ], [ [ [ -64.461085124318629, -9.804412466138105 ], [ -64.461051685053363, -9.804428115648296 ], [ -64.460551676335115, -9.804247360007832 ], [ -64.460347380908189, -9.804095852082058 ], [ -64.460112545074011, -9.803958775775694 ], [ -64.460033529955794, -9.803863095920228 ], [ -64.45991532612193, -9.803775434166068 ], [ -64.459871791086343, -9.804254194833122 ], [ -64.460268792171391, -9.804212895416319 ], [ -64.460524816621415, -9.804515405047136 ], [ -64.461134192207709, -9.804646009626067 ], [ -64.461483015620786, -9.804385904722963 ], [ -64.461830741940489, -9.804515405047161 ], [ -64.461932825727189, -9.804183003384935 ], [ -64.46244023190755, -9.80390602852345 ], [ -64.462363410823528, -9.803829115415203 ], [ -64.461094570705001, -9.804422009444092 ], [ -64.461086732986004, -9.804425671742003 ], [ -64.461089066805002, -9.804413898676993 ], [ -64.461085124318629, -9.804412466138105 ] ] ], [ [ [ -64.46727368251598, -9.803643642851926 ], [ -64.466191881252854, -9.803706264433348 ], [ -64.465748457077822, -9.803767335887148 ], [ -64.465744605657562, -9.804014141969553 ], [ -64.465574881291261, -9.80416713551144 ], [ -64.465836090972886, -9.804646010154347 ], [ -64.466159999445324, -9.804698750449818 ], [ -64.46622790629398, -9.804907220368316 ], [ -64.466619595864159, -9.804950755404015 ], [ -64.466924341692476, -9.804515393366444 ], [ -64.466667180475497, -9.804146967257804 ], [ -64.466967876149653, -9.804167124761948 ], [ -64.467040386949549, -9.803912382769232 ], [ -64.467707982593964, -9.804036519126875 ], [ -64.467770250418724, -9.803744093481605 ], [ -64.468012717005777, -9.803905914547965 ], [ -64.468181617608252, -9.803645013221429 ], [ -64.468274052970216, -9.80394944958365 ], [ -64.468578671937067, -9.803818958452 ], [ -64.468491602398217, -9.803514223951833 ], [ -64.468299321128811, -9.803516283406132 ], [ -64.46814332211288, -9.803296548773494 ], [ -64.467795156739854, -9.803296549301621 ], [ -64.46727368251598, -9.803643642851926 ] ], [ [ -64.466871099116446, -9.803814777256546 ], [ -64.466841819356361, -9.80371987259536 ], [ -64.466963775483876, -9.803785416993128 ], [ -64.466871099116446, -9.803814777256546 ] ] ], [ [ [ -64.437494667843211, -9.776740177544418 ], [ -64.43710296742691, -9.77669664198068 ], [ -64.437407701839533, -9.777393077296525 ], [ -64.437625272950143, -9.777480147367861 ], [ -64.437712331651937, -9.777219051658999 ], [ -64.437494667843211, -9.776740177544418 ] ] ], [ [ [ -64.419599630741615, -9.762460146290174 ], [ -64.419264454191705, -9.762385718180235 ], [ -64.419061861711754, -9.762373615764321 ], [ -64.418557042229764, -9.762373615246199 ], [ -64.419122986856692, -9.762939445453858 ], [ -64.419312024218641, -9.762563510761138 ], [ -64.419599630741615, -9.762460146290174 ] ] ], [ [ [ -64.415770958712471, -9.762069777192739 ], [ -64.416293209538154, -9.762286419918734 ], [ -64.416334503054728, -9.76215540103718 ], [ -64.41616007215508, -9.761979677023488 ], [ -64.415916248583997, -9.761892555941396 ], [ -64.414511836648188, -9.761289000542449 ], [ -64.415248368682057, -9.762068744740468 ], [ -64.415770958712471, -9.762069777192739 ] ] ], [ [ [ -64.396049428842986, -10.043609820940558 ], [ -64.396700162471703, -10.043391722125188 ], [ -64.396571734271419, -10.043174595838957 ], [ -64.396199052670752, -10.043309586805771 ], [ -64.395962243772033, -10.043131060803287 ], [ -64.395788218628908, -10.043174595310836 ], [ -64.396049428842986, -10.043609820940558 ] ] ], [ [ [ -64.401970182846966, -10.03886450152466 ], [ -64.402361883170272, -10.038864502052755 ], [ -64.402492488277375, -10.038211601244484 ], [ -64.402219749471143, -10.038207089973518 ], [ -64.401970193692762, -10.0379939260661 ], [ -64.401924238768899, -10.038477781040932 ], [ -64.401795990628386, -10.038517615929754 ], [ -64.401970182846966, -10.03886450152466 ] ] ], [ [ [ -64.319730258438014, -9.75427555945463 ], [ -64.318861799711726, -9.754276099142361 ], [ -64.318600600334705, -9.754450114023925 ], [ -64.319035950691458, -9.754841929344975 ], [ -64.31934014592467, -9.754755964121735 ], [ -64.319471175308408, -9.754928999416297 ], [ -64.319730258438014, -9.75427555945463 ] ] ], [ [ [ -64.389954512956379, -9.745569092006747 ], [ -64.389791940615524, -9.745825790314539 ], [ -64.389388557492737, -9.745786767185134 ], [ -64.388809204426067, -9.746683364165936 ], [ -64.388430797544629, -9.746788072477461 ], [ -64.388428196583973, -9.747099536463752 ], [ -64.388082517791801, -9.747702297476554 ], [ -64.388085457997079, -9.748085475993642 ], [ -64.387821307577966, -9.748659965031585 ], [ -64.388755672778061, -9.748920411440253 ], [ -64.388867427590483, -9.74944364728872 ], [ -64.389127232381682, -9.749312979816741 ], [ -64.389412689873453, -9.748842675951506 ], [ -64.38964965280978, -9.748921164495714 ], [ -64.389823793546682, -9.748703477319175 ], [ -64.389770172600535, -9.748402649931082 ], [ -64.389904069732737, -9.748424189874953 ], [ -64.390041593864666, -9.748834094424421 ], [ -64.39056389939536, -9.748703488789294 ], [ -64.390868634403077, -9.748181056886775 ], [ -64.390744549222603, -9.747948599162685 ], [ -64.39099923891574, -9.747963393711036 ], [ -64.390772325430817, -9.747531624523871 ], [ -64.390651305467514, -9.746609836813045 ], [ -64.390787639697095, -9.746119807456399 ], [ -64.391347530037862, -9.745917246506513 ], [ -64.391594166019374, -9.745531900164174 ], [ -64.392087625644322, -9.745481896149828 ], [ -64.392218219382627, -9.745307870514679 ], [ -64.392044090608735, -9.744828996400326 ], [ -64.39124889204227, -9.744693879392234 ], [ -64.390999249752738, -9.744219505901054 ], [ -64.390651084363228, -9.744219505372964 ], [ -64.390376465770345, -9.745377313056878 ], [ -64.389954512956379, -9.745569092006747 ] ], [ [ -64.388537034173595, -9.747885529233024 ], [ -64.388452933423991, -9.748084223578928 ], [ -64.388395787383658, -9.747900290129845 ], [ -64.388537034173595, -9.747885529233024 ] ], [ [ -64.3891406408287, -9.746944574389639 ], [ -64.389145973433912, -9.746582593584542 ], [ -64.389376091580004, -9.746677240151136 ], [ -64.389306156631434, -9.747003349197973 ], [ -64.3891406408287, -9.746944574389639 ] ], [ [ -64.389926943948296, -9.745889664600819 ], [ -64.390112583011927, -9.745846129567306 ], [ -64.390215671139586, -9.74616896491259 ], [ -64.390102103590735, -9.746208978290881 ], [ -64.389926943948296, -9.745889664600819 ] ], [ [ -64.390216721979499, -9.74787651944569 ], [ -64.390456729049703, -9.748023302163075 ], [ -64.390259691155691, -9.74800594867096 ], [ -64.390216721979499, -9.74787651944569 ] ] ], [ [ [ -64.391173378526886, -9.743522934052281 ], [ -64.390999249752895, -9.743261735116288 ], [ -64.390651083767011, -9.743348816695091 ], [ -64.390825224505832, -9.744088775536477 ], [ -64.391086308987838, -9.743914635393809 ], [ -64.391173378526886, -9.743522934052281 ] ] ], [ [ [ -64.391173389895769, -9.742086163367627 ], [ -64.391606605228219, -9.741432724629927 ], [ -64.391303984166711, -9.741041447769062 ], [ -64.390955829612267, -9.741041447769049 ], [ -64.390738154966442, -9.741955569538559 ], [ -64.39095581877622, -9.742129698403254 ], [ -64.391173389895769, -9.742086163367627 ] ] ], [ [ [ -64.393524270986973, -9.73503361284676 ], [ -64.39295843041586, -9.734990078339159 ], [ -64.392784300510357, -9.735164230046465 ], [ -64.392670250650468, -9.736071493924236 ], [ -64.392054059072592, -9.735795246365521 ], [ -64.392050600047156, -9.735410508892056 ], [ -64.392522964634267, -9.734989963831557 ], [ -64.392425334363665, -9.734513875659461 ], [ -64.392566500801507, -9.734336915448702 ], [ -64.392485950379452, -9.734147992859551 ], [ -64.392653570273822, -9.734119252368307 ], [ -64.392440120761165, -9.733868148512974 ], [ -64.392479429598879, -9.733509875848402 ], [ -64.392305415716507, -9.733161606312944 ], [ -64.392254865159799, -9.734136232878141 ], [ -64.391766914910676, -9.734843520113735 ], [ -64.391347644932182, -9.735077147882427 ], [ -64.391379542328607, -9.735579793798957 ], [ -64.390955829611258, -9.735643103346133 ], [ -64.391302996227736, -9.735947919690082 ], [ -64.391303802153431, -9.737031735467394 ], [ -64.391129969754246, -9.73725389966585 ], [ -64.391214438939613, -9.7380007137274 ], [ -64.390738154965845, -9.738733976899081 ], [ -64.390999038444207, -9.739131243766233 ], [ -64.390825225037304, -9.739343467398442 ], [ -64.391474024289707, -9.740117105676957 ], [ -64.391565320111596, -9.74095425296829 ], [ -64.391725724990266, -9.740919541257297 ], [ -64.391870065361303, -9.741171928146672 ], [ -64.392305300823338, -9.74121546265425 ], [ -64.392429790297626, -9.740990029588795 ], [ -64.392784175379504, -9.741041323039697 ], [ -64.392731008199519, -9.740800280566834 ], [ -64.392871084185231, -9.740607004589657 ], [ -64.393132581395605, -9.740780112825682 ], [ -64.393359968844962, -9.740653699821827 ], [ -64.393829131130119, -9.740997787475974 ], [ -64.394177296520979, -9.740954252968411 ], [ -64.394438506735042, -9.740736577790061 ], [ -64.394394971699441, -9.740214282091266 ], [ -64.393993444037392, -9.740210090000987 ], [ -64.393829016235799, -9.739822466770285 ], [ -64.393479793429464, -9.739908350587386 ], [ -64.393219525736455, -9.739691861663278 ], [ -64.392479555860405, -9.739648326627647 ], [ -64.392566279097352, -9.740384326520337 ], [ -64.392412575775424, -9.740491742342027 ], [ -64.392044079773356, -9.739691861663294 ], [ -64.391847918153445, -9.739681792399447 ], [ -64.391739345359866, -9.739474187013119 ], [ -64.391243894767342, -9.739467226703885 ], [ -64.39117579676973, -9.739164347774468 ], [ -64.391386394909674, -9.738910504760112 ], [ -64.39156520521729, -9.73903871087075 ], [ -64.392087193957309, -9.73843032572197 ], [ -64.392174799774367, -9.738559825478415 ], [ -64.392504350318177, -9.73852861224877 ], [ -64.392784301109913, -9.739038711398939 ], [ -64.393029415480655, -9.739053603167024 ], [ -64.393258960767554, -9.739289939979917 ], [ -64.393263186502381, -9.739561131826953 ], [ -64.393393676715334, -9.739561131298851 ], [ -64.393509471993241, -9.739393019153496 ], [ -64.393872562107731, -9.739386991156165 ], [ -64.394090226449961, -9.739212851541618 ], [ -64.394032369660593, -9.739054417401169 ], [ -64.394380407680174, -9.738696899559226 ], [ -64.394612657714191, -9.738908105763814 ], [ -64.394873857092108, -9.738777501184961 ], [ -64.394900987536673, -9.738522618486034 ], [ -64.395135067306143, -9.738603361042252 ], [ -64.39539627752022, -9.738429220899617 ], [ -64.395298082376016, -9.738002793656063 ], [ -64.395396277520319, -9.737689250022486 ], [ -64.395094133147111, -9.737608898436344 ], [ -64.39483032152458, -9.736121977988494 ], [ -64.394238698868136, -9.735760407069023 ], [ -64.394090225918319, -9.735425417417792 ], [ -64.393524270986973, -9.73503361284676 ] ], [ [ -64.392151298411164, -9.734592994580433 ], [ -64.392135375520326, -9.734414016000688 ], [ -64.392274052374404, -9.734375115161876 ], [ -64.392348948603413, -9.734511158541959 ], [ -64.392151298411164, -9.734592994580433 ] ] ], [ [ [ -64.381377996690603, -9.624715694903347 ], [ -64.381393002271864, -9.62447038224872 ], [ -64.381639206269668, -9.624367427445998 ], [ -64.381574168778442, -9.624011248928115 ], [ -64.381726276341084, -9.623845131748727 ], [ -64.381465191814883, -9.623801596713054 ], [ -64.381451383140785, -9.624197289502694 ], [ -64.381160446565204, -9.623932201820061 ], [ -64.380725095573496, -9.624411100042263 ], [ -64.381160435732852, -9.624889847345914 ], [ -64.381377996690603, -9.624715694903347 ] ] ], [ [ [ -64.38660220034059, -9.599639651916712 ], [ -64.386210499866479, -9.599596117409154 ], [ -64.385949299840817, -9.599857340093276 ], [ -64.386123429795319, -9.60068436751399 ], [ -64.386471594701362, -9.600249028435417 ], [ -64.386418432726117, -9.599920904434086 ], [ -64.38660220034059, -9.599639651916712 ] ] ] ] } }
]
}
