{
"type": "FeatureCollection",
"name": "kaxarari",
"crs": { "type": "name", "properties": { "name": "urn:ogc:def:crs:OGC:1.3:CRS84" } },
"features": [
{ "type": "Feature", "properties": { "patch_id": null, "area_ha": null, "lon_centro": null, "lat_centro": null }, "geometry": { "type": "Polygon", "coordinates": [ [ [ -66.37663947607696, -9.575947838472937 ], [ -66.376647820475924, -9.575627943532503 ], [ -66.376506576851384, -9.575309505777199 ], [ -66.376388572963137, -9.575013685346038 ], [ -66.376145575765591, -9.574878989103532 ], [ -66.375626754960408, -9.574781244489586 ], [ -66.375443888401833, -9.574908666431458 ], [ -66.375433171868636, -9.574988724294624 ], [ -66.375446033375454, -9.575125662210294 ], [ -66.375527935647341, -9.575261927793873 ], [ -66.375519590076621, -9.575581823070745 ], [ -66.375303557486518, -9.575846631253935 ], [ -66.37517799860963, -9.575950651333411 ], [ -66.37544525218506, -9.576210753120804 ], [ -66.375882737156019, -9.576229336066314 ], [ -66.376082644433595, -9.576661421910805 ], [ -66.37610870739303, -9.57696955990864 ], [ -66.376784786678115, -9.576677425323286 ], [ -66.37663947607696, -9.575947838472937 ] ] ] } },
{ "type": "Feature", "properties": { "patch_id": 33.0, "area_ha": 0.4808, "lon_centro": -66.379247, "lat_centro": -9.575768 }, "geometry": { "type": "Polygon", "coordinates": [ [ [ -66.379244442746824, -9.57495530247628 ], [ -66.37933120644324, -9.575124984714465 ], [ -66.379113838425553, -9.575608312139225 ], [ -66.379152834490597, -9.576186190473846 ], [ -66.378809093176017, -9.576261337674291 ], [ -66.379157373461368, -9.576565958369667 ], [ -66.379374922616279, -9.576130618747776 ], [ -66.379461993219209, -9.574737611425826 ], [ -66.379244442746824, -9.57495530247628 ] ] ] } },
{ "type": "Feature", "properties": { "patch_id": 32.0, "area_ha": 0.3511, "lon_centro": -66.37756, "lat_centro": -9.574886 }, "geometry": { "type": "Polygon", "coordinates": [ [ [ -66.378319095905397, -9.574824619243195 ], [ -66.376762935683814, -9.574737611953395 ], [ -66.376675876959439, -9.574868102713227 ], [ -66.376923468679479, -9.574833367907013 ], [ -66.37693708664213, -9.575042232121085 ], [ -66.377306152688263, -9.574920761972209 ], [ -66.377330179187155, -9.575303504612469 ], [ -66.377479400693858, -9.574836916737578 ], [ -66.377856055399889, -9.574870487092589 ], [ -66.378025337041962, -9.575303442335166 ], [ -66.377995184702442, -9.574929261276182 ], [ -66.378504222434415, -9.574911627014204 ], [ -66.378547757470116, -9.57469407639022 ], [ -66.378319095905397, -9.574824619243195 ] ] ] } },
{ "type": "Feature", "properties": { "patch_id": 31.0, "area_ha": 0.6883, "lon_centro": -66.342288, "lat_centro": -9.574416 }, "geometry": { "type": "Polygon", "coordinates": [ [ [ -66.343110249249307, -9.574519936777126 ], [ -66.342909797286538, -9.574549821037337 ], [ -66.342979632794993, -9.574345785371873 ], [ -66.342805503999656, -9.574258726563125 ], [ -66.340759472003271, -9.574041050857527 ], [ -66.340759472003256, -9.574171531405508 ], [ -66.341151276508313, -9.574258600949442 ], [ -66.342554541992627, -9.574349572079715 ], [ -66.342712846302391, -9.574850063684572 ], [ -66.343158363613682, -9.574908085639352 ], [ -66.343197308504642, -9.574911627012035 ], [ -66.343282331017562, -9.574693556733285 ], [ -66.343110249249307, -9.574519936777126 ] ] ] } },
{ "type": "Feature", "properties": { "patch_id": null, "area_ha": null, "lon_centro": null, "lat_centro": null }, "geometry": { "type": "Polygon", "coordinates": [ [ [ -66.388747782831146, -9.574995876760607 ], [ -66.390057722739357, -9.574800319808402 ], [ -66.39018605146839, -9.573816792973476 ], [ -66.388601090464633, -9.574129255343596 ], [ -66.388747782831146, -9.574995876760607 ] ] ] } },
{ "type": "Feature", "properties": { "patch_id": null, "area_ha": null, "lon_centro": null, "lat_centro": null }, "geometry": { "type": "Polygon", "coordinates": [ [ [ -66.373290313348761, -9.574746879209354 ], [ -66.373928826359361, -9.574146723850294 ], [ -66.374154561089625, -9.573699070969303 ], [ -66.374117220043487, -9.573413885765875 ], [ -66.373687973223298, -9.573063982618455 ], [ -66.373413616349339, -9.573249403461347 ], [ -66.372820227997707, -9.573757742935754 ], [ -66.371953381136109, -9.574542869242125 ], [ -66.371715233872465, -9.574899266781717 ], [ -66.371719293587674, -9.575310418263308 ], [ -66.372032121002505, -9.575524392557337 ], [ -66.372470170399467, -9.575600084513935 ], [ -66.373290313348761, -9.574746879209354 ] ] ] } },
{ "type": "Feature", "properties": { "patch_id": null, "area_ha": null, "lon_centro": null, "lat_centro": null }, "geometry": { "type": "Polygon", "coordinates": [ [ [ -66.379721758131808, -9.572274216390152 ], [ -66.378062090041865, -9.572016264266299 ], [ -66.377672219070732, -9.572157125188994 ], [ -66.37710049928198, -9.57252819525694 ], [ -66.377081099373086, -9.572893885412709 ], [ -66.377634098009437, -9.572957029983961 ], [ -66.378370525635788, -9.572949854883422 ], [ -66.379156143194706, -9.573262011691483 ], [ -66.379299195496642, -9.573763180408264 ], [ -66.379121416655352, -9.574404539077953 ], [ -66.378709434675258, -9.574636992610316 ], [ -66.378041366253541, -9.574574972097784 ], [ -66.377762041573561, -9.574257880637735 ], [ -66.377529196122154, -9.573986023571001 ], [ -66.377139322751674, -9.574126884729758 ], [ -66.376867904343328, -9.574609249114101 ], [ -66.376432454467547, -9.574796241459737 ], [ -66.376551587566425, -9.575206270064646 ], [ -66.376899275550457, -9.575454165112006 ], [ -66.377131218397494, -9.575634655931415 ], [ -66.377183119565188, -9.57622808956091 ], [ -66.377163269042512, -9.576548096462622 ], [ -66.377669568662981, -9.576543162603178 ], [ -66.379415210350587, -9.576183489219563 ], [ -66.379721758131808, -9.572274216390152 ] ] ] } },
{ "type": "Feature", "properties": { "patch_id": 30.0, "area_ha": 0.3804, "lon_centro": -66.337986, "lat_centro": -9.573779 }, "geometry": { "type": "Polygon", "coordinates": [ [ [ -66.338277860289907, -9.573692771099717 ], [ -66.337978867766026, -9.573779517490856 ], [ -66.337929569188518, -9.573649235536768 ], [ -66.337015458153829, -9.573605716301516 ], [ -66.337102518191216, -9.573779715556864 ], [ -66.338713552440453, -9.573911351708386 ], [ -66.33880039539828, -9.574040926298336 ], [ -66.339105015151631, -9.573910445750643 ], [ -66.338277860289907, -9.573692771099717 ] ] ] } },
{ "type": "Feature", "properties": { "patch_id": 29.0, "area_ha": 0.5738, "lon_centro": -66.335603, "lat_centro": -9.573466 }, "geometry": { "type": "Polygon", "coordinates": [ [ [ -66.335838880683241, -9.573473910753053 ], [ -66.335752817405023, -9.573344490287141 ], [ -66.335056267650316, -9.573257420743239 ], [ -66.333880935585995, -9.573300971048097 ], [ -66.336841307977224, -9.573736180521145 ], [ -66.336971798403781, -9.57373618104852 ], [ -66.336971798403795, -9.573562165465413 ], [ -66.335838880683241, -9.573473910753053 ] ] ] } },
{ "type": "Feature", "properties": { "patch_id": 28.0, "area_ha": 0.4923, "lon_centro": -66.379129, "lat_centro": -9.572736 }, "geometry": { "type": "Polygon", "coordinates": [ [ [ -66.379475318738983, -9.572624310988585 ], [ -66.37907018871411, -9.572473790098416 ], [ -66.378678488068331, -9.572517324606777 ], [ -66.378634953032702, -9.572909015373464 ], [ -66.378894760542266, -9.573039682757672 ], [ -66.379065444597884, -9.572824340405322 ], [ -66.379434325696792, -9.572905366227898 ], [ -66.379461993219465, -9.573387900765836 ], [ -66.379679668398012, -9.572256114392678 ], [ -66.379475318738983, -9.572624310988585 ] ] ] } },
{ "type": "Feature", "properties": { "patch_id": 17.0, "area_ha": 0.32, "lon_centro": -66.422465, "lat_centro": -9.566831 }, "geometry": { "type": "Polygon", "coordinates": [ [ [ -66.422561793203954, -9.566509490209011 ], [ -66.422321895678621, -9.566804349304793 ], [ -66.422082907811671, -9.566814235458752 ], [ -66.421995848555213, -9.567075320596505 ], [ -66.42260522438626, -9.567031785033523 ], [ -66.42290791549469, -9.566639576170317 ], [ -66.422561793203954, -9.566509490209011 ] ] ] } },
{ "type": "Feature", "properties": { "patch_id": 18.0, "area_ha": 0.6441, "lon_centro": -66.425209, "lat_centro": -9.566781 }, "geometry": { "type": "Polygon", "coordinates": [ [ [ -66.425311387598811, -9.56661343309098 ], [ -66.425173791491005, -9.566074139852152 ], [ -66.42484768973145, -9.56645587865793 ], [ -66.424651485730777, -9.566465954645864 ], [ -66.424695020766436, -9.566639970240036 ], [ -66.424993258497821, -9.566712204087386 ], [ -66.425172083721392, -9.567330232381906 ], [ -66.425257840633421, -9.567312560249917 ], [ -66.425783270644104, -9.567162504482184 ], [ -66.425311387598811, -9.56661343309098 ] ] ] } },
{ "type": "Feature", "properties": { "patch_id": 16.0, "area_ha": 0.3129, "lon_centro": -66.424007, "lat_centro": -9.564622 }, "geometry": { "type": "Polygon", "coordinates": [ [ [ -66.424035476656101, -9.564547836630172 ], [ -66.423737135314141, -9.564245668354156 ], [ -66.423606644081019, -9.564289218891229 ], [ -66.423650180441385, -9.564593834297803 ], [ -66.423895994542889, -9.564643222522992 ], [ -66.424041984416377, -9.564985638357181 ], [ -66.424303080756175, -9.564898552787332 ], [ -66.424390150034384, -9.564506878040797 ], [ -66.424035476656101, -9.564547836630172 ] ] ] } },
{ "type": "Feature", "properties": { "patch_id": 15.0, "area_ha": 0.5006, "lon_centro": -66.42345, "lat_centro": -9.563863 }, "geometry": { "type": "Polygon", "coordinates": [ [ [ -66.423606634059496, -9.563505572747802 ], [ -66.42321482955326, -9.563592642291812 ], [ -66.422997154374983, -9.564027868099728 ], [ -66.423388855028776, -9.564245542750728 ], [ -66.423954799677787, -9.563853852505765 ], [ -66.423606634059496, -9.563505572747802 ] ] ] } },
{ "type": "Feature", "properties": { "patch_id": null, "area_ha": null, "lon_centro": null, "lat_centro": null }, "geometry": { "type": "Polygon", "coordinates": [ [ [ -66.435311804392583, -9.565172103010365 ], [ -66.43521424975475, -9.564624848416353 ], [ -66.441554464740506, -9.554328634698162 ], [ -66.441759764942375, -9.551859623364848 ], [ -66.438074749845299, -9.556144807373396 ], [ -66.434194549643749, -9.559335471650542 ], [ -66.428432831670449, -9.563092932630516 ], [ -66.428107464635445, -9.562776349257147 ], [ -66.427272640765182, -9.562144998868829 ], [ -66.425932941082962, -9.561655685461739 ], [ -66.424462951876819, -9.561944305044538 ], [ -66.423635452021855, -9.562043839741179 ], [ -66.423314205178585, -9.56213837961395 ], [ -66.422454855671376, -9.563654480198984 ], [ -66.421869812455682, -9.564985133401246 ], [ -66.420326953000739, -9.567193259981002 ], [ -66.412976784036815, -9.568636234506798 ], [ -66.4050796633, -9.57063268075599 ], [ -66.399071718341574, -9.572838894672655 ], [ -66.406481815480518, -9.571271247430271 ], [ -66.41345267, -9.56974528 ], [ -66.42279843780986, -9.567819375272594 ], [ -66.435311804392583, -9.565172103010365 ] ] ] } },
{ "type": "Feature", "properties": { "patch_id": 27.0, "area_ha": 0.4427, "lon_centro": -66.386768, "lat_centro": -9.560335 }, "geometry": { "type": "Polygon", "coordinates": [ [ [ -66.387341959372009, -9.559326224790022 ], [ -66.386253584272126, -9.560980540154027 ], [ -66.385861768951287, -9.561851116313921 ], [ -66.387690114964059, -9.559021463548822 ], [ -66.387341959372009, -9.559326224790022 ] ] ] } },
{ "type": "Feature", "properties": { "patch_id": 38.0, "area_ha": 0.4193, "lon_centro": -66.277245, "lat_centro": -9.56036 }, "geometry": { "type": "Polygon", "coordinates": [ [ [ -66.277503285869841, -9.560715276327294 ], [ -66.277677079289958, -9.560501644032453 ], [ -66.276545294392776, -9.559543883983741 ], [ -66.277720740356074, -9.561285160843527 ], [ -66.277503285869841, -9.560715276327294 ] ], [ [ -66.27749902922335, -9.560481216721017 ], [ -66.277469303350003, -9.560584538775812 ], [ -66.277376552535301, -9.560555215137626 ], [ -66.27749902922335, -9.560481216721017 ] ] ] } },
{ "type": "Feature", "properties": { "patch_id": 37.0, "area_ha": 1.1485, "lon_centro": -66.275681, "lat_centro": -9.558367 }, "geometry": { "type": "Polygon", "coordinates": [ [ [ -66.27637114343365, -9.557846018120081 ], [ -66.276213603973233, -9.558056742044281 ], [ -66.27581511986179, -9.558150700564731 ], [ -66.275456907684642, -9.557889553155798 ], [ -66.274629752823216, -9.558368313453492 ], [ -66.27481098762479, -9.558326803062592 ], [ -66.275239232506408, -9.558673058175833 ], [ -66.275824410899972, -9.558769322385665 ], [ -66.276545168894046, -9.559543759416673 ], [ -66.275892206105169, -9.558639091757968 ], [ -66.276240423644538, -9.558455383524949 ], [ -66.276588703930003, -9.557933087663974 ], [ -66.27637114343365, -9.557846018120081 ] ], [ [ -66.275995928763493, -9.558448557370953 ], [ -66.275845923997238, -9.558430353104235 ], [ -66.275916359506923, -9.558289813741952 ], [ -66.275995928763493, -9.558448557370953 ] ] ] } },
{ "type": "Feature", "properties": { "patch_id": null, "area_ha": null, "lon_centro": null, "lat_centro": null }, "geometry": { "type": "Polygon", "coordinates": [ [ [ -66.406335258870342, -9.556903022919245 ], [ -66.406393470130212, -9.556970981448631 ], [ -66.406648644715901, -9.557174066805386 ], [ -66.407049983122619, -9.557033070313135 ], [ -66.407184640684292, -9.556689101682764 ], [ -66.407010689191409, -9.556553749354654 ], [ -66.40648290123039, -9.556707407625817 ], [ -66.406335258870342, -9.556903022919245 ] ] ] } },
{ "type": "Feature", "properties": { "patch_id": 36.0, "area_ha": 3.2659, "lon_centro": -66.27649, "lat_centro": -9.556491 }, "geometry": { "type": "Polygon", "coordinates": [ [ [ -66.277241729465331, -9.556452896451223 ], [ -66.276594467968891, -9.55649610830798 ], [ -66.276421072070988, -9.556380658337549 ], [ -66.276421329428118, -9.556162074722153 ], [ -66.276806379108706, -9.556060956563149 ], [ -66.27691346916923, -9.555681502280413 ], [ -66.277024168968339, -9.55593035092874 ], [ -66.277241728934115, -9.555756325144593 ], [ -66.276936984215851, -9.55527745048817 ], [ -66.276725817296068, -9.555248747415224 ], [ -66.276578227811555, -9.554970901486348 ], [ -66.276719309037588, -9.554841975564415 ], [ -66.276632238966229, -9.554667959988883 ], [ -66.276312876011275, -9.554661499975911 ], [ -66.276240538326135, -9.55445028533792 ], [ -66.276109881286573, -9.554538622693046 ], [ -66.276283776998682, -9.555281772442955 ], [ -66.27623829969086, -9.555718414642834 ], [ -66.275799134175941, -9.557033983417426 ], [ -66.275413383465064, -9.557497612740196 ], [ -66.276066398183943, -9.557758822426795 ], [ -66.276404642797374, -9.557628280143428 ], [ -66.276762854888887, -9.557758822426843 ], [ -66.277198194429488, -9.557541147775936 ], [ -66.277241729465331, -9.556452896451223 ] ], [ [ -66.276447043888311, -9.557191841012731 ], [ -66.276414604253119, -9.556931783816831 ], [ -66.276078720094603, -9.556965716272078 ], [ -66.276076244455709, -9.556735970502917 ], [ -66.276390473257905, -9.556635482377747 ], [ -66.276669391199889, -9.556960360356499 ], [ -66.276447043888311, -9.557191841012731 ] ], [ [ -66.276281771311432, -9.557090392093734 ], [ -66.276245280264249, -9.557234131754555 ], [ -66.276132851117438, -9.557162559902439 ], [ -66.276281771311432, -9.557090392093734 ] ], [ [ -66.276600431948808, -9.555925970515673 ], [ -66.276462637982462, -9.555855326028817 ], [ -66.276577644292246, -9.555663156289311 ], [ -66.276600431948808, -9.555925970515673 ] ], [ [ -66.276945056511991, -9.556822129184024 ], [ -66.276807490726426, -9.556757502835278 ], [ -66.276853015421608, -9.556660374259828 ], [ -66.277024693455573, -9.556715449694117 ], [ -66.276945056511991, -9.556822129184024 ] ], [ [ -66.276976426816958, -9.557551297653715 ], [ -66.276883674303278, -9.557580620741403 ], [ -66.276854453326592, -9.557485692606262 ], [ -66.276976426816958, -9.557551297653715 ] ] ] } },
{ "type": "Feature", "properties": { "patch_id": null, "area_ha": null, "lon_centro": null, "lat_centro": null }, "geometry": { "type": "Polygon", "coordinates": [ [ [ -66.384500768938111, -9.552844748607125 ], [ -66.385722655941692, -9.553061279107526 ], [ -66.386739470747898, -9.553485396711315 ], [ -66.387690417064121, -9.554229963294995 ], [ -66.387925736653528, -9.554753070947047 ], [ -66.387886270826243, -9.55541592022939 ], [ -66.387822210214665, -9.555919104274048 ], [ -66.388010603309567, -9.556351294779583 ], [ -66.38843115328622, -9.556986812106436 ], [ -66.388497248538314, -9.556689200595869 ], [ -66.389074358892387, -9.556866317530986 ], [ -66.388188426733791, -9.558039985540246 ], [ -66.387912507499379, -9.558065521422531 ], [ -66.387521075101873, -9.558046496861555 ], [ -66.387358859292206, -9.557933861364594 ], [ -66.387286656627026, -9.557614755198015 ], [ -66.387259121491937, -9.557158151599941 ], [ -66.387070502279826, -9.556703119118279 ], [ -66.386746750778372, -9.556546371283201 ], [ -66.386355545826632, -9.556550186206703 ], [ -66.38571392027788, -9.556830565952803 ], [ -66.385255260307659, -9.556994942982591 ], [ -66.385116509601602, -9.556927764580388 ], [ -66.384562636950662, -9.556773257569791 ], [ -66.384170978992131, -9.556731387169179 ], [ -66.383641925857603, -9.556759386099836 ], [ -66.383137013823884, -9.556901367579096 ], [ -66.382935776659352, -9.557497264401615 ], [ -66.382826813987563, -9.558115106066586 ], [ -66.382719206594544, -9.558869996874316 ], [ -66.382700260267214, -9.559281368260741 ], [ -66.382496085732697, -9.55958032582838 ], [ -66.382385089848654, -9.559992594153204 ], [ -66.382572351596039, -9.560310581574926 ], [ -66.382758032271099, -9.560468678224073 ], [ -66.383081787596552, -9.560625429106532 ], [ -66.38345224590833, -9.560850255454339 ], [ -66.383846169072285, -9.561120539862898 ], [ -66.384631530192493, -9.561409850610628 ], [ -66.385370188863021, -9.561631083685533 ], [ -66.385971225788921, -9.561899344690133 ], [ -66.387739268672249, -9.559163704406885 ], [ -66.38916844337011, -9.557070991424755 ], [ -66.389667240120943, -9.556312285548849 ], [ -66.389804406728885, -9.556219572493598 ], [ -66.390286752386473, -9.556123489910659 ], [ -66.391138646465961, -9.556160859647202 ], [ -66.391156451755123, -9.555635284740021 ], [ -66.390713793859447, -9.555091361804772 ], [ -66.391163392777656, -9.554013326729532 ], [ -66.391526601447779, -9.553507223319642 ], [ -66.392203823625081, -9.552175687713548 ], [ -66.392242830048289, -9.551467158277104 ], [ -66.392098876142455, -9.550874632521552 ], [ -66.39126797141455, -9.55063146417149 ], [ -66.390277795858708, -9.550572595758869 ], [ -66.38958790092515, -9.55062501323621 ], [ -66.388716173330678, -9.550907638553211 ], [ -66.388050192253942, -9.551051194437239 ], [ -66.387566043388091, -9.550964540433645 ], [ -66.386986684271577, -9.550559003031214 ], [ -66.38645583480664, -9.550404271432502 ], [ -66.385671857400709, -9.550252005175352 ], [ -66.38505031670033, -9.550235216629835 ], [ -66.384498262303055, -9.550263437540719 ], [ -66.383625849600421, -9.550477526703084 ], [ -66.38287052513941, -9.550896067577668 ], [ -66.382782540698173, -9.551308111027222 ], [ -66.382813001155839, -9.552061657051752 ], [ -66.383163822662141, -9.552629333741733 ], [ -66.383442448740283, -9.552877901035009 ], [ -66.383743409662742, -9.553057719341258 ], [ -66.384500768938111, -9.552844748607125 ] ] ] } },
{ "type": "Feature", "properties": { "patch_id": 14.0, "area_ha": 0.4706, "lon_centro": -66.405728, "lat_centro": -9.555327 }, "geometry": { "type": "Polygon", "coordinates": [ [ [ -66.405887874541861, -9.554972705757878 ], [ -66.40561335065486, -9.55525383575443 ], [ -66.405191324785775, -9.554667959980788 ], [ -66.405191325317105, -9.554885521342598 ], [ -66.405624425981614, -9.55557645389564 ], [ -66.405539605602613, -9.555756222056017 ], [ -66.405789200564428, -9.5559065839736 ], [ -66.40614908475608, -9.55658337647187 ], [ -66.405735077479676, -9.555579475212685 ], [ -66.405777172166083, -9.555376755450011 ], [ -66.406236039629675, -9.555146731556658 ], [ -66.406236040160962, -9.554972705230499 ], [ -66.405887874541861, -9.554972705757878 ] ] ] } },
{ "type": "Feature", "properties": { "patch_id": null, "area_ha": null, "lon_centro": null, "lat_centro": null }, "geometry": { "type": "Polygon", "coordinates": [ [ [ -66.406527332482469, -9.55654706953978 ], [ -66.406521647267667, -9.555976045873708 ], [ -66.4065385191319, -9.555359114587951 ], [ -66.406531470387989, -9.554651045198863 ], [ -66.406161241040579, -9.554449087352436 ], [ -66.405811523071577, -9.55399565269804 ], [ -66.405187260060842, -9.553704811187297 ], [ -66.404313052965719, -9.553736222916937 ], [ -66.402841000877729, -9.553819176021275 ], [ -66.40187746969184, -9.554125576181656 ], [ -66.401422914650453, -9.554701109951818 ], [ -66.401268417426095, -9.555365078492708 ], [ -66.401159716328806, -9.556005755356146 ], [ -66.400841412379776, -9.556397208668873 ], [ -66.400823395504375, -9.556899937826802 ], [ -66.401008624674034, -9.557012340284052 ], [ -66.40139959709775, -9.556985667621518 ], [ -66.402223249186292, -9.556497890207256 ], [ -66.403418946791959, -9.556394801016594 ], [ -66.404314582270132, -9.556203276582778 ], [ -66.405028623732349, -9.556264805977991 ], [ -66.405791643840175, -9.556622814995212 ], [ -66.406440516742094, -9.557073314249134 ], [ -66.406527332482469, -9.55654706953978 ] ] ] } },
{ "type": "Feature", "properties": { "patch_id": null, "area_ha": null, "lon_centro": null, "lat_centro": null }, "geometry": { "type": "Polygon", "coordinates": [ [ [ -66.27897065138346, -9.562885638686936 ], [ -66.278518472196595, -9.562311620703831 ], [ -66.278122334184317, -9.561505756475174 ], [ -66.278215548584882, -9.561100073373163 ], [ -66.278387361916444, -9.560790029681471 ], [ -66.277594910060273, -9.559159023717463 ], [ -66.2774140475736, -9.558524611707099 ], [ -66.277236509593337, -9.558237142204289 ], [ -66.276949106415088, -9.558644657901976 ], [ -66.276640437676647, -9.558859610705138 ], [ -66.276482872481935, -9.558629781266623 ], [ -66.27648065723983, -9.558398485866938 ], [ -66.276592369838937, -9.557896246473105 ], [ -66.277053248778927, -9.557352159706415 ], [ -66.277303106352207, -9.557079933020111 ], [ -66.277451808877288, -9.556384581376765 ], [ -66.277091014718721, -9.555212128583262 ], [ -66.276677873929501, -9.554657011763508 ], [ -66.276169487261896, -9.554295555937916 ], [ -66.27603171291679, -9.554104091563014 ], [ -66.276728194474472, -9.553827653734945 ], [ -66.276597292506906, -9.552325332285321 ], [ -66.275860316558735, -9.552428663340603 ], [ -66.275854598831785, -9.551831149631196 ], [ -66.276046200107871, -9.55155947400355 ], [ -66.275826881267875, -9.550963974032566 ], [ -66.275398387738747, -9.550833078431136 ], [ -66.274965469732095, -9.550239590473156 ], [ -66.274682185432923, -9.549047123260323 ], [ -66.274553512536869, -9.547776093069499 ], [ -66.274028853887103, -9.547742482222668 ], [ -66.273578735910476, -9.547380469445423 ], [ -66.273296198548692, -9.546265097296885 ], [ -66.272810746249661, -9.546269667543614 ], [ -66.272751202895734, -9.546135293010526 ], [ -66.273039527591379, -9.545824155877501 ], [ -66.273504455978511, -9.545704120219737 ], [ -66.273989907138628, -9.545699549273555 ], [ -66.274611284268602, -9.545693697477603 ], [ -66.274920867109614, -9.545575123198427 ], [ -66.275093786549888, -9.545380730467341 ], [ -66.27504960702484, -9.544822131163871 ], [ -66.274754652743951, -9.544439381141915 ], [ -66.274521453036371, -9.544422300835254 ], [ -66.273902656730613, -9.544697997247471 ], [ -66.273517059441261, -9.54499077391892 ], [ -66.273228183279983, -9.545244086998462 ], [ -66.272859608906799, -9.545286109410423 ], [ -66.272354555619401, -9.545271586625883 ], [ -66.272041841775774, -9.545062488628854 ], [ -66.271476877792949, -9.544875040076855 ], [ -66.270385786943976, -9.544499774334756 ], [ -66.269375864207632, -9.544489994737326 ], [ -66.2685976703102, -9.544343098435823 ], [ -66.268131820377434, -9.544366753514554 ], [ -66.267319753128817, -9.544740638910907 ], [ -66.267130351044543, -9.545243608595024 ], [ -66.266841652005539, -9.545516192821953 ], [ -66.266339536151449, -9.545810058539566 ], [ -66.266301618668606, -9.545906797528717 ], [ -66.266263149824653, -9.545945712035792 ], [ -66.266189152626197, -9.546331938316991 ], [ -66.26650021185263, -9.546367568975539 ], [ -66.266850658965978, -9.546460658852126 ], [ -66.2670842291394, -9.546516293600362 ], [ -66.267180401027844, -9.546419007129469 ], [ -66.267236633388421, -9.546206436770222 ], [ -66.267254397020352, -9.546032781005477 ], [ -66.267350568754921, -9.545935494546631 ], [ -66.267545853707844, -9.546049318459193 ], [ -66.267664569201358, -9.546279521060463 ], [ -66.267919396228976, -9.546527720691538 ], [ -66.268212508333633, -9.546717730543319 ], [ -66.268599952855226, -9.546617705449876 ], [ -66.269046755272072, -9.546632780873326 ], [ -66.269398306352088, -9.546841516454833 ], [ -66.26963169265116, -9.546877874499637 ], [ -66.270155983726994, -9.546872943081933 ], [ -66.270952497020573, -9.546904002600389 ], [ -66.271477155629398, -9.546937618632233 ], [ -66.272215045453478, -9.546930673936762 ], [ -66.272741545260374, -9.547157035021426 ], [ -66.273229761848839, -9.547441584831253 ], [ -66.273563002247528, -9.547766146011066 ], [ -66.273391738945705, -9.548134010843494 ], [ -66.272889997256613, -9.548466434803856 ], [ -66.27223254010984, -9.548761771471003 ], [ -66.272061643358924, -9.549168185698816 ], [ -66.272141526591994, -9.549398750983089 ], [ -66.272436116454273, -9.549742953274675 ], [ -66.272612723298352, -9.549934054670878 ], [ -66.272789698808197, -9.550163705304264 ], [ -66.273062660707311, -9.55027679318424 ], [ -66.273178617848103, -9.5502178717771 ], [ -66.273254817039202, -9.550062942694355 ], [ -66.2732540800191, -9.549985843940242 ], [ -66.273331200436544, -9.549927288303948 ], [ -66.27371846056721, -9.549807982114237 ], [ -66.27402786293932, -9.549670132633022 ], [ -66.27410664178133, -9.549785048943495 ], [ -66.274070201120963, -9.550035985559498 ], [ -66.273977348591856, -9.550480217745633 ], [ -66.27415653704746, -9.550941163318353 ], [ -66.274257868393306, -9.551383565865892 ], [ -66.274511781848759, -9.551535384412015 ], [ -66.274548775015177, -9.551342271808652 ], [ -66.274798632423469, -9.551070047650796 ], [ -66.274975794248803, -9.551318971122889 ], [ -66.275135197546831, -9.551741549295231 ], [ -66.275119651533686, -9.552146499981406 ], [ -66.275180303982538, -9.552396521300535 ], [ -66.275569962889378, -9.552527782674918 ], [ -66.27579241911566, -9.553450951386683 ], [ -66.276217734501273, -9.55527819558775 ], [ -66.276134041543941, -9.555664512320773 ], [ -66.27596462563821, -9.556225124974841 ], [ -66.275685546875891, -9.556487988265101 ], [ -66.275558311030892, -9.556383168219124 ], [ -66.275585409354491, -9.556170872504451 ], [ -66.275544727117889, -9.555978492405684 ], [ -66.275399087655316, -9.555979865873848 ], [ -66.275196852718395, -9.556155260425422 ], [ -66.27509401674007, -9.556570672440753 ], [ -66.274699439524625, -9.55694064456716 ], [ -66.275001258984105, -9.557024542234048 ], [ -66.27523483643121, -9.557080168611833 ], [ -66.275439193653909, -9.557126432212508 ], [ -66.275567444734548, -9.557337262714729 ], [ -66.275241571127907, -9.557783693042433 ], [ -66.275077619215992, -9.557900897649912 ], [ -66.274883155328126, -9.557873817058667 ], [ -66.274688783679679, -9.557856373674024 ], [ -66.274428660216614, -9.558070866936017 ], [ -66.27446286168842, -9.558600645309188 ], [ -66.274832740687629, -9.558693539029543 ], [ -66.275504348705439, -9.558860691605213 ], [ -66.275727572109886, -9.558848947584123 ], [ -66.275710152850877, -9.559057939285285 ], [ -66.275413136629169, -9.559137846784227 ], [ -66.275265366631544, -9.55925489901327 ], [ -66.275260493144742, -9.559422006948024 ], [ -66.275395378860381, -9.559311501701753 ], [ -66.275563121285487, -9.559252090130641 ], [ -66.275593012050024, -9.559669462913217 ], [ -66.275650086948332, -9.560221513788949 ], [ -66.275918615961146, -9.560546678321398 ], [ -66.276344589009938, -9.561088821994923 ], [ -66.276568362739212, -9.561472237049861 ], [ -66.277034785255154, -9.561506386873443 ], [ -66.277397763479897, -9.561554363608815 ], [ -66.277516123947876, -9.561746009465816 ], [ -66.277909305068746, -9.562243481408931 ], [ -66.278643117109496, -9.563158601254134 ], [ -66.27897065138346, -9.562885638686936 ] ] ] } },
{ "type": "Feature", "properties": { "patch_id": null, "area_ha": null, "lon_centro": null, "lat_centro": null }, "geometry": { "type": "Polygon", "coordinates": [ [ [ -66.413136301854365, -9.555796885945233 ], [ -66.413259674568579, -9.555475871091469 ], [ -66.412614673367855, -9.55541368028763 ], [ -66.412417140719882, -9.555221455272271 ], [ -66.412560678321583, -9.554614704359714 ], [ -66.412670496062248, -9.554088235473436 ], [ -66.411955552603487, -9.553935357436609 ], [ -66.411484390646564, -9.553997092759634 ], [ -66.411183877903184, -9.553862985572671 ], [ -66.411329694745135, -9.553484642924763 ], [ -66.411612781892586, -9.553025001533577 ], [ -66.411447947065426, -9.552649709629708 ], [ -66.410525109108562, -9.55241891798183 ], [ -66.410182671747918, -9.552696396640789 ], [ -66.410078666089774, -9.552651731358006 ], [ -66.410171407928132, -9.551565773834719 ], [ -66.409835812266692, -9.551374901130981 ], [ -66.409306441935698, -9.551368674314645 ], [ -66.408881645134173, -9.551464214796475 ], [ -66.408332333096141, -9.551766564574711 ], [ -66.407920859937136, -9.552044718623486 ], [ -66.407753164588627, -9.552537491287831 ], [ -66.408009586217673, -9.552866201591923 ], [ -66.408609926871932, -9.553065899913205 ], [ -66.409405181280349, -9.553195154692089 ], [ -66.410027623539179, -9.553303260754834 ], [ -66.410490124954364, -9.553527151304777 ], [ -66.410917426966634, -9.553682857422906 ], [ -66.411045013409108, -9.553784398447652 ], [ -66.411106297977014, -9.554160707396687 ], [ -66.411271247643228, -9.554547419730991 ], [ -66.411829098670154, -9.555101595510671 ], [ -66.41209691775957, -9.555418767283244 ], [ -66.412701136081367, -9.556006749702819 ], [ -66.413136301854365, -9.555796885945233 ] ] ] } },
{ "type": "Feature", "properties": { "patch_id": 35.0, "area_ha": 0.372, "lon_centro": -66.275543, "lat_centro": -9.5512 }, "geometry": { "type": "Polygon", "coordinates": [ [ [ -66.275805073289192, -9.550923946921339 ], [ -66.27550341926927, -9.551021086168477 ], [ -66.275252404953221, -9.550819984304574 ], [ -66.27489096303573, -9.550227386350697 ], [ -66.275065103709849, -9.550706157911698 ], [ -66.275583593743789, -9.551392245586108 ], [ -66.275718128713791, -9.552447548602549 ], [ -66.275718349392989, -9.551406761748529 ], [ -66.275892142829122, -9.551228681435081 ], [ -66.275805073289192, -9.550923946921339 ] ] ] } },
{ "type": "Feature", "properties": { "patch_id": null, "area_ha": null, "lon_centro": null, "lat_centro": null }, "geometry": { "type": "Polygon", "coordinates": [ [ [ -66.271201818408684, -9.551319179240153 ], [ -66.272249429687704, -9.551206507905505 ], [ -66.272335013437086, -9.550678812609384 ], [ -66.271822400505812, -9.549874028365243 ], [ -66.271483360895346, -9.549620200593809 ], [ -66.270664845849609, -9.54931948081736 ], [ -66.270054932755727, -9.549171007955518 ], [ -66.269149357665853, -9.54924378189572 ], [ -66.268855044380146, -9.549606378165622 ], [ -66.26943348347811, -9.550526208895054 ], [ -66.270011558001642, -9.551407488081178 ], [ -66.271201818408684, -9.551319179240153 ] ] ] } },
{ "type": "Feature", "properties": { "patch_id": null, "area_ha": null, "lon_centro": null, "lat_centro": null }, "geometry": { "type": "Polygon", "coordinates": [ [ [ -66.266090602942867, -9.547537648971948 ], [ -66.265899483190879, -9.547860720595081 ], [ -66.265592465705708, -9.548249136289115 ], [ -66.265594671206173, -9.548480434351374 ], [ -66.265795717133713, -9.549198203750231 ], [ -66.266114010394176, -9.549991977102849 ], [ -66.26658532415486, -9.550540141718811 ], [ -66.267014614565525, -9.550754573631169 ], [ -66.267529374391117, -9.550428458393304 ], [ -66.267357770564857, -9.550083094274768 ], [ -66.267098000033101, -9.549995579267444 ], [ -66.266977934149892, -9.54962402820744 ], [ -66.266572330222274, -9.54917805459152 ], [ -66.26635441551899, -9.54804921159039 ], [ -66.26630883884151, -9.547342832930742 ], [ -66.266090602942867, -9.547537648971948 ] ] ] } },
{ "type": "Feature", "properties": { "patch_id": 34.0, "area_ha": 0.8805, "lon_centro": -66.271382, "lat_centro": -9.545639 }, "geometry": { "type": "Polygon", "coordinates": [ [ [ -66.272017525186726, -9.545612672569995 ], [ -66.271625720681541, -9.5453949979191 ], [ -66.271227503354908, -9.54543595558782 ], [ -66.271146824473362, -9.545220857248987 ], [ -66.27083568803117, -9.54534888552066 ], [ -66.270450274718499, -9.54495964756245 ], [ -66.270319783504647, -9.545046732971013 ], [ -66.270802663314853, -9.545452287458318 ], [ -66.270406854361283, -9.545699742641402 ], [ -66.270406854361283, -9.545830223180509 ], [ -66.271142064953963, -9.545569317878744 ], [ -66.271566220432831, -9.545758025575765 ], [ -66.271538765288653, -9.546047898358951 ], [ -66.271799964686835, -9.546222037974209 ], [ -66.271920679265463, -9.545965014958375 ], [ -66.27219178000783, -9.546091432867211 ], [ -66.272322269905004, -9.546004477155 ], [ -66.272017525186726, -9.545612672569995 ] ] ] } },
{ "type": "Feature", "properties": { "patch_id": 25.0, "area_ha": 1.6458, "lon_centro": -66.378739, "lat_centro": -9.544755 }, "geometry": { "type": "Polygon", "coordinates": [ [ [ -66.379331398932422, -9.5442195519493 ], [ -66.378808978504409, -9.544001876770984 ], [ -66.378460812884768, -9.544001876243646 ], [ -66.37851489220796, -9.54432572151976 ], [ -66.378386941768568, -9.544457147703511 ], [ -66.378182505138057, -9.54444017131225 ], [ -66.378025462528129, -9.544219551421978 ], [ -66.378243138237963, -9.545481953636655 ], [ -66.378678477248755, -9.54600436280252 ], [ -66.37880896715815, -9.545917407078216 ], [ -66.378474068946403, -9.545682107426 ], [ -66.378456518543572, -9.545509512811602 ], [ -66.379070637087466, -9.54496062574659 ], [ -66.37933139893228, -9.545307802231831 ], [ -66.379459951136894, -9.544523778327308 ], [ -66.379331398932422, -9.5442195519493 ] ], [ [ -66.378620206084193, -9.544953187664545 ], [ -66.378597799911105, -9.544596407344596 ], [ -66.378921555943123, -9.544617431769458 ], [ -66.378983170570493, -9.54481947768965 ], [ -66.378620206084193, -9.544953187664545 ] ] ] } },
{ "type": "Feature", "properties": { "patch_id": 26.0, "area_ha": 6.0998, "lon_centro": -66.39756, "lat_centro": -9.545343 }, "geometry": { "type": "Polygon", "coordinates": [ [ [ -66.400794160703612, -9.546222163061351 ], [ -66.400511647510953, -9.546168742168366 ], [ -66.400315286125746, -9.545873883303416 ], [ -66.39983651539724, -9.545917417811712 ], [ -66.399275297057457, -9.546437443209365 ], [ -66.398687886247785, -9.546345818286344 ], [ -66.398574220019057, -9.546174578347308 ], [ -66.39866094342446, -9.546004477148511 ], [ -66.398358794391356, -9.545837096930876 ], [ -66.398312674484956, -9.545264392804159 ], [ -66.398095113970442, -9.54522085724113 ], [ -66.397898741781162, -9.54551571659935 ], [ -66.39759480011638, -9.545559251632755 ], [ -66.395754329209893, -9.544067634327803 ], [ -66.396048842613254, -9.54374052536485 ], [ -66.395961782558985, -9.543522991377545 ], [ -66.395397218839818, -9.543305253395983 ], [ -66.395028319898188, -9.54355733337214 ], [ -66.394916930888471, -9.543261780636245 ], [ -66.394641098614485, -9.543298856402441 ], [ -66.394394510460458, -9.543000570422269 ], [ -66.394155532169606, -9.542990684492832 ], [ -66.393411051848204, -9.542377797374941 ], [ -66.393306134037587, -9.541868648760238 ], [ -66.393045049034782, -9.541781605542363 ], [ -66.392914444725619, -9.542216815227581 ], [ -66.39344085952871, -9.542535441036952 ], [ -66.393219189975397, -9.5429133757983 ], [ -66.393562590215936, -9.54269600549202 ], [ -66.393847631783274, -9.542982256891168 ], [ -66.393611004499164, -9.543305331781733 ], [ -66.393741599589077, -9.543566400806009 ], [ -66.394064933211439, -9.543186911508842 ], [ -66.394230276022512, -9.54317877217515 ], [ -66.394692468785394, -9.543548287946518 ], [ -66.394568776081215, -9.543653595957295 ], [ -66.394655835338114, -9.543827611020092 ], [ -66.394896793828721, -9.543724197488402 ], [ -66.394873521330894, -9.54395821665447 ], [ -66.395275474365334, -9.543918581941723 ], [ -66.396080050870708, -9.544456971294585 ], [ -66.396310114767957, -9.545012621002662 ], [ -66.396092502861109, -9.545481953637587 ], [ -66.396743278751231, -9.545781071443265 ], [ -66.396571387722318, -9.546222038509349 ], [ -66.397153266107779, -9.545454337796881 ], [ -66.397326324244005, -9.545444426776157 ], [ -66.399341550695127, -9.547151144832052 ], [ -66.39979298036188, -9.547745764758012 ], [ -66.400141249832743, -9.547919904373334 ], [ -66.400315276107477, -9.547702213629018 ], [ -66.400278247588332, -9.547469719065679 ], [ -66.40044587988676, -9.54735406325417 ], [ -66.40027185493966, -9.547267004444794 ], [ -66.39995708086613, -9.547571686900516 ], [ -66.399732417726426, -9.547374383783028 ], [ -66.399908838109141, -9.54714273349926 ], [ -66.400881230774885, -9.546787993973336 ], [ -66.400794160703612, -9.546222163061351 ] ], [ [ -66.393165749153056, -9.542169218589148 ], [ -66.393136035211469, -9.5420658812615 ], [ -66.393210180848016, -9.542037310390832 ], [ -66.393165749153056, -9.542169218589148 ] ], [ [ -66.396646726298968, -9.545434027455995 ], [ -66.396534234502042, -9.545205897330408 ], [ -66.396760368787682, -9.545183216575035 ], [ -66.396832599881307, -9.545351377098466 ], [ -66.396646726298968, -9.545434027455995 ] ], [ [ -66.399637164421918, -9.546588821603352 ], [ -66.399405256837682, -9.546536937701134 ], [ -66.39946978543783, -9.546334265334098 ], [ -66.399664530556421, -9.546440260178446 ], [ -66.399637164421918, -9.546588821603352 ] ], [ [ -66.399984680446977, -9.546999170192473 ], [ -66.39988672227139, -9.546988352758744 ], [ -66.399992970117793, -9.546707547408559 ], [ -66.400097662866401, -9.546865625335068 ], [ -66.399984680446977, -9.546999170192473 ] ], [ [ -66.400115206871604, -9.546476424266908 ], [ -66.400017327368744, -9.546465932436869 ], [ -66.400036583830172, -9.546359592629869 ], [ -66.400115206871604, -9.546476424266908 ] ] ] } },
{ "type": "Feature", "properties": { "patch_id": null, "area_ha": null, "lon_centro": null, "lat_centro": null }, "geometry": { "type": "Polygon", "coordinates": [ [ [ -66.379674748441303, -9.545387547008474 ], [ -66.379844179358201, -9.545066086927369 ], [ -66.379712771464995, -9.544576222851818 ], [ -66.379362080073776, -9.544019958430232 ], [ -66.378874448152985, -9.543579242951413 ], [ -66.378286757187325, -9.543493577675569 ], [ -66.377780844535039, -9.543532758043003 ], [ -66.377113063656068, -9.543493556302998 ], [ -66.375681546777514, -9.541851274383555 ], [ -66.3756046380892, -9.541052484884348 ], [ -66.375316772117543, -9.541032434602423 ], [ -66.375171135513398, -9.541433616000997 ], [ -66.375292041468413, -9.542026383875523 ], [ -66.375583058410839, -9.542366217697987 ], [ -66.37591976116417, -9.542671341771152 ], [ -66.376605011771403, -9.543315739094874 ], [ -66.377264326421567, -9.543663416094455 ], [ -66.377749817862394, -9.543887138862964 ], [ -66.377859449817493, -9.544502857350423 ], [ -66.377983291179945, -9.545392563539744 ], [ -66.378299465693289, -9.545949165031784 ], [ -66.378582025342894, -9.54659746783361 ], [ -66.378597023563742, -9.546951401170165 ], [ -66.378264369138478, -9.547057431393117 ], [ -66.377597482536203, -9.547109599569005 ], [ -66.377321230241947, -9.547100861782301 ], [ -66.377011924355728, -9.547240929899166 ], [ -66.376807634574277, -9.547528462689309 ], [ -66.376348076363328, -9.54760145847712 ], [ -66.376161055512043, -9.54730630478465 ], [ -66.376045321606298, -9.547238897243268 ], [ -66.375772558564933, -9.547584204427544 ], [ -66.375891332286329, -9.547959974798273 ], [ -66.376237971973993, -9.54810509299176 ], [ -66.376730471921675, -9.547871870110722 ], [ -66.376994205578441, -9.547777932476025 ], [ -66.377718172571008, -9.547679522654663 ], [ -66.378884893881832, -9.546971446940733 ], [ -66.379656345519663, -9.547021056882475 ], [ -66.379859054366634, -9.546573632183469 ], [ -66.378958110967048, -9.546228311576876 ], [ -66.378849264091798, -9.545692540025451 ], [ -66.37933160434082, -9.54559647670318 ], [ -66.379674748441303, -9.545387547008474 ] ] ] } },
{ "type": "Feature", "properties": { "patch_id": 24.0, "area_ha": 0.7743, "lon_centro": -66.387838, "lat_centro": -9.543422 }, "geometry": { "type": "Polygon", "coordinates": [ [ [ -66.388653642352011, -9.543043782310058 ], [ -66.388473860273308, -9.542869965842979 ], [ -66.38810643858902, -9.543309725741466 ], [ -66.387516089488656, -9.54295703591438 ], [ -66.38747256579876, -9.543087526675334 ], [ -66.387763863704592, -9.543506274805818 ], [ -66.387080749946605, -9.543697130993404 ], [ -66.386971447809813, -9.54390492017013 ], [ -66.386558329518664, -9.543958341207466 ], [ -66.386384189376017, -9.544175891832284 ], [ -66.388038406066798, -9.543566400805663 ], [ -66.389170306179864, -9.542913500351254 ], [ -66.388653642352011, -9.543043782310058 ] ] ] } },
{ "type": "Feature", "properties": { "patch_id": null, "area_ha": null, "lon_centro": null, "lat_centro": null }, "geometry": { "type": "Polygon", "coordinates": [ [ [ -66.268999693563373, -9.543057431608865 ], [ -66.268896682570002, -9.54311622939052 ], [ -66.268730109359126, -9.543297709155324 ], [ -66.268744525664857, -9.543451785745273 ], [ -66.268643598366211, -9.543729031065753 ], [ -66.268458097052445, -9.543962092792329 ], [ -66.268439843489091, -9.544084348960951 ], [ -66.268569174619117, -9.544070282338973 ], [ -66.268723109284934, -9.543921048824719 ], [ -66.268967477403052, -9.543751688691049 ], [ -66.269252336424756, -9.543755436330153 ], [ -66.26976910795814, -9.543641344283854 ], [ -66.270045470585643, -9.543433129821461 ], [ -66.270707677891764, -9.542957841515836 ], [ -66.270977259999015, -9.542717562982482 ], [ -66.270954469122103, -9.542364375352113 ], [ -66.271073463034412, -9.54194559939136 ], [ -66.271106963667748, -9.54138626671555 ], [ -66.270955885997978, -9.541156369772542 ], [ -66.270417800548714, -9.541071472333204 ], [ -66.270185705868514, -9.541170036816681 ], [ -66.270202881125869, -9.54161323452869 ], [ -66.270071982965092, -9.542141355857677 ], [ -66.269090372137015, -9.543063004749168 ], [ -66.268999693563373, -9.543057431608865 ] ] ] } },
{ "type": "Feature", "properties": { "patch_id": null, "area_ha": null, "lon_centro": null, "lat_centro": null }, "geometry": { "type": "Polygon", "coordinates": [ [ [ -66.267162537573654, -9.542509250246395 ], [ -66.267326538874826, -9.542057923712276 ], [ -66.267866075809877, -9.541615920283796 ], [ -66.268157323197372, -9.540932080042341 ], [ -66.268147399103469, -9.539891240958788 ], [ -66.267945013340793, -9.539032123866455 ], [ -66.267253039857295, -9.53842177341944 ], [ -66.266697499177866, -9.538542648959776 ], [ -66.265975628903732, -9.538870701776048 ], [ -66.265554067641702, -9.539465806949243 ], [ -66.264979977076379, -9.54035791789638 ], [ -66.264443128855788, -9.541082615525299 ], [ -66.264181068194262, -9.542113159904998 ], [ -66.264549046489421, -9.542688003932774 ], [ -66.264902366752452, -9.54308307000403 ], [ -66.265462936551828, -9.543489040503816 ], [ -66.267162537573654, -9.542509250246395 ] ] ] } },
{ "type": "Feature", "properties": { "patch_id": null, "area_ha": null, "lon_centro": null, "lat_centro": null }, "geometry": { "type": "Polygon", "coordinates": [ [ [ -66.40452609504672, -9.553174475985472 ], [ -66.404870357067765, -9.553079729081922 ], [ -66.404912289889282, -9.552668140190205 ], [ -66.404679904351781, -9.552441985477792 ], [ -66.404814791638458, -9.552120858486568 ], [ -66.404686104853766, -9.550751526229774 ], [ -66.404428665794129, -9.550320027252722 ], [ -66.404084178904114, -9.550391931794413 ], [ -66.403764746767848, -9.550669179820344 ], [ -66.403446449468504, -9.551060632863321 ], [ -66.40283930189949, -9.550175692047405 ], [ -66.401169785510348, -9.548912811690922 ], [ -66.40104520166561, -9.54795461197924 ], [ -66.401012890543299, -9.547018352473977 ], [ -66.400911093900589, -9.546037086022135 ], [ -66.40035316101401, -9.545471460591537 ], [ -66.399825721914937, -9.545659365584706 ], [ -66.399507421475604, -9.546050815050911 ], [ -66.398980887333792, -9.546330083782847 ], [ -66.398633908067438, -9.546150729301386 ], [ -66.398232976033043, -9.545172383676187 ], [ -66.397398689565762, -9.544586608979126 ], [ -66.39697747067018, -9.543882579077044 ], [ -66.39724363704056, -9.542874869217394 ], [ -66.397213606027464, -9.542167017228948 ], [ -66.396800090163765, -9.54223958657022 ], [ -66.396435765320064, -9.542631482897638 ], [ -66.395859587549523, -9.542545735973347 ], [ -66.395442449029289, -9.542252844295698 ], [ -66.394637294040749, -9.542283547803335 ], [ -66.394201896760393, -9.542470545188355 ], [ -66.393857185243334, -9.542519596334861 ], [ -66.393668573426552, -9.542064567372238 ], [ -66.39354967351936, -9.541677388388251 ], [ -66.393453332538101, -9.541244302199731 ], [ -66.393382942936427, -9.541107928038068 ], [ -66.393150572864869, -9.540881760106169 ], [ -66.3927126883342, -9.54081750104749 ], [ -66.392091847256452, -9.540869243230386 ], [ -66.391379414099845, -9.540967564486564 ], [ -66.390740984680818, -9.541567720987416 ], [ -66.389961775401133, -9.54189512657322 ], [ -66.389254986053729, -9.542564478812283 ], [ -66.387920456972793, -9.542588904094591 ], [ -66.386244815887267, -9.541862805615397 ], [ -66.385300345828995, -9.541769203591009 ], [ -66.383780146384936, -9.541635513238491 ], [ -66.382985479684152, -9.540398260993021 ], [ -66.381562424924212, -9.538447535375406 ], [ -66.381355004136353, -9.537250254008621 ], [ -66.381174107039271, -9.535241760615827 ], [ -66.381875952649224, -9.534069910005186 ], [ -66.383109290062535, -9.533121331829529 ], [ -66.383215781976645, -9.532252235414958 ], [ -66.382750616477509, -9.531754193585687 ], [ -66.382084212983045, -9.531852043005459 ], [ -66.38167587824222, -9.532449947252621 ], [ -66.381221070735791, -9.533002615358672 ], [ -66.3809929910134, -9.533210424620794 ], [ -66.380528501242338, -9.532780903956965 ], [ -66.379973545708864, -9.532512167179627 ], [ -66.379399180640021, -9.532609118550356 ], [ -66.379008675024636, -9.532681440660772 ], [ -66.378712461603229, -9.532981285443045 ], [ -66.3780904986656, -9.532918790157757 ], [ -66.374232205726301, -9.531379979573567 ], [ -66.373676131204519, -9.530997021428186 ], [ -66.373534473729322, -9.530632890958174 ], [ -66.373300774237748, -9.530269652018745 ], [ -66.373223658439585, -9.529448016969399 ], [ -66.373174269267437, -9.529105836145193 ], [ -66.372734150506247, -9.52881312750347 ], [ -66.372800712599386, -9.528561199321011 ], [ -66.372704629856344, -9.52815093854427 ], [ -66.372358125841913, -9.528017230099996 ], [ -66.371943937093178, -9.528021240384712 ], [ -66.371415817606547, -9.528140573011791 ], [ -66.370909137495801, -9.528099789440008 ], [ -66.370517061232391, -9.528012207995483 ], [ -66.370109285264249, -9.52632569657289 ], [ -66.370310415123257, -9.528059895792131 ], [ -66.369368776872534, -9.528251759042778 ], [ -66.368675993266351, -9.528007176118232 ], [ -66.368462172568599, -9.527323922498086 ], [ -66.368021610291279, -9.526985521888303 ], [ -66.367468013158899, -9.526853809910644 ], [ -66.36643209115374, -9.526818135096544 ], [ -66.36592787509106, -9.527028604813935 ], [ -66.365793619625009, -9.527418252122562 ], [ -66.365938627808902, -9.528125018304419 ], [ -66.366172991121658, -9.528556791249374 ], [ -66.366567981779284, -9.528941322866475 ], [ -66.367127858576367, -9.529712608904841 ], [ -66.367595919349341, -9.530507625261466 ], [ -66.368013700600969, -9.530869089420348 ], [ -66.368550797983787, -9.531663435373671 ], [ -66.368925700557611, -9.532345129076623 ], [ -66.369228431233992, -9.532707703914335 ], [ -66.370034260150589, -9.532745591853809 ], [ -66.370720769796776, -9.532350597196048 ], [ -66.371362827387131, -9.532115940083894 ], [ -66.371546240114625, -9.532045631916327 ], [ -66.372029017110336, -9.531995268201822 ], [ -66.372856281037485, -9.531873034734614 ], [ -66.373338832360247, -9.531799827582011 ], [ -66.373868752497785, -9.531863224376016 ], [ -66.374148250907254, -9.532203174532842 ], [ -66.374314044387788, -9.532681289951212 ], [ -66.374158811119656, -9.53327673663102 ], [ -66.373910186140222, -9.533736025097864 ], [ -66.37380591754885, -9.53483354443849 ], [ -66.37396676913427, -9.534809141228278 ], [ -66.37430878615443, -9.534486010629063 ], [ -66.375152095659544, -9.53365545344961 ], [ -66.375676622867616, -9.53317064533115 ], [ -66.376088343189537, -9.532915369757688 ], [ -66.376549456880639, -9.533002272875457 ], [ -66.377518155594117, -9.53322131383239 ], [ -66.378235311765891, -9.533602699822021 ], [ -66.378584972550826, -9.53405618259238 ], [ -66.378611583572493, -9.534421425462709 ], [ -66.37861338376905, -9.534604158573991 ], [ -66.378894014021753, -9.535058310628639 ], [ -66.379056890141001, -9.53523947979885 ], [ -66.37954709540881, -9.535942877789791 ], [ -66.379436093333268, -9.536355144210241 ], [ -66.379391422324176, -9.536492640850673 ], [ -66.379208911053141, -9.536654319901208 ], [ -66.378956466458447, -9.536725302750311 ], [ -66.378752519543369, -9.537047096546672 ], [ -66.378709649014965, -9.537367326284841 ], [ -66.378688213759332, -9.537527441160504 ], [ -66.378551498512948, -9.537665831624814 ], [ -66.378139326426506, -9.537875428108155 ], [ -66.378046382140283, -9.537784955173718 ], [ -66.377904715300573, -9.537420829175883 ], [ -66.377390148504318, -9.536580601832313 ], [ -66.377063496042851, -9.536126894951533 ], [ -66.376946191976302, -9.535899594697689 ], [ -66.376388532532147, -9.535356752726758 ], [ -66.375997122676722, -9.5353377059451 ], [ -66.375789574979208, -9.535294031427897 ], [ -66.375397715336888, -9.535229300506705 ], [ -66.374754758868391, -9.535372599187152 ], [ -66.374368518117805, -9.535878910512581 ], [ -66.374169960792656, -9.536748904738589 ], [ -66.374150096761213, -9.537068912247172 ], [ -66.374337557184006, -9.537409753166026 ], [ -66.374522544963625, -9.537499334801465 ], [ -66.374822812985244, -9.537610642089961 ], [ -66.375076609260447, -9.537676712040049 ], [ -66.375469371510462, -9.537832809206995 ], [ -66.375793775552964, -9.538058100710042 ], [ -66.376049821564635, -9.538352586717306 ], [ -66.376166451676909, -9.538511362088339 ], [ -66.376260745714305, -9.538738885761516 ], [ -66.376402412075649, -9.539103012822858 ], [ -66.376749604043638, -9.539305237777988 ], [ -66.376864434677287, -9.539281279291282 ], [ -66.37769125940423, -9.539113345559382 ], [ -66.377919569655589, -9.538928378123209 ], [ -66.378191200624613, -9.538468864019038 ], [ -66.378281669118962, -9.538308078776872 ], [ -66.378468683761355, -9.538603232517355 ], [ -66.378680285794744, -9.539058053986095 ], [ -66.378684113228104, -9.539446361714326 ], [ -66.379193960181709, -9.539806910467481 ], [ -66.379632972907913, -9.539985395950051 ], [ -66.379840072871275, -9.539983383803392 ], [ -66.381607869940382, -9.539555015655241 ], [ -66.382101018664628, -9.540555346086418 ], [ -66.382191919028827, -9.542770304721294 ], [ -66.381679343560009, -9.544465726728555 ], [ -66.3802090943922, -9.544731304564589 ], [ -66.379955968802221, -9.544733765318561 ], [ -66.379891892488743, -9.54523695149109 ], [ -66.380149526267417, -9.545691322420263 ], [ -66.380061312046891, -9.546080524360731 ], [ -66.379978733014994, -9.54704076610642 ], [ -66.380163727314425, -9.547130342388018 ], [ -66.380327739126841, -9.547425716550693 ], [ -66.38074307508478, -9.547535896057353 ], [ -66.38106591378957, -9.547601287208911 ], [ -66.381344759076995, -9.547872699744758 ], [ -66.381570589811574, -9.547436471575987 ], [ -66.381630377960605, -9.546499296379082 ], [ -66.384676457590587, -9.545007656410041 ], [ -66.385022304530281, -9.545072820434179 ], [ -66.385854775536444, -9.545475900191695 ], [ -66.386257484405704, -9.546637003785609 ], [ -66.38612777159365, -9.547483482146147 ], [ -66.385029316812009, -9.548110960163513 ], [ -66.38450479231399, -9.548595785407851 ], [ -66.384951495515921, -9.549550869208934 ], [ -66.385670502170754, -9.550114956468944 ], [ -66.386706929382697, -9.55019623166481 ], [ -66.387763203480617, -9.54995749963039 ], [ -66.388773904080651, -9.549764896435258 ], [ -66.389438299296685, -9.549461450586952 ], [ -66.389980173466469, -9.548405361636078 ], [ -66.389996288574707, -9.54770847598361 ], [ -66.390547996190378, -9.547645985891444 ], [ -66.391178772872621, -9.547434240629096 ], [ -66.391391612932324, -9.546849654160921 ], [ -66.391600946963692, -9.545911027407431 ], [ -66.39165935134001, -9.544836812115269 ], [ -66.391678518134668, -9.544448285277396 ], [ -66.39158927369111, -9.543569680134881 ], [ -66.391682083731169, -9.542483707564895 ], [ -66.391781902714229, -9.542105815945689 ], [ -66.391977835010678, -9.542138170312803 ], [ -66.392269202955774, -9.542512246335102 ], [ -66.393008607340221, -9.542813420245762 ], [ -66.393252597709946, -9.54305089620228 ], [ -66.393417859703021, -9.543471888018225 ], [ -66.393605454552372, -9.543824131215198 ], [ -66.394054056447104, -9.543808331031606 ], [ -66.394640837299463, -9.543802603060479 ], [ -66.394952278015808, -9.543879514541887 ], [ -66.395241160496795, -9.544002332847949 ], [ -66.39557832901049, -9.54435311364767 ], [ -66.395867211993234, -9.544475931213055 ], [ -66.396031345909861, -9.544782714342306 ], [ -66.395918894620067, -9.545046512090881 ], [ -66.396038705234105, -9.545525053708952 ], [ -66.396200462225167, -9.545592003844822 ], [ -66.396433064377462, -9.545841009076486 ], [ -66.396540011748215, -9.546182615381392 ], [ -66.396585807486545, -9.546159324528164 ], [ -66.396766838526375, -9.545849169744711 ], [ -66.397144142932945, -9.545605627345878 ], [ -66.397722024963983, -9.545862679002283 ], [ -66.398453785539516, -9.546552249130642 ], [ -66.398458658337191, -9.547043333887231 ], [ -66.398253937811489, -9.547285190724702 ], [ -66.397832363302939, -9.548865505174163 ], [ -66.398097728080955, -9.550096452819595 ], [ -66.398203999627341, -9.55036953404605 ], [ -66.39873620855127, -9.550661292673611 ], [ -66.39916191877407, -9.550657128500633 ], [ -66.399793483384343, -9.550525311423856 ], [ -66.400024390627735, -9.550603003798539 ], [ -66.400174758257634, -9.550681484094138 ], [ -66.400578590933009, -9.550791748830159 ], [ -66.401049869322534, -9.550741449715547 ], [ -66.401265980687498, -9.550488058075313 ], [ -66.401472628468071, -9.550440348707095 ], [ -66.401910523721597, -9.55050459183362 ], [ -66.402408444128639, -9.55081952263612 ], [ -66.403080993555093, -9.551338331451792 ], [ -66.403511812312672, -9.551848084725673 ], [ -66.404222630490466, -9.552743428481556 ], [ -66.40452609504672, -9.553174475985472 ] ] ] } },
{ "type": "Feature", "properties": { "patch_id": null, "area_ha": null, "lon_centro": null, "lat_centro": null }, "geometry": { "type": "Polygon", "coordinates": [ [ [ -66.272415721817239, -9.540153114882299 ], [ -66.272459864489051, -9.540030615482408 ], [ -66.272439158657519, -9.539895875132608 ], [ -66.272386519310956, -9.539806413531037 ], [ -66.272307008359107, -9.539614396940806 ], [ -66.272154766020464, -9.53926242727173 ], [ -66.271967797331698, -9.5393412915161 ], [ -66.271885738866899, -9.539560529753318 ], [ -66.272068442917828, -9.539713023059182 ], [ -66.272264276285469, -9.539884669169512 ], [ -66.272247495899009, -9.540161122787277 ], [ -66.272415721817239, -9.540153114882299 ] ] ] } },
{ "type": "Feature", "properties": { "patch_id": 23.0, "area_ha": 0.417, "lon_centro": -66.380162, "lat_centro": -9.53963 }, "geometry": { "type": "Polygon", "coordinates": [ [ [ -66.38055177168151, -9.539387100185607 ], [ -66.379679793882588, -9.53951776756967 ], [ -66.37972332944959, -9.539996539142411 ], [ -66.379897343582329, -9.539996528407624 ], [ -66.380188890084824, -9.539628326133629 ], [ -66.38042718851132, -9.539597221278431 ], [ -66.380593914967577, -9.539778852701945 ], [ -66.380855114367179, -9.539474232533925 ], [ -66.38055177168151, -9.539387100185607 ] ] ] } },
{ "type": "Feature", "properties": { "patch_id": null, "area_ha": null, "lon_centro": null, "lat_centro": null }, "geometry": { "type": "Polygon", "coordinates": [ [ [ -66.249096758766157, -9.53922150341422 ], [ -66.249659902135491, -9.538535128114821 ], [ -66.249954113897942, -9.538159694230952 ], [ -66.25018225828903, -9.537643513811949 ], [ -66.250163953440079, -9.537078230385905 ], [ -66.249926674527387, -9.536630653053104 ], [ -66.249626131053887, -9.536337881001238 ], [ -66.249402894705142, -9.536005833003394 ], [ -66.248727790410626, -9.535806515432233 ], [ -66.24783529345774, -9.535891952833163 ], [ -66.247475014540598, -9.536126637601724 ], [ -66.247296578468394, -9.536423881812748 ], [ -66.247391576920222, -9.536885641109492 ], [ -66.247757942102368, -9.537293462643198 ], [ -66.248253396909263, -9.537661524714816 ], [ -66.248490675187256, -9.538109103657966 ], [ -66.248585676374134, -9.53857086190091 ], [ -66.248850551829193, -9.539198100080283 ], [ -66.249096758766157, -9.53922150341422 ] ] ] } },
{ "type": "Feature", "properties": { "patch_id": null, "area_ha": null, "lon_centro": null, "lat_centro": null }, "geometry": { "type": "Polygon", "coordinates": [ [ [ -66.28553052155668, -9.534098853199904 ], [ -66.286062840146272, -9.535610222776471 ], [ -66.283766041682725, -9.536402950683426 ], [ -66.283079129645628, -9.534970137969854 ], [ -66.282561090017253, -9.534949322336283 ], [ -66.282178893492073, -9.53559546901624 ], [ -66.282132771250261, -9.536187042970745 ], [ -66.283284717516324, -9.537512663730196 ], [ -66.28358082811026, -9.538692145899871 ], [ -66.284591520279022, -9.53878541251134 ], [ -66.285366739984624, -9.538623883470194 ], [ -66.285676926025459, -9.538569551149587 ], [ -66.286554225143817, -9.538252846282147 ], [ -66.286940601458511, -9.538043583871385 ], [ -66.287246843868019, -9.537578062553358 ], [ -66.287450265877141, -9.537190617298981 ], [ -66.287467531965177, -9.536290899437347 ], [ -66.286616896859528, -9.533985791093448 ], [ -66.28553052155668, -9.534098853199904 ] ] ] } },
{ "type": "Feature", "properties": { "patch_id": 22.0, "area_ha": 0.4492, "lon_centro": -66.369222, "lat_centro": -9.531689 }, "geometry": { "type": "Polygon", "coordinates": [ [ [ -66.369536004562733, -9.53146377523662 ], [ -66.369337536996383, -9.531505023870299 ], [ -66.369274794879999, -9.531246110793242 ], [ -66.368926640071535, -9.531420250935932 ], [ -66.368970175638566, -9.531986092578769 ], [ -66.36910076939995, -9.532073151387809 ], [ -66.369361875765563, -9.532029616352155 ], [ -66.369579539598348, -9.531724985450628 ], [ -66.369536004562733, -9.53146377523662 ] ] ] } },
{ "type": "Feature", "properties": { "patch_id": 21.0, "area_ha": 0.3363, "lon_centro": -66.37324, "lat_centro": -9.531372 }, "geometry": { "type": "Polygon", "coordinates": [ [ [ -66.372844793281402, -9.530854295472006 ], [ -66.373104965412978, -9.531071214536436 ], [ -66.373018922609944, -9.531855476209676 ], [ -66.373541229175004, -9.531507180302787 ], [ -66.373368925455054, -9.53122150137915 ], [ -66.373628298447201, -9.531202575757296 ], [ -66.372844793281402, -9.530854295472006 ] ] ] } },
{ "type": "Feature", "properties": { "patch_id": 20.0, "area_ha": 0.7018, "lon_centro": -66.371296, "lat_centro": -9.530417 }, "geometry": { "type": "Polygon", "coordinates": [ [ [ -66.371391418046485, -9.530237854895917 ], [ -66.371103264194502, -9.529940059616541 ], [ -66.370755111569281, -9.530027129794437 ], [ -66.370879209498, -9.530216104546213 ], [ -66.370580970627344, -9.530375426230826 ], [ -66.370798635790734, -9.530592960175156 ], [ -66.371162672134076, -9.530502234024755 ], [ -66.371233986147431, -9.53076710031787 ], [ -66.371364476592348, -9.530767100845233 ], [ -66.371505345675644, -9.530422720978914 ], [ -66.371887011682475, -9.530941240460582 ], [ -66.372061099901188, -9.530896438260452 ], [ -66.371893404199341, -9.530621661112125 ], [ -66.372102531691993, -9.530549032250029 ], [ -66.371391418046485, -9.530237854895917 ] ] ] } },
{ "type": "Feature", "properties": { "patch_id": 19.0, "area_ha": 0.3635, "lon_centro": -66.371216, "lat_centro": -9.529036 }, "geometry": { "type": "Polygon", "coordinates": [ [ [ -66.371281623706039, -9.529253527555731 ], [ -66.371364476592717, -9.528677543688641 ], [ -66.370929240897453, -9.528590474144741 ], [ -66.37084218164037, -9.528982164382786 ], [ -66.371135312670887, -9.529132538221289 ], [ -66.371455833159189, -9.529532170663112 ], [ -66.371451672139827, -9.529722259989205 ], [ -66.371754251527179, -9.529547726458071 ], [ -66.371281623706039, -9.529253527555731 ] ] ] } },
{ "type": "Feature", "properties": { "patch_id": null, "area_ha": null, "lon_centro": null, "lat_centro": null }, "geometry": { "type": "Polygon", "coordinates": [ [ [ -66.223757364274149, -9.528610504930747 ], [ -66.223995309244927, -9.52821418807379 ], [ -66.223941113756325, -9.527957658560116 ], [ -66.223336997800303, -9.527963249565774 ], [ -66.222803371300046, -9.528122406184856 ], [ -66.222545268450062, -9.528210471373615 ], [ -66.22273963860134, -9.528688465029031 ], [ -66.222966760546768, -9.528977665633644 ], [ -66.223622981909159, -9.529005863256598 ], [ -66.223757364274149, -9.528610504930747 ] ] ] } },
{ "type": "Feature", "properties": { "patch_id": null, "area_ha": null, "lon_centro": null, "lat_centro": null }, "geometry": { "type": "Polygon", "coordinates": [ [ [ -66.224096176901213, -9.526088463813021 ], [ -66.22445333370176, -9.525519690043248 ], [ -66.224636438372997, -9.524798308544863 ], [ -66.224451285542798, -9.523463460497528 ], [ -66.223942053097218, -9.522542859726775 ], [ -66.2237146149685, -9.522219390675222 ], [ -66.223281663472861, -9.522069176259667 ], [ -66.222814995757915, -9.522004950111491 ], [ -66.222330585576117, -9.52188948099718 ], [ -66.222190735989912, -9.521702284072607 ], [ -66.222323834215018, -9.521169854925686 ], [ -66.222577592293575, -9.52061917493821 ], [ -66.222656659471994, -9.519847349347565 ], [ -66.222427296329172, -9.51931827097054 ], [ -66.222183566606745, -9.519097762977715 ], [ -66.22192354125022, -9.518980217996999 ], [ -66.22156124112891, -9.519000701469727 ], [ -66.221469639277316, -9.518436077863228 ], [ -66.221345606331909, -9.518094514708126 ], [ -66.221152694415053, -9.517770723208624 ], [ -66.22078846798442, -9.517585597667015 ], [ -66.220531013512357, -9.517742194913241 ], [ -66.220343080553036, -9.517949556373971 ], [ -66.220470163941741, -9.518616666018232 ], [ -66.220805172252, -9.519367531898236 ], [ -66.22098403824279, -9.520034162422142 ], [ -66.221160334579992, -9.520426649007046 ], [ -66.221459380705141, -9.521023626400069 ], [ -66.221516142900271, -9.521554300847292 ], [ -66.22126318618902, -9.522190650683632 ], [ -66.221458030737892, -9.52272004881188 ], [ -66.220979243894973, -9.523204267140748 ], [ -66.220481267131362, -9.523483036961508 ], [ -66.220261061109369, -9.523930594212903 ], [ -66.220474291460135, -9.524579771392524 ], [ -66.220597524559039, -9.524835664364092 ], [ -66.221134845734198, -9.525070593788863 ], [ -66.221362124020004, -9.525376930695636 ], [ -66.22154212354701, -9.52616349709038 ], [ -66.221752464353159, -9.526504260899221 ], [ -66.222338674957825, -9.526430297344854 ], [ -66.222493214364121, -9.52634319069851 ], [ -66.222628724033299, -9.52606777028555 ], [ -66.222519532733514, -9.525469040107728 ], [ -66.222287590289355, -9.524665819729288 ], [ -66.222492945149355, -9.524475430779495 ], [ -66.222699586286183, -9.524422113342093 ], [ -66.222893309377511, -9.524831571870788 ], [ -66.223174782385556, -9.5253944371917 ], [ -66.223334147060228, -9.525821348386856 ], [ -66.223562231994421, -9.526213352675811 ], [ -66.22368401994737, -9.526315038242267 ], [ -66.224096176901213, -9.526088463813021 ] ] ] } },
{ "type": "Feature", "properties": { "patch_id": null, "area_ha": null, "lon_centro": null, "lat_centro": null }, "geometry": { "type": "Polygon", "coordinates": [ [ [ -66.282803872741184, -9.521080972444766 ], [ -66.282801170866549, -9.52079827925853 ], [ -66.282876503284214, -9.520553403672011 ], [ -66.283132195940155, -9.520216873478358 ], [ -66.283479112117064, -9.519943738198618 ], [ -66.283800384860044, -9.519696545983919 ], [ -66.284042271925543, -9.519270189829932 ], [ -66.283923685685821, -9.519052842756476 ], [ -66.283663941371387, -9.518965333544729 ], [ -66.283391989751024, -9.518955044109605 ], [ -66.283173657028257, -9.519137012150972 ], [ -66.283085257758188, -9.519369159860426 ], [ -66.282945204173473, -9.519614644890529 ], [ -66.282752390972476, -9.519757819995414 ], [ -66.282430748743181, -9.519966462427281 ], [ -66.282428784192476, -9.519760867292907 ], [ -66.282282713921106, -9.519376717069241 ], [ -66.282541230756934, -9.519335730376465 ], [ -66.282658834133912, -9.519450280634382 ], [ -66.282801589348182, -9.519487488883925 ], [ -66.282994402405777, -9.519344313807892 ], [ -66.282863240796758, -9.519165637130028 ], [ -66.282446692145385, -9.518925393279531 ], [ -66.282213941295396, -9.518953286368561 ], [ -66.282046279878529, -9.51901911911588 ], [ -66.281984382071542, -9.519315271571935 ], [ -66.28176592538145, -9.519484389350037 ], [ -66.28152550791151, -9.520064941408913 ], [ -66.281348338471943, -9.520490687767076 ], [ -66.281236504176107, -9.520980073451321 ], [ -66.28133079732946, -9.521364711715144 ], [ -66.281515087484848, -9.52168424821447 ], [ -66.281698518559736, -9.521913836569155 ], [ -66.282101144557629, -9.522051404554119 ], [ -66.282527325942127, -9.521944583956484 ], [ -66.282913445583276, -9.521709631835973 ], [ -66.282803872741184, -9.521080972444766 ] ] ] } },
{ "type": "Feature", "properties": { "patch_id": null, "area_ha": null, "lon_centro": null, "lat_centro": null }, "geometry": { "type": "Polygon", "coordinates": [ [ [ -66.24559480628956, -9.520525568371379 ], [ -66.245637439031213, -9.519557040163212 ], [ -66.245531504495901, -9.518392841744117 ], [ -66.245292188445774, -9.517726801558597 ], [ -66.244977309163914, -9.517284220115812 ], [ -66.244981893977808, -9.516855800475115 ], [ -66.245164306151139, -9.516065889419821 ], [ -66.245045350251544, -9.516264049757512 ], [ -66.244655580600522, -9.517030187776053 ], [ -66.244228863882498, -9.517539643312979 ], [ -66.243698103039378, -9.517998661390633 ], [ -66.243408733083882, -9.518429730925089 ], [ -66.243636505278616, -9.518787449030327 ], [ -66.243904029860133, -9.51878495994282 ], [ -66.244324221563133, -9.518498321043841 ], [ -66.244724321318543, -9.517912004899982 ], [ -66.245127494332621, -9.517651226571122 ], [ -66.24527670896137, -9.517915431444422 ], [ -66.245306725071842, -9.518352096424783 ], [ -66.24519254316813, -9.519055697281383 ], [ -66.245020675017258, -9.519134404917866 ], [ -66.244635488381931, -9.519472124167674 ], [ -66.244608008545242, -9.520217756045115 ], [ -66.244801587799813, -9.520610061006414 ], [ -66.245353251309098, -9.520536384948066 ], [ -66.24559480628956, -9.520525568371379 ] ] ] } },
{ "type": "Feature", "properties": { "patch_id": null, "area_ha": null, "lon_centro": null, "lat_centro": null }, "geometry": { "type": "Polygon", "coordinates": [ [ [ -66.286308448970715, -9.516640120712532 ], [ -66.28650125870513, -9.516496944704274 ], [ -66.286692962191125, -9.516238121852794 ], [ -66.286677191554119, -9.51594270204845 ], [ -66.286559711786694, -9.515841002821888 ], [ -66.286183842141071, -9.515793141711944 ], [ -66.285796748387028, -9.515925297294238 ], [ -66.285695652827314, -9.516183266104449 ], [ -66.285801417133229, -9.516413584183079 ], [ -66.285867243462107, -9.516528621219267 ], [ -66.285999264910757, -9.516797244163614 ], [ -66.286308448970715, -9.516640120712532 ] ] ] } },
{ "type": "Feature", "properties": { "patch_id": null, "area_ha": null, "lon_centro": null, "lat_centro": null }, "geometry": { "type": "Polygon", "coordinates": [ [ [ -66.285125743920773, -9.516150082964689 ], [ -66.285151754962413, -9.51616268874683 ], [ -66.285397570030767, -9.51614752211629 ], [ -66.285382906105383, -9.515967748820188 ], [ -66.285341371344146, -9.515685422115164 ], [ -66.285429523115496, -9.515427575303951 ], [ -66.285195915661319, -9.515365521869926 ], [ -66.284873296348835, -9.515471367380222 ], [ -66.284603312766933, -9.515666672703922 ], [ -66.28452835002696, -9.515950096960822 ], [ -66.284544487296898, -9.51628406649848 ], [ -66.28463595583969, -9.516373160734247 ], [ -66.284895329470487, -9.516422120808475 ], [ -66.285125743920773, -9.516150082964689 ] ] ] } },
{ "type": "Feature", "properties": { "patch_id": null, "area_ha": null, "lon_centro": null, "lat_centro": null }, "geometry": { "type": "Polygon", "coordinates": [ [ [ -66.255522841727355, -9.514452903890238 ], [ -66.255534583653571, -9.513870207341643 ], [ -66.255496495455901, -9.513493594781172 ], [ -66.255305346428827, -9.513358299378883 ], [ -66.254945337077544, -9.513618682669463 ], [ -66.254236736476415, -9.51352248458865 ], [ -66.254028652860143, -9.51342161618256 ], [ -66.254054346178265, -9.514312393092569 ], [ -66.254852165200319, -9.514716187047803 ], [ -66.255307072275272, -9.515363068196814 ], [ -66.256244917008246, -9.515971169344496 ], [ -66.257197100762724, -9.51627070505471 ], [ -66.258250566851501, -9.516329403166488 ], [ -66.259113855337802, -9.516355605709286 ], [ -66.26018149101948, -9.51608860349678 ], [ -66.260662961237983, -9.515895618923899 ], [ -66.261162340246514, -9.515771005660966 ], [ -66.261414887248165, -9.515100386175327 ], [ -66.261236280586189, -9.514468068099349 ], [ -66.260854466544032, -9.514248885242143 ], [ -66.259442628911486, -9.514621913390148 ], [ -66.258461779376361, -9.514939505831272 ], [ -66.257600929868332, -9.515170300855996 ], [ -66.257515120880583, -9.515222506975823 ], [ -66.25589129066573, -9.515083456107101 ], [ -66.255522841727355, -9.514452903890238 ] ] ] } },
{ "type": "Feature", "properties": { "patch_id": null, "area_ha": null, "lon_centro": null, "lat_centro": null }, "geometry": { "type": "Polygon", "coordinates": [ [ [ -66.296193873885429, -9.516148445446808 ], [ -66.296456574125486, -9.516544333353773 ], [ -66.296936610409858, -9.516655451101427 ], [ -66.297491967785504, -9.516521693096639 ], [ -66.298096757084522, -9.516143304248432 ], [ -66.29832604803633, -9.515755615818639 ], [ -66.298101685505983, -9.515307964617785 ], [ -66.297892240358664, -9.515065782650236 ], [ -66.297927866292198, -9.514731328489884 ], [ -66.298427128559496, -9.514148327501253 ], [ -66.298644831083976, -9.513902106193759 ], [ -66.298939456366398, -9.51357805342062 ], [ -66.299513418263302, -9.512685930000853 ], [ -66.299753553470765, -9.512079678359004 ], [ -66.299711885709755, -9.511784507668692 ], [ -66.299331829166121, -9.509950459318365 ], [ -66.298982472925204, -9.509966613105075 ], [ -66.298661592425475, -9.510252361167506 ], [ -66.298548673692849, -9.510626097766348 ], [ -66.298798056060605, -9.510983558422511 ], [ -66.298878184101326, -9.511239813903906 ], [ -66.298495789086715, -9.511860261004065 ], [ -66.298239255881413, -9.512106848967401 ], [ -66.298099216418464, -9.512352335527567 ], [ -66.298090710472565, -9.512815039830105 ], [ -66.298122145752615, -9.513393022449661 ], [ -66.298139404693046, -9.513842632445739 ], [ -66.297976436135158, -9.514396751949995 ], [ -66.297811371351443, -9.514732430041285 ], [ -66.297479145201322, -9.515185344732577 ], [ -66.297157519924795, -9.515393996361649 ], [ -66.296061229992517, -9.515815581358517 ], [ -66.296193873885429, -9.516148445446808 ] ] ] } },
{ "type": "Feature", "properties": { "patch_id": null, "area_ha": null, "lon_centro": null, "lat_centro": null }, "geometry": { "type": "Polygon", "coordinates": [ [ [ -66.261543558987938, -9.51228907351557 ], [ -66.261664209562355, -9.512270810709406 ], [ -66.261793489616196, -9.51225246718189 ], [ -66.262094709450565, -9.512163976688223 ], [ -66.262595708165676, -9.512210696104509 ], [ -66.26307187529784, -9.512369023146054 ], [ -66.263295998275538, -9.512341224548694 ], [ -66.263517193717064, -9.512005027123857 ], [ -66.26357402218234, -9.511627530323123 ], [ -66.263521025636052, -9.511499515194963 ], [ -66.262974198132014, -9.511170501367205 ], [ -66.262599716930325, -9.510814172610855 ], [ -66.262238010889249, -9.510894661255877 ], [ -66.261878986407439, -9.511257848866871 ], [ -66.261393037883906, -9.511887812524112 ], [ -66.261543558987938, -9.51228907351557 ] ] ] } },
{ "type": "Feature", "properties": { "patch_id": null, "area_ha": null, "lon_centro": null, "lat_centro": null }, "geometry": { "type": "Polygon", "coordinates": [ [ [ -66.108595913251492, -9.509781061592843 ], [ -66.109090801643589, -9.511056232871324 ], [ -66.108906678654577, -9.511057873373533 ], [ -66.108626982963045, -9.510671921186049 ], [ -66.105368288318857, -9.511752022690141 ], [ -66.10633752140663, -9.514576757261942 ], [ -66.107276619792174, -9.51406570017364 ], [ -66.10703675853749, -9.512993901730258 ], [ -66.10760512573772, -9.512211950689473 ], [ -66.107946227551892, -9.511751919130477 ], [ -66.10828815464599, -9.511383278783015 ], [ -66.108770445375882, -9.511264733939933 ], [ -66.109231992651928, -9.511397719367951 ], [ -66.109349755411927, -9.511693715228366 ], [ -66.109809236943562, -9.51159822180543 ], [ -66.110724891714966, -9.511041669173265 ], [ -66.110628696977699, -9.510585534550103 ], [ -66.111678924836525, -9.509639338091302 ], [ -66.112368140657097, -9.509496094761207 ], [ -66.112508713036505, -9.509769035942046 ], [ -66.112989343942388, -9.509467704705234 ], [ -66.113332710226544, -9.50925899578041 ], [ -66.113654301884651, -9.509187578187756 ], [ -66.113910364429671, -9.509505187217357 ], [ -66.114097381947772, -9.509823412026529 ], [ -66.113990581271949, -9.510738346599886 ], [ -66.113493554924361, -9.511771011329952 ], [ -66.112927066420227, -9.512758596910457 ], [ -66.113295312771243, -9.512755310988796 ], [ -66.11384726819702, -9.512704685994104 ], [ -66.11425906151058, -9.512426816022431 ], [ -66.114442149505038, -9.512310934061574 ], [ -66.114759810811378, -9.511805408809158 ], [ -66.11496549962024, -9.511643625932376 ], [ -66.115540053448868, -9.511547098116878 ], [ -66.115932969156461, -9.511726385517377 ], [ -66.116183238280513, -9.511404257541537 ], [ -66.116409663529311, -9.510990944525881 ], [ -66.116749921793314, -9.510439517935527 ], [ -66.116581983052171, -9.509686984807026 ], [ -66.116278646214283, -9.509232703725731 ], [ -66.115697059851229, -9.508552411109969 ], [ -66.115186176262483, -9.508054281925668 ], [ -66.114608110874656, -9.507762396733929 ], [ -66.113665941842356, -9.50793074922667 ], [ -66.113596689851349, -9.507908517425422 ], [ -66.113063414802454, -9.507479132271579 ], [ -66.112250446895942, -9.506663796771187 ], [ -66.112705992636634, -9.506134195102881 ], [ -66.113390652513544, -9.505488302430958 ], [ -66.113293424830857, -9.504917930477655 ], [ -66.113106205366122, -9.504576856350699 ], [ -66.112624960061822, -9.504809642413075 ], [ -66.111870014600044, -9.505319062558687 ], [ -66.11136719830148, -9.505711986902062 ], [ -66.111182458792257, -9.505645084409482 ], [ -66.110557130205663, -9.505216513603827 ], [ -66.110934045524544, -9.506172838928661 ], [ -66.1103839573519, -9.506429086104136 ], [ -66.110155665878352, -9.506636766616301 ], [ -66.110480355407887, -9.506908069136154 ], [ -66.111101761939281, -9.506902531647116 ], [ -66.111354514193351, -9.506854579806896 ], [ -66.111472275725944, -9.507150574928522 ], [ -66.108595913251492, -9.509781061592843 ] ] ] } },
{ "type": "Feature", "properties": { "patch_id": 40.0, "area_ha": 0.7563, "lon_centro": -66.113596, "lat_centro": -9.509389 }, "geometry": { "type": "Polygon", "coordinates": [ [ [ -66.112200408711871, -9.507171225346196 ], [ -66.111939324528421, -9.506997095941152 ], [ -66.114287966956297, -9.509821140602261 ], [ -66.114111537046611, -9.51053534918276 ], [ -66.113506585813283, -9.511785825277926 ], [ -66.114072416558599, -9.511002178830193 ], [ -66.114377160494868, -9.51017503969582 ], [ -66.114377160494954, -9.509739792450574 ], [ -66.112200408711871, -9.507171225346196 ] ] ] } },
{ "type": "Feature", "properties": { "patch_id": null, "area_ha": null, "lon_centro": null, "lat_centro": null }, "geometry": { "type": "Polygon", "coordinates": [ [ [ -66.299818262339627, -9.50803111359591 ], [ -66.299746949235512, -9.508018937206764 ], [ -66.299676005949181, -9.508045309243515 ], [ -66.299689504287755, -9.508103009529322 ], [ -66.2998400817131, -9.508281494854488 ], [ -66.299724821966578, -9.508411091102834 ], [ -66.299499356394719, -9.508522453332072 ], [ -66.299247818472665, -9.508614785972338 ], [ -66.299087132363383, -9.508731960923157 ], [ -66.299094343747569, -9.508808996668078 ], [ -66.299179894977655, -9.5089559703842 ], [ -66.299296695978995, -9.508986992751156 ], [ -66.299476550982334, -9.508843935154758 ], [ -66.299636435617785, -9.508643238427094 ], [ -66.299765317134515, -9.508584191922031 ], [ -66.299766426690724, -9.508699837234111 ], [ -66.299614061857852, -9.509009693399175 ], [ -66.299385144388054, -9.509435929237156 ], [ -66.299163006515258, -9.509894227633227 ], [ -66.299331397669349, -9.50990548612495 ], [ -66.299794841346497, -9.508963006768832 ], [ -66.299813393780283, -9.508872876831548 ], [ -66.299901718355301, -9.508634304746707 ], [ -66.300030908022975, -9.508607381849288 ], [ -66.300096612511581, -9.508709565658512 ], [ -66.300266914174927, -9.508919990709028 ], [ -66.300310059022294, -9.508694696514921 ], [ -66.300385932812375, -9.508507644727137 ], [ -66.300344820872652, -9.508270296723094 ], [ -66.300356778075383, -9.508167378545007 ], [ -66.300510128429934, -9.507960318155584 ], [ -66.300671060172021, -9.507868841766122 ], [ -66.30087883578652, -9.507937555188084 ], [ -66.301114040207608, -9.508166641875434 ], [ -66.301223814076906, -9.508139902272243 ], [ -66.301428136406969, -9.507848830449074 ], [ -66.301776749481846, -9.507755578253679 ], [ -66.301880853108429, -9.507812421169573 ], [ -66.302211962676992, -9.507918518716949 ], [ -66.3023473149767, -9.507859410262187 ], [ -66.302313352283335, -9.507692673637479 ], [ -66.302234087211261, -9.507526365625651 ], [ -66.302097933170927, -9.507501952577323 ], [ -66.301949884058587, -9.507586882260588 ], [ -66.301781926125997, -9.507620597765923 ], [ -66.301670980771405, -9.507525267651458 ], [ -66.301333893140537, -9.50747062845614 ], [ -66.301062386554378, -9.507505323047663 ], [ -66.300707363135103, -9.507605060447066 ], [ -66.300341183577217, -9.507891237298495 ], [ -66.300065670256302, -9.508182981969828 ], [ -66.299818262339627, -9.50803111359591 ] ] ] } },
{ "type": "Feature", "properties": { "patch_id": null, "area_ha": null, "lon_centro": null, "lat_centro": null }, "geometry": { "type": "Polygon", "coordinates": [ [ [ -66.298949684736371, -9.507897967686786 ], [ -66.298817660637013, -9.507629351804736 ], [ -66.29846645820335, -9.507452761834681 ], [ -66.29797571006965, -9.507573055330262 ], [ -66.297551773714943, -9.50791117843581 ], [ -66.297670976733585, -9.508192766903102 ], [ -66.29806101084317, -9.508368990591787 ], [ -66.298694139862818, -9.50824735086697 ], [ -66.298949684736371, -9.507897967686786 ] ] ] } },
{ "type": "Feature", "properties": { "patch_id": null, "area_ha": null, "lon_centro": null, "lat_centro": null }, "geometry": { "type": "Polygon", "coordinates": [ [ [ -66.10559900651495, -9.504163864028621 ], [ -66.103515149745149, -9.505347729088653 ], [ -66.103656950038882, -9.505757764225876 ], [ -66.103635995864522, -9.505986448069258 ], [ -66.104553715357596, -9.505658392141608 ], [ -66.104898529603986, -9.505609626355097 ], [ -66.104951363935669, -9.506363197564038 ], [ -66.104725336110775, -9.50682220244847 ], [ -66.103902148819031, -9.507423616189302 ], [ -66.103902973416112, -9.507515007856222 ], [ -66.104070883737819, -9.508267556374189 ], [ -66.104210625014204, -9.508449111546474 ], [ -66.105246931966036, -9.508508442549072 ], [ -66.105639635769691, -9.50866489653248 ], [ -66.105737267124141, -9.509280969980804 ], [ -66.105993530658921, -9.509621435009448 ], [ -66.106981538762298, -9.509429842968128 ], [ -66.10745020499624, -9.507803343351146 ], [ -66.106932109093819, -9.506505523084446 ], [ -66.109029885236183, -9.504316130659783 ], [ -66.108095463047249, -9.502793521652935 ], [ -66.10559900651495, -9.504163864028621 ] ] ] } },
{ "type": "Feature", "properties": { "patch_id": 39.0, "area_ha": 0.5879, "lon_centro": -66.112813, "lat_centro": -9.505309 }, "geometry": { "type": "Polygon", "coordinates": [ [ [ -66.112984154567869, -9.504863879720865 ], [ -66.112548814243425, -9.505081570214058 ], [ -66.112622255560268, -9.505290428868634 ], [ -66.112331139849104, -9.50525569451437 ], [ -66.112548815027509, -9.505821525391232 ], [ -66.112984040669474, -9.505560299337517 ], [ -66.113245250883708, -9.5052120190494 ], [ -66.113243203190137, -9.504993964694695 ], [ -66.112984154567869, -9.504863879720865 ] ] ] } },
{ "type": "Feature", "properties": { "patch_id": null, "area_ha": null, "lon_centro": null, "lat_centro": null }, "geometry": { "type": "Polygon", "coordinates": [ [ [ -66.108500578498521, -9.496677631342269 ], [ -66.108464819590949, -9.496540851436105 ], [ -66.107936415691356, -9.496648374837889 ], [ -66.107619676886813, -9.497256708295952 ], [ -66.107437210295728, -9.497441128490356 ], [ -66.107476370872547, -9.49795489814746 ], [ -66.107485030724803, -9.498914507871611 ], [ -66.10755861108764, -9.499416546408595 ], [ -66.107677808750609, -9.499872479687451 ], [ -66.108027153717103, -9.500326365192958 ], [ -66.108158066292859, -9.500805043431559 ], [ -66.10819661103919, -9.501250268964126 ], [ -66.108461693096686, -9.501293609308446 ], [ -66.108978802236606, -9.501209033149379 ], [ -66.110770438648473, -9.500804637977085 ], [ -66.11075366684625, -9.500222122157259 ], [ -66.110771158754815, -9.498336873086224 ], [ -66.110941806463359, -9.49811828236898 ], [ -66.111146253184017, -9.49781941705216 ], [ -66.111187121745132, -9.497247812933956 ], [ -66.111067199496233, -9.496711914780342 ], [ -66.110479920203701, -9.496671443475631 ], [ -66.109987483560303, -9.496938597145952 ], [ -66.108251028366382, -9.497079720331193 ], [ -66.108500578498521, -9.496677631342269 ] ] ] } },
{ "type": "Feature", "properties": { "patch_id": null, "area_ha": null, "lon_centro": null, "lat_centro": null }, "geometry": { "type": "Polygon", "coordinates": [ [ [ -66.106691026871644, -9.498921569257549 ], [ -66.106885104894019, -9.498748470690073 ], [ -66.107078048822999, -9.498449708849666 ], [ -66.107064479963782, -9.498221332585583 ], [ -66.106878508218358, -9.498017339052014 ], [ -66.106922475932464, -9.497788451125238 ], [ -66.107026041324133, -9.497787530217096 ], [ -66.107186009189078, -9.497660434414026 ], [ -66.107126205311459, -9.497409619599095 ], [ -66.106813551356097, -9.497195327479588 ], [ -66.106284011743739, -9.497177185531719 ], [ -66.106161244364841, -9.49760099653507 ], [ -66.106051838890608, -9.498230336227003 ], [ -66.106135069175281, -9.498526642575145 ], [ -66.106506909947953, -9.498923206423632 ], [ -66.106691026871644, -9.498921569257549 ] ] ] } },
{ "type": "Feature", "properties": { "patch_id": null, "area_ha": null, "lon_centro": null, "lat_centro": null }, "geometry": { "type": "Polygon", "coordinates": [ [ [ -66.10094710120174, -9.497498785195679 ], [ -66.101119505275037, -9.497474405336805 ], [ -66.101268174529196, -9.49737026170992 ], [ -66.101587807158595, -9.497081802140787 ], [ -66.101287382812416, -9.496947369687861 ], [ -66.10087188563999, -9.496813958039148 ], [ -66.100708109337333, -9.496518363566681 ], [ -66.100327340282846, -9.496407492730707 ], [ -66.100029590184704, -9.496570083043089 ], [ -66.099893456190941, -9.496788364166784 ], [ -66.099953460594563, -9.49706202996089 ], [ -66.100151553074483, -9.49733447061198 ], [ -66.100404405661592, -9.497297952447544 ], [ -66.10094710120174, -9.497498785195679 ] ] ] } },
{ "type": "Feature", "properties": { "patch_id": null, "area_ha": null, "lon_centro": null, "lat_centro": null }, "geometry": { "type": "Polygon", "coordinates": [ [ [ -66.139885418133247, -9.493175330422879 ], [ -66.140259256748081, -9.493788895588319 ], [ -66.140677770126445, -9.494253539988728 ], [ -66.141482306567809, -9.494143489491043 ], [ -66.141768100357851, -9.493935279947763 ], [ -66.143420589516651, -9.493429170658526 ], [ -66.144632585349868, -9.492572859565382 ], [ -66.145153967655915, -9.491699910647997 ], [ -66.144862235653505, -9.491256981083746 ], [ -66.144112845281796, -9.491103778331912 ], [ -66.143595359299283, -9.491142704831937 ], [ -66.142205138203622, -9.491383691270913 ], [ -66.140220417393365, -9.492052719659107 ], [ -66.139885418133247, -9.493175330422879 ] ] ] } },
{ "type": "Feature", "properties": { "patch_id": null, "area_ha": null, "lon_centro": null, "lat_centro": null }, "geometry": { "type": "Polygon", "coordinates": [ [ [ -66.118870360824886, -9.492975020511212 ], [ -66.119202925398326, -9.492846381315756 ], [ -66.119601738770939, -9.492408683269453 ], [ -66.120139565269326, -9.492072566904845 ], [ -66.121128332993038, -9.491972343491703 ], [ -66.121934437801443, -9.492033694343121 ], [ -66.12271535442963, -9.491855349775498 ], [ -66.122341233695735, -9.491207483713813 ], [ -66.121244665352748, -9.490840259303891 ], [ -66.120393362975221, -9.490870706994947 ], [ -66.119556565615937, -9.491232340144938 ], [ -66.118722350761601, -9.491879567020032 ], [ -66.118870360824886, -9.492975020511212 ] ] ] } },
{ "type": "Feature", "properties": { "patch_id": null, "area_ha": null, "lon_centro": null, "lat_centro": null }, "geometry": { "type": "Polygon", "coordinates": [ [ [ -66.10546021894217, -9.486216636210957 ], [ -66.105733194557573, -9.485860041981068 ], [ -66.106106644354739, -9.485159809791879 ], [ -66.106414344985055, -9.484825756914281 ], [ -66.107103519962465, -9.484682538990015 ], [ -66.10751889803241, -9.484804523265392 ], [ -66.107956157351168, -9.484800639298079 ], [ -66.107870667863978, -9.484253006164042 ], [ -66.106990901563989, -9.483678151956781 ], [ -66.106611588869683, -9.483727219242404 ], [ -66.106441662196744, -9.484025774216144 ], [ -66.106188306507647, -9.484005173721064 ], [ -66.105382417711041, -9.483966627485453 ], [ -66.104506973341486, -9.483871572069006 ], [ -66.104240465414179, -9.483668288660331 ], [ -66.10390563651822, -9.483545585187018 ], [ -66.103607692660816, -9.483685326614159 ], [ -66.103393174731991, -9.484144224895253 ], [ -66.103163860054138, -9.484237657870365 ], [ -66.102819168244082, -9.484297839227992 ], [ -66.102751566016281, -9.484458387280089 ], [ -66.102939376350108, -9.484868017970149 ], [ -66.103126262025555, -9.485174832577053 ], [ -66.103174756914115, -9.485448599862561 ], [ -66.103246265756539, -9.48572216297006 ], [ -66.103387433175669, -9.486063657420795 ], [ -66.103402230448197, -9.486429122624607 ], [ -66.103739530613282, -9.486826001094036 ], [ -66.10546021894217, -9.486216636210957 ] ] ] } },
{ "type": "Feature", "properties": { "patch_id": null, "area_ha": null, "lon_centro": null, "lat_centro": null }, "geometry": { "type": "Polygon", "coordinates": [ [ [ -66.527277486190627, -9.482994539160966 ], [ -66.524873425829497, -9.481876744384998 ], [ -66.524647699155565, -9.484551359759196 ], [ -66.527585077248077, -9.486074899015327 ], [ -66.527277486190627, -9.482994539160966 ] ] ] } },
{ "type": "Feature", "properties": { "patch_id": null, "area_ha": null, "lon_centro": null, "lat_centro": null }, "geometry": { "type": "Polygon", "coordinates": [ [ [ -66.529361119842108, -9.41434941736089 ], [ -66.52997176823348, -9.413326898891135 ], [ -66.530205845743822, -9.411463056834549 ], [ -66.529612067024516, -9.410749530006704 ], [ -66.529135836067482, -9.410286069522348 ], [ -66.529023740869363, -9.410572697975644 ], [ -66.528850070521017, -9.41159083850793 ], [ -66.528640394105182, -9.412460876696601 ], [ -66.528463244397585, -9.413136445188284 ], [ -66.528642116206015, -9.413762767208327 ], [ -66.528947948147689, -9.414433498088602 ], [ -66.529361119842108, -9.41434941736089 ] ] ] } },
{ "type": "Feature", "properties": { "patch_id": 12.0, "area_ha": 0.9531, "lon_centro": -66.488104, "lat_centro": -9.382188 }, "geometry": { "type": "Polygon", "coordinates": [ [ [ -66.488534479460284, -9.38225556272754 ], [ -66.488418985209549, -9.382103786178467 ], [ -66.488560792647903, -9.382051419006903 ], [ -66.488560792647917, -9.381877403405655 ], [ -66.48829959324226, -9.381746798825962 ], [ -66.488143881480894, -9.381895813278497 ], [ -66.487788237144684, -9.381920876183214 ], [ -66.487559601426454, -9.381746798825997 ], [ -66.487254866985154, -9.381964473477067 ], [ -66.487428996319537, -9.382399698764875 ], [ -66.487559486296419, -9.382356174990244 ], [ -66.487680207343658, -9.381964411212106 ], [ -66.487820822448896, -9.382486769363553 ], [ -66.488348517219819, -9.382445466650831 ], [ -66.488909072933168, -9.382747979577623 ], [ -66.488952607437923, -9.382399813099942 ], [ -66.488534479460284, -9.38225556272754 ] ] ] } },
{ "type": "Feature", "properties": { "patch_id": null, "area_ha": null, "lon_centro": null, "lat_centro": null }, "geometry": { "type": "Polygon", "coordinates": [ [ [ -66.492526850223328, -9.379141122446098 ], [ -66.490404660455468, -9.378522519281445 ], [ -66.488790251037202, -9.378081622807926 ], [ -66.486676286652724, -9.378285205064479 ], [ -66.485619758350282, -9.378432670310305 ], [ -66.484381527276312, -9.378810338713869 ], [ -66.484247647691049, -9.379222805846211 ], [ -66.484484929862447, -9.379951396831743 ], [ -66.485321987149987, -9.380856806836354 ], [ -66.486628146353397, -9.382671246108576 ], [ -66.488532729703408, -9.384525451428622 ], [ -66.489784691279425, -9.385518112191161 ], [ -66.490433215158063, -9.385968534444041 ], [ -66.491802577786501, -9.384904301250934 ], [ -66.493350879067123, -9.383335787561935 ], [ -66.494164152422883, -9.381865903750409 ], [ -66.493914032955658, -9.379858339776689 ], [ -66.492526850223328, -9.379141122446098 ] ] ] } },
{ "type": "Feature", "properties": { "patch_id": 10.0, "area_ha": 0.5867, "lon_centro": -66.485747, "lat_centro": -9.379205 }, "geometry": { "type": "Polygon", "coordinates": [ [ [ -66.485382849642733, -9.378960556543397 ], [ -66.485078115201304, -9.379091161123053 ], [ -66.485121650237048, -9.379526386937913 ], [ -66.48546980511567, -9.379526386937881 ], [ -66.485505123888501, -9.37922390986482 ], [ -66.486118102609154, -9.379134876465116 ], [ -66.486252523657669, -9.379264546514563 ], [ -66.486210026659705, -9.379526397671663 ], [ -66.486384051673042, -9.379613456481961 ], [ -66.486514645971866, -9.379004091051623 ], [ -66.485382849642733, -9.378960556543397 ] ] ] } },
{ "type": "Feature", "properties": { "patch_id": 11.0, "area_ha": 2.2789, "lon_centro": -66.488079, "lat_centro": -9.378934 }, "geometry": { "type": "Polygon", "coordinates": [ [ [ -66.489410178552802, -9.379908441766288 ], [ -66.488922899584651, -9.379465873513819 ], [ -66.488567790187375, -9.378890354184744 ], [ -66.488734995494198, -9.378308798030263 ], [ -66.48858058651355, -9.37799894894505 ], [ -66.48843982, -9.37797818 ], [ -66.488136081380645, -9.377988653471409 ], [ -66.487708530946151, -9.378369475965251 ], [ -66.487167797444172, -9.378394589818498 ], [ -66.48729840202023, -9.378786291331638 ], [ -66.487487180761732, -9.37874921500849 ], [ -66.487558501423294, -9.378916891041442 ], [ -66.487428574019859, -9.379046522951031 ], [ -66.486950110926713, -9.379047626614607 ], [ -66.486906586699362, -9.379482851902342 ], [ -66.487434281766625, -9.379528619263338 ], [ -66.487472542163061, -9.379656992045046 ], [ -66.487777162006282, -9.379569921973722 ], [ -66.487742907557674, -9.379374823802713 ], [ -66.487951364852108, -9.37930744420933 ], [ -66.487781376853775, -9.378906864285083 ], [ -66.488168669669605, -9.378700324410278 ], [ -66.488299708371642, -9.379352257529114 ], [ -66.488657787665304, -9.379312897545791 ], [ -66.488937760794158, -9.379585806865519 ], [ -66.489317911007618, -9.380069243658996 ], [ -66.489257478625504, -9.380353552615869 ], [ -66.489388083732507, -9.380440622687219 ], [ -66.48951856290202, -9.380397098385215 ], [ -66.489562098468767, -9.379874791764792 ], [ -66.489410178552802, -9.379908441766288 ] ], [ [ -66.488384366435625, -9.37831255734263 ], [ -66.488293167440148, -9.378348489218672 ], [ -66.488214923833965, -9.378171773986452 ], [ -66.488384366435625, -9.37831255734263 ] ] ] } },
{ "type": "Feature", "properties": { "patch_id": 9.0, "area_ha": 0.4405, "lon_centro": -66.489657, "lat_centro": -9.378412 }, "geometry": { "type": "Polygon", "coordinates": [ [ [ -66.489760163349786, -9.378172985836883 ], [ -66.489561165920207, -9.378143625397561 ], [ -66.489540765854741, -9.37834098347693 ], [ -66.489299852335748, -9.37834988105239 ], [ -66.489059790471799, -9.378069651560502 ], [ -66.489045596903182, -9.378067557415813 ], [ -66.489170408553832, -9.378525081117756 ], [ -66.489431607959645, -9.378699220733166 ], [ -66.489605633504652, -9.378699221260449 ], [ -66.489750686998221, -9.378296808372234 ], [ -66.490128053932693, -9.378742756296143 ], [ -66.490215124004123, -9.378263995445042 ], [ -66.489760163349786, -9.378172985836883 ] ] ] } },
{ "type": "Feature", "properties": { "patch_id": null, "area_ha": null, "lon_centro": null, "lat_centro": null }, "geometry": { "type": "Polygon", "coordinates": [ [ [ -66.503483490540489, -9.373139720647156 ], [ -66.502482855046551, -9.374268843599271 ], [ -66.501071930867937, -9.37576748588932 ], [ -66.501979141117474, -9.376786355869219 ], [ -66.502973070352979, -9.377279016921607 ], [ -66.503552361708216, -9.377707259190142 ], [ -66.503811297904477, -9.378298562123589 ], [ -66.503610975984685, -9.37896293891013 ], [ -66.503618319139562, -9.379693781287084 ], [ -66.504153916416541, -9.38035086468693 ], [ -66.504599821686298, -9.381237246488125 ], [ -66.504864504837187, -9.38239951670311 ], [ -66.505348832091045, -9.38253176006986 ], [ -66.504972681474982, -9.380637832700932 ], [ -66.50495982, -9.38059079 ], [ -66.50494547465523, -9.3805008457113 ], [ -66.503794895039746, -9.374707649765883 ], [ -66.50377761, -9.37463765 ], [ -66.503777748141871, -9.374621314723999 ], [ -66.503483490540489, -9.373139720647156 ] ] ] } },
{ "type": "Feature", "properties": { "patch_id": null, "area_ha": null, "lon_centro": null, "lat_centro": null }, "geometry": { "type": "Polygon", "coordinates": [ [ [ -66.128171251941282, -9.301697137056287 ], [ -66.127731488142743, -9.301392528076525 ], [ -66.127315944799562, -9.30122480256721 ], [ -66.126441597958561, -9.301198196919 ], [ -66.125772636640875, -9.300986992545452 ], [ -66.125693959793168, -9.301193327698558 ], [ -66.125825947737397, -9.301809106557032 ], [ -66.12642732881659, -9.302180849295627 ], [ -66.126899563871532, -9.302256680494214 ], [ -66.128171251941282, -9.301697137056287 ] ] ] } },
{ "type": "Feature", "properties": { "patch_id": null, "area_ha": null, "lon_centro": null, "lat_centro": null }, "geometry": { "type": "Polygon", "coordinates": [ [ [ -66.13024331050373, -9.299314037275668 ], [ -66.130320764710262, -9.298970616466637 ], [ -66.129994789123913, -9.298527914521156 ], [ -66.129315247402474, -9.298419631084686 ], [ -66.128443448226832, -9.298678623724204 ], [ -66.128632331134298, -9.299225352921397 ], [ -66.129142618855838, -9.299700713179103 ], [ -66.129728025410714, -9.299569903691138 ], [ -66.13024331050373, -9.299314037275668 ] ] ] } },
{ "type": "Feature", "properties": { "patch_id": null, "area_ha": null, "lon_centro": null, "lat_centro": null }, "geometry": { "type": "Polygon", "coordinates": [ [ [ -66.131642094856403, -9.298821918888549 ], [ -66.131928893667833, -9.298739427404225 ], [ -66.132338434260831, -9.298233144646098 ], [ -66.132403267452091, -9.297764163523913 ], [ -66.132148225511528, -9.297537909907867 ], [ -66.131494228607551, -9.297715023018446 ], [ -66.130909842920431, -9.297960072173179 ], [ -66.131642094856403, -9.298821918888549 ] ] ] } },
{ "type": "Feature", "properties": { "patch_id": null, "area_ha": null, "lon_centro": null, "lat_centro": null }, "geometry": { "type": "Polygon", "coordinates": [ [ [ -66.11590085112546, -9.287597796639279 ], [ -66.116606144501915, -9.287368856108406 ], [ -66.116741418467143, -9.287059204507351 ], [ -66.116447556900368, -9.286993220512981 ], [ -66.115708217945681, -9.287273869465311 ], [ -66.11590085112546, -9.287597796639279 ] ] ] } },
{ "type": "Feature", "properties": { "patch_id": null, "area_ha": null, "lon_centro": null, "lat_centro": null }, "geometry": { "type": "Polygon", "coordinates": [ [ [ -66.118097367748419, -9.286276189545219 ], [ -66.118025940598329, -9.2860026173571 ], [ -66.117449860755471, -9.285236470764847 ], [ -66.11698410506088, -9.285240536329045 ], [ -66.116953090764213, -9.285634964044563 ], [ -66.117094275898936, -9.285993614110716 ], [ -66.117632520683088, -9.286383071963449 ], [ -66.118097367748419, -9.286276189545219 ] ] ] } },
{ "type": "Feature", "properties": { "patch_id": null, "area_ha": null, "lon_centro": null, "lat_centro": null }, "geometry": { "type": "Polygon", "coordinates": [ [ [ -66.115997336721094, -9.282901340802892 ], [ -66.116272429581457, -9.282796117302857 ], [ -66.116736667213246, -9.282620694279403 ], [ -66.11690522862952, -9.282173654629053 ], [ -66.116593363906659, -9.282022140185369 ], [ -66.11605967208861, -9.282146756816768 ], [ -66.115510244046348, -9.282442882870425 ], [ -66.115997336721094, -9.282901340802892 ] ] ] } },
{ "type": "Feature", "properties": { "patch_id": null, "area_ha": null, "lon_centro": null, "lat_centro": null }, "geometry": { "type": "Polygon", "coordinates": [ [ [ -66.114548084321413, -9.278980969525026 ], [ -66.114503521683417, -9.278818553534046 ], [ -66.114284038521461, -9.278383465036887 ], [ -66.114188709976048, -9.278332883839484 ], [ -66.113794458148391, -9.278619084917368 ], [ -66.113719178595346, -9.278885369249203 ], [ -66.114015756938514, -9.279259805772959 ], [ -66.114548084321413, -9.278980969525026 ] ] ] } },
{ "type": "Feature", "properties": { "patch_id": null, "area_ha": null, "lon_centro": null, "lat_centro": null }, "geometry": { "type": "Polygon", "coordinates": [ [ [ -66.108311113409144, -9.269609703659572 ], [ -66.108719131117041, -9.272845126202235 ], [ -66.108997355462193, -9.275053430896669 ], [ -66.109753855740337, -9.280633636397308 ], [ -66.110270149547432, -9.280492043328589 ], [ -66.110624691540082, -9.279614951269727 ], [ -66.110030052567296, -9.276741048524315 ], [ -66.109915524602201, -9.275491016503807 ], [ -66.109095720118944, -9.274469904154216 ], [ -66.109051405706126, -9.273356359055162 ], [ -66.109553158889625, -9.273523369650126 ], [ -66.110853689170952, -9.274283238130659 ], [ -66.111561232170374, -9.274311355666283 ], [ -66.11176369548086, -9.273795473037184 ], [ -66.11160406548268, -9.273299879085943 ], [ -66.111168592010372, -9.272823822419273 ], [ -66.110709828252894, -9.271662472740582 ], [ -66.110446854758322, -9.271184913683916 ], [ -66.110049811059909, -9.271154091896436 ], [ -66.109564707372485, -9.270918386681409 ], [ -66.109231831884856, -9.270338609421009 ], [ -66.1090368035035, -9.269740495949927 ], [ -66.109173139954947, -9.269550799566369 ], [ -66.110451117783441, -9.269711062569712 ], [ -66.110933199351734, -9.269604045903629 ], [ -66.111224629326202, -9.269395862830741 ], [ -66.111049415669314, -9.269088914210332 ], [ -66.109977076433935, -9.26877262854854 ], [ -66.109442340996139, -9.268777277007493 ], [ -66.109012007997194, -9.268883841690897 ], [ -66.108530831239264, -9.269093672187003 ], [ -66.108311113409144, -9.269609703659572 ] ] ] } }
]
}
