{
"type": "FeatureCollection",
"name": "kwazá_do_rio_são_pedro",
"crs": { "type": "name", "properties": { "name": "urn:ogc:def:crs:OGC:1.3:CRS84" } },
"features": [
{ "type": "Feature", "properties": { "patch_id": 1498.0, "area_ha": 0.3192, "lon_centro": -61.349051, "lat_centro": -12.357897 }, "geometry": { "type": "Polygon", "coordinates": [ [ [ -61.349555994196201, -12.357714704291102 ], [ -61.349114361277763, -12.357888562854246 ], [ -61.347290818018635, -12.357931048019955 ], [ -61.348856724979697, -12.35801944954112 ], [ -61.35020760199037, -12.357845247050758 ], [ -61.349555994196201, -12.357714704291102 ] ] ] } },
{ "type": "Feature", "properties": { "patch_id": 1499.0, "area_ha": 0.875, "lon_centro": -61.355658, "lat_centro": -12.357838 }, "geometry": { "type": "Polygon", "coordinates": [ [ [ -61.355921022423182, -12.357824035439579 ], [ -61.355914954582055, -12.357617580882915 ], [ -61.35617196529514, -12.357280685389515 ], [ -61.355930702300547, -12.357382224339243 ], [ -61.355910691662949, -12.357148811174381 ], [ -61.35569314372561, -12.357235873146523 ], [ -61.355714346668364, -12.357492713283714 ], [ -61.35508365282157, -12.357453556424042 ], [ -61.355354491268677, -12.357929889303767 ], [ -61.355214194510388, -12.358064316030829 ], [ -61.355344852104245, -12.358411201986305 ], [ -61.355601537708239, -12.358314601425585 ], [ -61.355823632522863, -12.358454737021981 ], [ -61.356041296769661, -12.358193652030499 ], [ -61.355677011786376, -12.358191147677177 ], [ -61.35566968129428, -12.358074464139737 ], [ -61.3565201816251, -12.357932327868749 ], [ -61.355921022423182, -12.357824035439579 ] ], [ [ -61.355714346623628, -12.357797458541766 ], [ -61.355610209333584, -12.357768292682481 ], [ -61.355640066661095, -12.357675297843466 ], [ -61.355714346623628, -12.357797458541766 ] ] ] } }
]
}
