{
"type": "FeatureCollection",
"name": "massaco",
"crs": { "type": "name", "properties": { "name": "urn:ogc:def:crs:OGC:1.3:CRS84" } },
"features": [
{ "type": "Feature", "properties": { "area_ha": 118.51 }, "geometry": { "type": "MultiPolygon", "coordinates": [ [ [ [ -62.301116104327946, -12.772457098685168 ], [ -62.300973842285977, -12.772180319737828 ], [ -62.300796314325616, -12.771560298530332 ], [ -62.300743514248254, -12.771246430282476 ], [ -62.301099850412967, -12.770601034191293 ], [ -62.301012780341736, -12.7701656838346 ], [ -62.300708046582677, -12.769904484898758 ], [ -62.299924521115614, -12.769991554970128 ], [ -62.299478474428994, -12.770339772382998 ], [ -62.298836156176364, -12.769991554441964 ], [ -62.298765350981469, -12.770202269748719 ], [ -62.298046462086454, -12.77038078955202 ], [ -62.297835774622875, -12.769729511700898 ], [ -62.298383141559604, -12.769258064683413 ], [ -62.29861835338022, -12.769251344854547 ], [ -62.298357259831313, -12.769077319221026 ], [ -62.29787837443898, -12.769207924328033 ], [ -62.297443024082369, -12.769556204613385 ], [ -62.297348874025083, -12.770008524939097 ], [ -62.29698741219967, -12.770414527497051 ], [ -62.296485264788387, -12.770513964119916 ], [ -62.296521708316462, -12.771140435918657 ], [ -62.296371983679173, -12.771197001453135 ], [ -62.296354648190899, -12.770992860790432 ], [ -62.295701633608608, -12.771776490904347 ], [ -62.295701634146702, -12.771994052101755 ], [ -62.296043772787662, -12.772152952341466 ], [ -62.29604991443216, -12.772385867422738 ], [ -62.296180391920075, -12.772429391708414 ], [ -62.296192154711768, -12.772187841150627 ], [ -62.296528671667446, -12.772037587137408 ], [ -62.296668020601928, -12.771626078139525 ], [ -62.296964022024298, -12.77138456160235 ], [ -62.297094691209644, -12.771035001087817 ], [ -62.296998208368215, -12.770605112376247 ], [ -62.297205124482254, -12.770656000530682 ], [ -62.297395520521384, -12.770938646689201 ], [ -62.2973081588068, -12.771438191810962 ], [ -62.296365873299585, -12.772642680180107 ], [ -62.295745168644487, -12.772560121546423 ], [ -62.295728915272171, -12.772718308909322 ], [ -62.295566659829738, -12.772731863208467 ], [ -62.295353353323371, -12.772298911332364 ], [ -62.295265074622314, -12.773301700072437 ], [ -62.295048608612056, -12.773561416616712 ], [ -62.295221696854824, -12.77377826981658 ], [ -62.295048608074126, -12.774083847794795 ], [ -62.295178004546472, -12.774259470900899 ], [ -62.294918002967229, -12.774649678527568 ], [ -62.295113304415167, -12.774650457233863 ], [ -62.295353342371335, -12.774997958284775 ], [ -62.295819628074639, -12.775061391605767 ], [ -62.295983526486857, -12.775289583951171 ], [ -62.296049914433091, -12.776086345454633 ], [ -62.296224054037722, -12.776304009882965 ], [ -62.296485137168759, -12.776347544918616 ], [ -62.296667451577029, -12.776153152525021 ], [ -62.296823196946193, -12.7764133971788 ], [ -62.296659393441736, -12.776434740249076 ], [ -62.296586586521592, -12.776645946379151 ], [ -62.296441718263395, -12.776565345356047 ], [ -62.296194169811436, -12.776749320201391 ], [ -62.296180391919009, -12.776478274756631 ], [ -62.295556649185677, -12.776428271193563 ], [ -62.295570901419836, -12.775825249221567 ], [ -62.295369479817275, -12.775852831475902 ], [ -62.295396761277217, -12.775651109078868 ], [ -62.294885681674437, -12.775951342899852 ], [ -62.294569722682233, -12.775955854328561 ], [ -62.294830932896389, -12.776652290168354 ], [ -62.295131698577414, -12.776859411265935 ], [ -62.295222397654271, -12.777388529366958 ], [ -62.294803661924298, -12.777907971063508 ], [ -62.294308512468682, -12.777827860862306 ], [ -62.294256746491286, -12.777968221949953 ], [ -62.294008236672596, -12.7777963396184 ], [ -62.294090710206675, -12.777566650648293 ], [ -62.293742440874169, -12.777305440962399 ], [ -62.293458822747503, -12.777303677844838 ], [ -62.293437684671758, -12.777087765255905 ], [ -62.293176485410562, -12.776913625641354 ], [ -62.292610529946906, -12.776695950463026 ], [ -62.292218819803502, -12.776783020534324 ], [ -62.292044690613722, -12.777348850739065 ], [ -62.292208812756613, -12.777369796907733 ], [ -62.292305901365935, -12.777784211845772 ], [ -62.292570534796496, -12.777984746310787 ], [ -62.292523576006275, -12.778219551452464 ], [ -62.292721015207405, -12.778231096729176 ], [ -62.293045932893364, -12.778644245957128 ], [ -62.292745491847306, -12.778913838279449 ], [ -62.292262354839622, -12.778916237282132 ], [ -62.292136001308627, -12.77913151344768 ], [ -62.291546773324072, -12.778907031075644 ], [ -62.291435073030627, -12.778655026539967 ], [ -62.291067887910032, -12.77873289093675 ], [ -62.290782058448528, -12.778263211747051 ], [ -62.290608034974973, -12.778350270540233 ], [ -62.290704736061322, -12.779136332648987 ], [ -62.290346824761237, -12.779525613272558 ], [ -62.290564499401647, -12.780091557986237 ], [ -62.290941698080609, -12.779792840288 ], [ -62.291248449113013, -12.779763175423316 ], [ -62.291299998435555, -12.779929556473087 ], [ -62.291043321251657, -12.780220893616535 ], [ -62.291256950048933, -12.780384232060515 ], [ -62.291261059972477, -12.780657513449944 ], [ -62.291528530725223, -12.780483696917909 ], [ -62.291652875293494, -12.780613978414284 ], [ -62.291913958422519, -12.780570443378597 ], [ -62.292044563529579, -12.780265822859736 ], [ -62.291610338850006, -12.78017855651534 ], [ -62.291764325930629, -12.779925999469159 ], [ -62.292354792857793, -12.779743583004798 ], [ -62.292915275195973, -12.779786812208394 ], [ -62.293163106779218, -12.779462854656645 ], [ -62.2935934844784, -12.779488265828952 ], [ -62.29356841686274, -12.779699742665214 ], [ -62.294018256772162, -12.779749305252913 ], [ -62.294134372326539, -12.780004487914873 ], [ -62.294613194176939, -12.779995110047434 ], [ -62.294409834337678, -12.780215819305443 ], [ -62.294134372326639, -12.780265822859789 ], [ -62.294420936717628, -12.78074055048819 ], [ -62.294161516521697, -12.780737748398689 ], [ -62.294003651087536, -12.780483498566193 ], [ -62.293568405910037, -12.780483498566195 ], [ -62.29326367215144, -12.780831767573394 ], [ -62.293293654015336, -12.781031930173173 ], [ -62.293045996435083, -12.781049453501801 ], [ -62.293206583921098, -12.781467280548947 ], [ -62.292480040971441, -12.781354198751458 ], [ -62.292533207662586, -12.78176983354903 ], [ -62.292305901366994, -12.781920143465094 ], [ -62.292480030018687, -12.782529519455627 ], [ -62.292697589064076, -12.782529519983749 ], [ -62.29264442234301, -12.78228802534445 ], [ -62.292784480099485, -12.782225806658435 ], [ -62.293089531471104, -12.782616590055065 ], [ -62.293394160587738, -12.782660124562602 ], [ -62.293823036420349, -12.782297050592762 ], [ -62.293914253366957, -12.782708753175415 ], [ -62.29356835332046, -12.783009799584157 ], [ -62.293784966350671, -12.78353075424697 ], [ -62.293481283249108, -12.783706360154698 ], [ -62.293611940946398, -12.783922640596993 ], [ -62.293872139801749, -12.783880210934758 ], [ -62.293956252504934, -12.783999156792216 ], [ -62.293822622565926, -12.784550418672145 ], [ -62.293447064250003, -12.784421012167563 ], [ -62.293481219705633, -12.784183976069968 ], [ -62.293277004252353, -12.784123610806665 ], [ -62.292919711528349, -12.783631487393833 ], [ -62.29295879927782, -12.783356810392284 ], [ -62.29191408550831, -12.783618020606234 ], [ -62.29156580576111, -12.784009721946481 ], [ -62.292420236522439, -12.784285813352561 ], [ -62.292695438207183, -12.78470057222183 ], [ -62.292604055355731, -12.785025935988957 ], [ -62.292141107983433, -12.785529370053229 ], [ -62.291478735152118, -12.785533562175701 ], [ -62.290477429331801, -12.785925377496694 ], [ -62.290520964367488, -12.78622999801563 ], [ -62.290999722672034, -12.786404138158298 ], [ -62.291029006590556, -12.786192931511303 ], [ -62.291449688935849, -12.786148955502776 ], [ -62.291515679433211, -12.786288452032665 ], [ -62.291261060512042, -12.786491218979629 ], [ -62.291435200116673, -12.786752418443655 ], [ -62.291827015437754, -12.786839488514943 ], [ -62.293099256588711, -12.786712789317685 ], [ -62.293220136579201, -12.787013628657638 ], [ -62.293642875706617, -12.787120596447206 ], [ -62.293655486935968, -12.787318373907363 ], [ -62.294249384766914, -12.787455662854725 ], [ -62.294395582542514, -12.787884329370989 ], [ -62.295005073042049, -12.788537354906023 ], [ -62.295919001520318, -12.788538386875455 ], [ -62.296049902944873, -12.788711494520578 ], [ -62.296397886927664, -12.788625456902059 ], [ -62.296485264254883, -12.788798565120031 ], [ -62.296833417450969, -12.788885635191349 ], [ -62.297066266126585, -12.788509585312386 ], [ -62.297268767807786, -12.788450284834687 ], [ -62.297247025742514, -12.78791996616552 ], [ -62.297377327188876, -12.787763411970147 ], [ -62.297564260429468, -12.787821433441959 ], [ -62.297660710217848, -12.788406749799011 ], [ -62.297878385396245, -12.788537354905996 ], [ -62.297890021840352, -12.788121663514206 ], [ -62.298357143699633, -12.787884329370943 ], [ -62.298487812351048, -12.787273569393586 ], [ -62.298359587526022, -12.786790985208391 ], [ -62.298705423447203, -12.786534754015218 ], [ -62.298595092604785, -12.785763489918669 ], [ -62.298922203600505, -12.785621612351139 ], [ -62.29909735544117, -12.785968787273363 ], [ -62.299444226125082, -12.785968850167256 ], [ -62.299489361403104, -12.785752144545002 ], [ -62.300403290376586, -12.785751112623112 ], [ -62.300272685269675, -12.785228816926088 ], [ -62.299582715434234, -12.785069470982595 ], [ -62.299663194232359, -12.78470638574799 ], [ -62.299361078482058, -12.784147274575911 ], [ -62.299401984018544, -12.783879220070261 ], [ -62.299140785295755, -12.783705091205746 ], [ -62.29874269777924, -12.783878907211403 ], [ -62.29855778617884, -12.783771759626418 ], [ -62.29892309916449, -12.783226080554339 ], [ -62.298750084713717, -12.783051868806636 ], [ -62.298836029093231, -12.782747319892954 ], [ -62.298619479605065, -12.782616518449492 ], [ -62.298748959022035, -12.782224899464904 ], [ -62.298321881477342, -12.782429654691871 ], [ -62.298357143701018, -12.782224899464925 ], [ -62.297967772157747, -12.781881587457811 ], [ -62.297921792806513, -12.78122358289446 ], [ -62.297647215347169, -12.781329876102218 ], [ -62.297360434481234, -12.781105002462146 ], [ -62.297435167914649, -12.780964441493563 ], [ -62.297660583130657, -12.781005793735233 ], [ -62.297454671138155, -12.780633637704858 ], [ -62.297810342628836, -12.780535489987804 ], [ -62.298350680157249, -12.780990999549617 ], [ -62.298313735751115, -12.781267003949241 ], [ -62.298437750220124, -12.781295744802318 ], [ -62.298400806360597, -12.781484689877614 ], [ -62.298749086108018, -12.782094169626916 ], [ -62.298966633662346, -12.782050645341284 ], [ -62.299010169236155, -12.78174601407258 ], [ -62.29884312036117, -12.781675915007362 ], [ -62.298705487529823, -12.7812576261035 ], [ -62.298750010415567, -12.780439129997591 ], [ -62.2988795641295, -12.780265822859848 ], [ -62.298679948849696, -12.780252521306206 ], [ -62.298357473419159, -12.7797814745823 ], [ -62.298662194659421, -12.779613704519752 ], [ -62.29892309916535, -12.779699742665105 ], [ -62.298792494058482, -12.77909037689674 ], [ -62.298414231270222, -12.778855178288037 ], [ -62.298015453971225, -12.778190935341394 ], [ -62.298139468523758, -12.777871395898032 ], [ -62.297734285596398, -12.777934144093688 ], [ -62.297208968713313, -12.777777365958014 ], [ -62.29709493872344, -12.777614435281423 ], [ -62.29726907311759, -12.777349882664756 ], [ -62.298007569993274, -12.777610123319151 ], [ -62.29831095991134, -12.777328076908987 ], [ -62.298531399975751, -12.777697130496216 ], [ -62.298792493520807, -12.777610071703043 ], [ -62.2986183648691, -12.777044230748437 ], [ -62.298226654725944, -12.776957160677096 ], [ -62.297926876374802, -12.777261561335806 ], [ -62.297402001802723, -12.776876923303332 ], [ -62.297412832204031, -12.776669120742671 ], [ -62.297878269262867, -12.776521684533179 ], [ -62.298221758535824, -12.776045035406316 ], [ -62.298649373996419, -12.776017856331983 ], [ -62.298705551070945, -12.776391079954241 ], [ -62.29900908767398, -12.776476666996459 ], [ -62.298705551609068, -12.776565334077905 ], [ -62.298792610189579, -12.776739359711517 ], [ -62.299058072284552, -12.776654688671826 ], [ -62.299229264919504, -12.776870027712448 ], [ -62.299880869412718, -12.776739370989645 ], [ -62.299880869950812, -12.776565344827977 ], [ -62.299391294966796, -12.776111271981168 ], [ -62.299750264305899, -12.775999275383283 ], [ -62.299707781180032, -12.775650276295963 ], [ -62.299861842156581, -12.775485425847915 ], [ -62.300359755343457, -12.775563914276542 ], [ -62.300143131534611, -12.77508432086073 ], [ -62.300316220307934, -12.774954423777151 ], [ -62.300258210348431, -12.774578314057674 ], [ -62.300577429983996, -12.774475549134845 ], [ -62.300664564134507, -12.774128652310399 ], [ -62.300320199827802, -12.773376608591793 ], [ -62.300882186724671, -12.773300091893592 ], [ -62.301361060626455, -12.772777682743726 ], [ -62.301317525590846, -12.772516575760717 ], [ -62.301116104327946, -12.772457098685168 ] ], [ [ -62.2911645146838, -12.779094444320876 ], [ -62.291256788724468, -12.779123805966117 ], [ -62.291134924340597, -12.779189460834083 ], [ -62.2911645146838, -12.779094444320876 ] ], [ [ -62.291742096178801, -12.779650508306698 ], [ -62.291918326038861, -12.779571536061166 ], [ -62.291813520666445, -12.779762615221642 ], [ -62.291742096178801, -12.779650508306698 ] ], [ [ -62.292440826145487, -12.784039779431327 ], [ -62.292634216918294, -12.783907012294524 ], [ -62.292739295292314, -12.784184647653291 ], [ -62.292453782580552, -12.784133684245404 ], [ -62.292440826145487, -12.784039779431327 ] ], [ [ -62.292872751749492, -12.785316867100192 ], [ -62.292957800664723, -12.785359493597007 ], [ -62.292829368535266, -12.785499998209735 ], [ -62.292872751749492, -12.785316867100192 ] ], [ [ -62.292874007094213, -12.778213852200503 ], [ -62.293017700513509, -12.778178315147171 ], [ -62.292911023503308, -12.778304347765889 ], [ -62.292874007094213, -12.778213852200503 ] ], [ [ -62.292877870593408, -12.783907411441175 ], [ -62.292982497201344, -12.783863477251961 ], [ -62.292901012870182, -12.784003367415336 ], [ -62.292877870593408, -12.783907411441175 ] ], [ [ -62.293171912124841, -12.785422000141889 ], [ -62.293309855483635, -12.785294990216887 ], [ -62.293394213177905, -12.785435711542641 ], [ -62.293260895692576, -12.78551079915829 ], [ -62.293171912124841, -12.785422000141889 ] ], [ [ -62.293723402721639, -12.781798006002097 ], [ -62.29386441847808, -12.781856811064817 ], [ -62.293651936007805, -12.781937284219881 ], [ -62.293723402721639, -12.781798006002097 ] ], [ [ -62.293779457252569, -12.779427274495047 ], [ -62.294102314754618, -12.779355294211472 ], [ -62.294090828639654, -12.779569253798153 ], [ -62.293861821745196, -12.779564750859226 ], [ -62.293779457252569, -12.779427274495047 ] ], [ [ -62.293940926420731, -12.779186814444314 ], [ -62.29386900452289, -12.779060586406272 ], [ -62.293960194400654, -12.779003183423328 ], [ -62.294003425278802, -12.779138501124864 ], [ -62.293940926420731, -12.779186814444314 ] ], [ [ -62.293973657754066, -12.781380210472634 ], [ -62.294013218212676, -12.78110473161323 ], [ -62.294207982848199, -12.781153229209465 ], [ -62.294171519546254, -12.781484480256445 ], [ -62.293973657754066, -12.781380210472634 ] ], [ [ -62.294120593960166, -12.77896960649017 ], [ -62.294035933536584, -12.778881505325328 ], [ -62.294177843821025, -12.778915387790505 ], [ -62.294120593960166, -12.77896960649017 ] ], [ [ -62.294051446513755, -12.78480344781582 ], [ -62.294124519845212, -12.784579572574652 ], [ -62.294308514440502, -12.784706357139097 ], [ -62.294196466479278, -12.78485466769189 ], [ -62.294051446513755, -12.78480344781582 ] ], [ [ -62.294197744155994, -12.787215675774087 ], [ -62.294304532739829, -12.787264284323191 ], [ -62.294160747285027, -12.787298097489376 ], [ -62.294197744155994, -12.787215675774087 ] ], [ [ -62.2955273663827, -12.781658944001162 ], [ -62.295201586951222, -12.781561973848529 ], [ -62.29500494595478, -12.781267128680128 ], [ -62.294612647032032, -12.781353012487848 ], [ -62.294399435091236, -12.781125844568509 ], [ -62.295057955958711, -12.780705240649871 ], [ -62.29565109417539, -12.78129237682969 ], [ -62.295701570068424, -12.781692976508337 ], [ -62.295557854054927, -12.781837159744688 ], [ -62.2955273663827, -12.781658944001162 ] ], [ [ -62.294833249554898, -12.778214583185632 ], [ -62.294966317764626, -12.778178252138405 ], [ -62.294870100124207, -12.778304347764957 ], [ -62.294833249554898, -12.778214583185632 ] ], [ [ -62.294907186070049, -12.779528403706966 ], [ -62.29509183745666, -12.779439564376299 ], [ -62.295180838843962, -12.779569547841236 ], [ -62.295083968737444, -12.779720118863027 ], [ -62.294907186070049, -12.779528403706966 ] ], [ [ -62.295124788080699, -12.785733095370006 ], [ -62.295227579842305, -12.785664354949553 ], [ -62.295174014294219, -12.785794436794768 ], [ -62.295124788080699, -12.785733095370006 ] ], [ [ -62.295323685709903, -12.774458534160585 ], [ -62.295325959976431, -12.774316290198275 ], [ -62.295467704946354, -12.774459710335968 ], [ -62.295323685709903, -12.774458534160585 ] ], [ [ -62.295299001420354, -12.779065439544642 ], [ -62.295649924228606, -12.778678185162306 ], [ -62.2957016341485, -12.779090366146663 ], [ -62.295445379726544, -12.779351243044063 ], [ -62.295299001420354, -12.779065439544642 ] ], [ [ -62.295610195504523, -12.776824156555067 ], [ -62.295573345147531, -12.77673439197928 ], [ -62.295699189883706, -12.776787988289442 ], [ -62.295610195504523, -12.776824156555067 ] ], [ [ -62.295747485349153, -12.783090507177198 ], [ -62.295836478679604, -12.783054338916017 ], [ -62.295784336633041, -12.78318027176031 ], [ -62.295747485349153, -12.783090507177198 ] ], [ [ -62.295940443906638, -12.777438645261004 ], [ -62.296049786811871, -12.77717471059634 ], [ -62.295964994617123, -12.776951336239991 ], [ -62.296165294993195, -12.77677312938318 ], [ -62.296180514364544, -12.777479556361047 ], [ -62.296007272968808, -12.777609080867903 ], [ -62.295940443906638, -12.777438645261004 ] ], [ [ -62.296007377455844, -12.780657441865522 ], [ -62.296063507009684, -12.780566678233532 ], [ -62.296267580423347, -12.780613986905077 ], [ -62.296266567319535, -12.780787138468185 ], [ -62.296007377455844, -12.780657441865522 ] ], [ [ -62.296081845504858, -12.788149371040531 ], [ -62.296219782637287, -12.788179093392905 ], [ -62.296178562688141, -12.788364011214618 ], [ -62.296054058214111, -12.788329785700604 ], [ -62.296081845504858, -12.788149371040531 ] ], [ [ -62.296237479555202, -12.780248299492868 ], [ -62.296417009599203, -12.779494273597772 ], [ -62.296730220645713, -12.779498020281512 ], [ -62.296746045969485, -12.779788574051407 ], [ -62.296380741944787, -12.780252289262515 ], [ -62.296237479555202, -12.780248299492868 ] ], [ [ -62.296368527194083, -12.785734108406466 ], [ -62.296315268382926, -12.785479921190056 ], [ -62.296523893542727, -12.785317997984222 ], [ -62.296984397816225, -12.785276243993323 ], [ -62.297312421280537, -12.785838298934506 ], [ -62.296783948350715, -12.785922797292875 ], [ -62.296368527194083, -12.785734108406466 ] ], [ [ -62.296663548632445, -12.783259634382567 ], [ -62.296755822005693, -12.783230272712748 ], [ -62.296711256960478, -12.783361572662971 ], [ -62.296663548632445, -12.783259634382567 ] ], [ [ -62.296706922105798, -12.771024199445526 ], [ -62.296799358682598, -12.770996927693638 ], [ -62.296736998201453, -12.771162808260971 ], [ -62.296706922105798, -12.771024199445526 ] ], [ [ -62.296917515279858, -12.781841606822271 ], [ -62.297137983737862, -12.781659851191909 ], [ -62.297486980078233, -12.781964143855031 ], [ -62.29726828435841, -12.782136643129336 ], [ -62.296917515279858, -12.781841606822271 ] ], [ [ -62.297035993573694, -12.785959024217174 ], [ -62.297094436468868, -12.786007971111193 ], [ -62.296920817248626, -12.786137589832029 ], [ -62.297035993573694, -12.785959024217174 ] ], [ [ -62.297098737521758, -12.776727289107242 ], [ -62.297191173236016, -12.776700017364794 ], [ -62.297125410388318, -12.776822334593678 ], [ -62.297098737521758, -12.776727289107242 ] ], [ [ -62.297162793081974, -12.780057228657235 ], [ -62.297303050498456, -12.780072197111654 ], [ -62.29726886712352, -12.780222284033856 ], [ -62.29714824963623, -12.780200405869616 ], [ -62.297162793081974, -12.780057228657235 ] ], [ [ -62.297144753321753, -12.780512114165287 ], [ -62.297370216691576, -12.780489841850976 ], [ -62.297167446000479, -12.780651169667758 ], [ -62.297144753321753, -12.780512114165287 ] ], [ [ -62.297395342309322, -12.78541670161181 ], [ -62.297559920102522, -12.785311997313659 ], [ -62.29761717054302, -12.785446467890242 ], [ -62.297447992554403, -12.785489683081511 ], [ -62.297395342309322, -12.78541670161181 ] ], [ [ -62.297737928045592, -12.786277438961577 ], [ -62.297830578985845, -12.786307086871648 ], [ -62.297685009296558, -12.786378942870995 ], [ -62.297737928045592, -12.786277438961577 ] ], [ [ -62.297760264361422, -12.785379195055338 ], [ -62.298032251844688, -12.785371674617089 ], [ -62.298008981851204, -12.785577088720485 ], [ -62.297856469081083, -12.785610678401905 ], [ -62.297760264361422, -12.785379195055338 ] ], [ [ -62.297999137407537, -12.779877788723555 ], [ -62.298091789305623, -12.779907436653273 ], [ -62.297946220024336, -12.77997929263744 ], [ -62.297999137407537, -12.779877788723555 ] ], [ [ -62.298004623919645, -12.785971186302946 ], [ -62.298137317651758, -12.786050158297023 ], [ -62.29809410445386, -12.786230794403627 ], [ -62.297967957360505, -12.786149886313698 ], [ -62.298004623919645, -12.785971186302946 ] ], [ [ -62.298196556438448, -12.785385433922261 ], [ -62.298116207138328, -12.784849254187643 ], [ -62.298328224699404, -12.784842904435472 ], [ -62.298444340859064, -12.785011017016778 ], [ -62.298705946847683, -12.784968042478459 ], [ -62.29842628058865, -12.785433190556873 ], [ -62.298196556438448, -12.785385433922261 ] ], [ [ -62.29829034740434, -12.786653095818844 ], [ -62.29828268484512, -12.786554641009825 ], [ -62.298431729649238, -12.786645575382211 ], [ -62.29829034740434, -12.786653095818844 ] ], [ [ -62.29848350844145, -12.780311631667171 ], [ -62.298616203093218, -12.780390603917111 ], [ -62.298574517472332, -12.780572204670394 ], [ -62.298403307659918, -12.780490331420733 ], [ -62.29848350844145, -12.780311631667171 ] ], [ [ -62.298691172811729, -12.785396488546763 ], [ -62.298711739432783, -12.785030339837281 ], [ -62.299141311455493, -12.785272806586502 ], [ -62.298980129293902, -12.785509238562625 ], [ -62.298691172811729, -12.785396488546763 ] ], [ [ -62.299078334196096, -12.775424228205633 ], [ -62.29911349285922, -12.775100981695291 ], [ -62.29926212727954, -12.775322189668163 ], [ -62.299078334196096, -12.775424228205633 ] ], [ [ -62.299252351717797, -12.776138451378396 ], [ -62.299392732348558, -12.776154043907459 ], [ -62.299358548835151, -12.776304130823648 ], [ -62.299193688671089, -12.776279960454177 ], [ -62.299252351717797, -12.776138451378396 ] ], [ [ -62.299300663344169, -12.785701233801971 ], [ -62.299190624836555, -12.78546569030982 ], [ -62.299433035514355, -12.785687804592017 ], [ -62.299300663344169, -12.785701233801971 ] ], [ [ -62.299244098005786, -12.775710472194547 ], [ -62.299342307741156, -12.775709411350123 ], [ -62.299402642684562, -12.775867284874277 ], [ -62.299285374040508, -12.775938725358195 ], [ -62.299244098005786, -12.775710472194547 ] ], [ [ -62.300527959223757, -12.77094674500432 ], [ -62.30053389494929, -12.770601034191294 ], [ -62.300273263233535, -12.770493228072617 ], [ -62.300276664744693, -12.770285621196912 ], [ -62.300848117050123, -12.770387437201101 ], [ -62.300925829237791, -12.770513858629799 ], [ -62.300781680667619, -12.770888266411651 ], [ -62.300527959223757, -12.77094674500432 ] ] ], [ [ [ -62.299184425508138, -12.764723815654186 ], [ -62.298836156175099, -12.764985025340064 ], [ -62.298662016570582, -12.765463796751325 ], [ -62.29908862330479, -12.765574708452981 ], [ -62.299097355437084, -12.766160346043876 ], [ -62.299314914489791, -12.766073276500652 ], [ -62.2994455190588, -12.765768542001013 ], [ -62.299272588050215, -12.765552463345699 ], [ -62.299324293377254, -12.765226749979805 ], [ -62.299706729811007, -12.765246110822922 ], [ -62.29955385304411, -12.764987625063997 ], [ -62.299663205727697, -12.764767350689839 ], [ -62.299184425508138, -12.764723815654186 ] ] ], [ [ [ -62.214991815073766, -12.379797010560926 ], [ -62.215031085530718, -12.37917753924185 ], [ -62.214682932130998, -12.379264609313161 ], [ -62.214813473795665, -12.379535214841798 ], [ -62.214682932668339, -12.379699948919702 ], [ -62.214781225488828, -12.379882904068541 ], [ -62.21468293213119, -12.380178720329859 ], [ -62.215379365815906, -12.379961045151498 ], [ -62.215379365815906, -12.379830564776878 ], [ -62.215210232989833, -12.379917290771074 ], [ -62.214991815073766, -12.379797010560926 ] ] ] ] } }
]
}
