{
"type": "FeatureCollection",
"name": "pacaas_novas",
"crs": { "type": "name", "properties": { "name": "urn:ogc:def:crs:OGC:1.3:CRS84" } },
"features": [
{ "type": "Feature", "properties": { "area_ha": 3115.38 }, "geometry": { "type": "MultiPolygon", "coordinates": [ [ [ [ -65.212784779410967, -11.025105960824687 ], [ -65.213052840815124, -11.024884567423772 ], [ -65.213582006352667, -11.024540795223942 ], [ -65.213986756662948, -11.024290633275625 ], [ -65.214358637515659, -11.023917771718809 ], [ -65.214420914207366, -11.024062358745658 ], [ -65.214595043651642, -11.023975285636203 ], [ -65.214550955578844, -11.023724946005583 ], [ -65.214638714428304, -11.023636955395995 ], [ -65.214724558175178, -11.023550884880704 ], [ -65.21516099911571, -11.023452865203415 ], [ -65.215191884040323, -11.023082323366493 ], [ -65.215197533081621, -11.023076659376844 ], [ -65.215757043751097, -11.022609059802997 ], [ -65.216976139611873, -11.022507445595455 ], [ -65.217602135669253, -11.022564668791997 ], [ -65.217950579342798, -11.023149232753331 ], [ -65.217861149915507, -11.023736999869135 ], [ -65.21702177092925, -11.024422954902651 ], [ -65.215772316144793, -11.024648395530443 ], [ -65.214679937176328, -11.024965385955673 ], [ -65.213717519015844, -11.025930339573209 ], [ -65.213130883405967, -11.026954348871024 ], [ -65.212322298225772, -11.027578268038527 ], [ -65.21170738183153, -11.029004192696544 ], [ -65.211623024415871, -11.030271740709885 ], [ -65.211567171536899, -11.031168271227276 ], [ -65.211915618165989, -11.031752842174786 ], [ -65.212108602181488, -11.032462150843719 ], [ -65.2122091412092, -11.03335753898126 ], [ -65.212462370884026, -11.033757399360255 ], [ -65.212866902211061, -11.03347633735936 ], [ -65.213862935118954, -11.032820143490298 ], [ -65.214640482126811, -11.032227345960981 ], [ -65.215761616827777, -11.031570232737197 ], [ -65.216635073800418, -11.031254836071643 ], [ -65.216794241819485, -11.031624479641497 ], [ -65.217579426836821, -11.032051342362328 ], [ -65.217988818020643, -11.032419153093583 ], [ -65.218272403788745, -11.032695182431558 ], [ -65.218462852557479, -11.033064595486076 ], [ -65.218590746324693, -11.033434466521319 ], [ -65.219182704252219, -11.033121123742603 ], [ -65.219802690235198, -11.032374965911986 ], [ -65.220887426366687, -11.031038289127761 ], [ -65.220881624222358, -11.030265816520798 ], [ -65.220816284643732, -11.029895488169803 ], [ -65.221042601993247, -11.026711066767062 ], [ -65.221287713268595, -11.026029457066381 ], [ -65.222216736470244, -11.024786623431368 ], [ -65.223117726081199, -11.02397660192973 ], [ -65.224923407550904, -11.02285093501232 ], [ -65.22487584851018, -11.022731431777878 ], [ -65.224878787434534, -11.022681099603441 ], [ -65.225130521572638, -11.022625817016786 ], [ -65.224825776857315, -11.022190477404417 ], [ -65.224632002576797, -11.022236664758061 ], [ -65.224384041626536, -11.021835174652599 ], [ -65.224188951701009, -11.020847788023808 ], [ -65.223929686080922, -11.019644567666903 ], [ -65.223830750197394, -11.018965480712735 ], [ -65.22392248926225, -11.018686702896582 ], [ -65.224292230217031, -11.017942377947927 ], [ -65.224443734581726, -11.017292355099475 ], [ -65.224658022468589, -11.016672772381767 ], [ -65.225249477103631, -11.016297627504187 ], [ -65.225652810949228, -11.015862060943796 ], [ -65.225555964398012, -11.015461064452671 ], [ -65.224960564570395, -11.015310929113415 ], [ -65.224365629360136, -11.015222590210284 ], [ -65.223925912583255, -11.014978609389571 ], [ -65.223758605114512, -11.014427149405899 ], [ -65.223868005539998, -11.014223555132727 ], [ -65.22360679586032, -11.013831750556038 ], [ -65.223475724275261, -11.013844214236121 ], [ -65.223377932107411, -11.013673307024948 ], [ -65.223389120682029, -11.013570540342016 ], [ -65.223267257993214, -11.013479886251176 ], [ -65.223067550785203, -11.013130864964458 ], [ -65.22271385710188, -11.012869836264912 ], [ -65.222605490040152, -11.012612769557348 ], [ -65.222392921907016, -11.012632982744568 ], [ -65.222355762386172, -11.01260555857902 ], [ -65.222344279826203, -11.012264489272001 ], [ -65.221964845397636, -11.012262421458663 ], [ -65.221886172060977, -11.012181809424247 ], [ -65.221865394433834, -11.01209034912938 ], [ -65.221796892195755, -11.012090329402348 ], [ -65.221556590279604, -11.011844105167915 ], [ -65.221243698551746, -11.011784658685315 ], [ -65.221234285172613, -11.01174996289291 ], [ -65.221430044077323, -11.011306718487292 ], [ -65.220777144725716, -11.011263183451705 ], [ -65.220819562067703, -11.011480685533359 ], [ -65.220690074654456, -11.011611339072381 ], [ -65.220800802020023, -11.011700511898983 ], [ -65.220773545990966, -11.011695333448674 ], [ -65.220650992481993, -11.012036137350892 ], [ -65.220091739638235, -11.012534639841954 ], [ -65.219807249285736, -11.01213501259147 ], [ -65.21942684966163, -11.011457980384156 ], [ -65.219078884714889, -11.010935213564512 ], [ -65.219075181245216, -11.010440829839004 ], [ -65.219033587258096, -11.010011423232092 ], [ -65.219412149537945, -11.009495895403624 ], [ -65.219581038171697, -11.009077501389079 ], [ -65.219439836917729, -11.009016732550361 ], [ -65.219143069870015, -11.009065253384376 ], [ -65.218816184506196, -11.00926849752727 ], [ -65.218801725885498, -11.009290833928381 ], [ -65.218502275437245, -11.00911628863026 ], [ -65.217822085371978, -11.010171883218071 ], [ -65.217517196350613, -11.011224735005518 ], [ -65.216461923248517, -11.012313969470814 ], [ -65.215592447506054, -11.013154639079438 ], [ -65.215128165422897, -11.013806944574492 ], [ -65.213857870476573, -11.015423056143611 ], [ -65.213521919778344, -11.016507034705919 ], [ -65.212507128175716, -11.018831997490429 ], [ -65.211482395462426, -11.019828297375245 ], [ -65.210390717911977, -11.020237967305334 ], [ -65.209798308936257, -11.020489491637662 ], [ -65.208609261038831, -11.020890706839076 ], [ -65.208103339451455, -11.020741320610801 ], [ -65.207749287308346, -11.020450340259655 ], [ -65.207388396108243, -11.020290737909566 ], [ -65.207185443699288, -11.020338566536063 ], [ -65.207139392864676, -11.02045478006284 ], [ -65.207848418993478, -11.021160338655656 ], [ -65.20797764788415, -11.021280895637117 ], [ -65.207616782574291, -11.021556011422541 ], [ -65.207277808758136, -11.022238298742264 ], [ -65.206750711257357, -11.022860153547436 ], [ -65.20537821155196, -11.023364555377496 ], [ -65.204470027499227, -11.023216656033631 ], [ -65.203904970159698, -11.022942655804977 ], [ -65.20355678148691, -11.022388969551695 ], [ -65.203391194090173, -11.021154134558635 ], [ -65.203388042657366, -11.021097520932338 ], [ -65.203492326033285, -11.021083872487516 ], [ -65.203764674882621, -11.020904212721353 ], [ -65.203731614974558, -11.020664970581576 ], [ -65.203628355096598, -11.020449414296223 ], [ -65.203357014379321, -11.020460794788384 ], [ -65.203381762395068, -11.0198872636005 ], [ -65.203720744438243, -11.019204979329521 ], [ -65.203988507851193, -11.018908241999629 ], [ -65.204180003157063, -11.018923533201093 ], [ -65.204492365866471, -11.018867186168833 ], [ -65.204632362320268, -11.018765740456459 ], [ -65.204910168445707, -11.018269305882452 ], [ -65.20527404140293, -11.017779970684472 ], [ -65.205241153782936, -11.017563903276073 ], [ -65.205176119536134, -11.017511157828647 ], [ -65.205519591070598, -11.017152441470747 ], [ -65.206329321357217, -11.016683038990408 ], [ -65.20679593181022, -11.016339734757757 ], [ -65.206449590693069, -11.016033245045563 ], [ -65.205695969506763, -11.015637013581328 ], [ -65.204727328325092, -11.015767658648343 ], [ -65.204229439366046, -11.016111187260851 ], [ -65.203671296450153, -11.01676416263755 ], [ -65.20341415889034, -11.017203842078459 ], [ -65.203282769907702, -11.017122596015334 ], [ -65.203277134324267, -11.016921184429117 ], [ -65.203580679451164, -11.016704938244986 ], [ -65.203493724691285, -11.015790827689763 ], [ -65.203451299936191, -11.015914976734285 ], [ -65.203377773495617, -11.016206393805135 ], [ -65.20294205721936, -11.017405185451867 ], [ -65.202879680939844, -11.017587717830004 ], [ -65.202870141135094, -11.017603048358282 ], [ -65.202864165637095, -11.017619488752075 ], [ -65.202767987858408, -11.017767209240731 ], [ -65.202318289604364, -11.018489874707347 ], [ -65.202593143907137, -11.018265044192153 ], [ -65.202768098633925, -11.018308534843365 ], [ -65.201910838922274, -11.019774343587711 ], [ -65.200978742246363, -11.020615437328461 ], [ -65.200358030685152, -11.021268863498689 ], [ -65.200048018463036, -11.021641925333565 ], [ -65.200334335538443, -11.022288769110025 ], [ -65.199563665862613, -11.023808511720212 ], [ -65.198753674348538, -11.024247002355098 ], [ -65.197783621046341, -11.024192234768663 ], [ -65.196627739296318, -11.024386019313949 ], [ -65.196473417524288, -11.024665247357177 ], [ -65.196229392552652, -11.025501345001915 ], [ -65.195863468000184, -11.026770941234895 ], [ -65.195273093088915, -11.027300536974495 ], [ -65.194806680263952, -11.027674728582415 ], [ -65.194718579686921, -11.028447894570931 ], [ -65.194664738045219, -11.029622526964799 ], [ -65.194014092656545, -11.030461569443647 ], [ -65.193609541988579, -11.030742608951517 ], [ -65.192486053289102, -11.031090654056058 ], [ -65.191396129598672, -11.031747464429973 ], [ -65.190995467206932, -11.032553793168562 ], [ -65.190848235941658, -11.033790905368839 ], [ -65.190855564777451, -11.034779690158077 ], [ -65.190889820860804, -11.035181157686946 ], [ -65.190956959197408, -11.035798695534918 ], [ -65.191303544043734, -11.036136100747337 ], [ -65.191772723514831, -11.036132705349974 ], [ -65.192050564154741, -11.035636275819567 ], [ -65.192266076145813, -11.035171198527264 ], [ -65.192293458426107, -11.034645680722059 ], [ -65.192477232792712, -11.03411903087666 ], [ -65.193097757122189, -11.033434713374589 ], [ -65.193910075726407, -11.033305226313049 ], [ -65.194504821741219, -11.033362720232534 ], [ -65.195321957821434, -11.033882117648703 ], [ -65.195320810407026, -11.033727620484916 ], [ -65.195098191063664, -11.033234816308456 ], [ -65.194778526395112, -11.032310099450783 ], [ -65.194557744317251, -11.032064490074386 ], [ -65.194524860656983, -11.031848420490393 ], [ -65.194366635360694, -11.031602357702004 ], [ -65.194112741723998, -11.031109778673416 ], [ -65.194204053501053, -11.030769205007793 ], [ -65.194640110789592, -11.030518837696805 ], [ -65.195294883392449, -11.030235984132842 ], [ -65.195826608079372, -11.030232130990015 ], [ -65.19629761284618, -11.030475925740502 ], [ -65.196769766135901, -11.030874216649098 ], [ -65.19736841051045, -11.031456995512313 ], [ -65.197773646512289, -11.03126864965153 ], [ -65.19861240775937, -11.030490037793804 ], [ -65.198578372890239, -11.030119472303301 ], [ -65.198418537800421, -11.029657116442447 ], [ -65.198478796191665, -11.029347668801289 ], [ -65.198758228376775, -11.029067531889007 ], [ -65.199162770814183, -11.028786486850604 ], [ -65.19922027112662, -11.028106246875575 ], [ -65.199184168585106, -11.027457587208888 ], [ -65.199242588165959, -11.026900944694956 ], [ -65.1994893615949, -11.026435638443992 ], [ -65.199768101078334, -11.026062803194717 ], [ -65.199919202852598, -11.025350983001774 ], [ -65.19982215415159, -11.024919073012525 ], [ -65.199785592579232, -11.02420861475219 ], [ -65.200001775783534, -11.023836233628813 ], [ -65.200186681395778, -11.023464079444187 ], [ -65.20049439696011, -11.022782023704339 ], [ -65.201050718148124, -11.021881856184168 ], [ -65.201956139233332, -11.021658975085364 ], [ -65.202333071469113, -11.021872544340038 ], [ -65.202743811221765, -11.022425778106497 ], [ -65.202843392890742, -11.023197578838893 ], [ -65.201882772987588, -11.024409695809592 ], [ -65.202042148696208, -11.024810250871482 ], [ -65.202856736474274, -11.024989737983912 ], [ -65.203897401651503, -11.026125508299524 ], [ -65.204397838564731, -11.026121868974661 ], [ -65.204771323709281, -11.025871944927026 ], [ -65.205579694489245, -11.025217144448403 ], [ -65.207233003913856, -11.024617992966748 ], [ -65.207391233715413, -11.02486404779507 ], [ -65.207580740932215, -11.025109874696616 ], [ -65.208399251421184, -11.025814632104337 ], [ -65.209025717950766, -11.025933670311002 ], [ -65.20933825897572, -11.025900491422863 ], [ -65.209492798504129, -11.025652158213051 ], [ -65.209645953014203, -11.025218430064493 ], [ -65.209861430467612, -11.02475334673291 ], [ -65.210389677198862, -11.024285982885528 ], [ -65.210796277890125, -11.024283017779767 ], [ -65.210986248891771, -11.02459064033364 ], [ -65.210958435746136, -11.025054355332752 ], [ -65.211181763283562, -11.025639841542841 ], [ -65.211401857961874, -11.025792739816994 ], [ -65.212056597791189, -11.025509855023172 ], [ -65.212524367233641, -11.025321036202154 ], [ -65.212667971015705, -11.025202433368097 ], [ -65.212810107011592, -11.025150735165187 ], [ -65.212784779410967, -11.025105960824687 ] ], [ [ -65.221042792732149, -11.011449277813542 ], [ -65.221072173328281, -11.01131078374614 ], [ -65.221148772067082, -11.011475592902013 ], [ -65.221042792732149, -11.011449277813542 ] ], [ [ -65.202827189220159, -11.018207496694359 ], [ -65.202939660331154, -11.017803455016727 ], [ -65.20310362158159, -11.017734828077986 ], [ -65.202827189220159, -11.018207496694359 ] ], [ [ -65.203160394935338, -11.017243192359196 ], [ -65.203257251611149, -11.01723963449011 ], [ -65.203161468169014, -11.017385678999391 ], [ -65.203160394935338, -11.017243192359196 ] ] ], [ [ [ -65.216293638750727, -11.010723811121199 ], [ -65.216434724937358, -11.010769131866967 ], [ -65.216530054042735, -11.010969290354199 ], [ -65.216561907515242, -11.011046309515518 ], [ -65.216826592637403, -11.010889872600028 ], [ -65.216962591557632, -11.010255414462899 ], [ -65.217022829873841, -11.009945967275275 ], [ -65.216663510382659, -11.009994942842173 ], [ -65.216415157068909, -11.01024396240706 ], [ -65.216135296780848, -11.010462311176648 ], [ -65.215885786957401, -11.010556835214009 ], [ -65.215824045068459, -11.010665438587175 ], [ -65.216293638750727, -11.010723811121199 ] ] ], [ [ [ -65.224562771678933, -11.003988787450918 ], [ -65.22427886627851, -11.003666410983145 ], [ -65.223732141773766, -11.003747666513171 ], [ -65.223546348872318, -11.003996231785617 ], [ -65.223610520570176, -11.004212066076278 ], [ -65.223815891744636, -11.004488667472932 ], [ -65.223894426009338, -11.00453444319864 ], [ -65.224317096922334, -11.004593148485736 ], [ -65.224739072110339, -11.004559156523209 ], [ -65.224801389364103, -11.004527799364872 ], [ -65.225018919758242, -11.004340802053381 ], [ -65.225157683621546, -11.004077130410488 ], [ -65.224967717059286, -11.003769516658048 ], [ -65.224843430753282, -11.003878579279558 ], [ -65.224562771678933, -11.003988787450918 ] ] ], [ [ [ -65.223573676649096, -11.00138493087017 ], [ -65.224040588906036, -11.001087956681458 ], [ -65.223989853395437, -11.000578468331287 ], [ -65.223610971470052, -11.000102282776304 ], [ -65.224761043907293, -10.999151394125189 ], [ -65.225291426938171, -10.998977556340673 ], [ -65.22602393026439, -10.99864773402096 ], [ -65.225974352246311, -10.998292740824491 ], [ -65.225500606330513, -10.997678200050579 ], [ -65.225480680226894, -10.997106685402109 ], [ -65.225819242977764, -10.996378042105754 ], [ -65.226059809918837, -10.995093906411693 ], [ -65.225963091167188, -10.994708357764457 ], [ -65.225598114278597, -10.994000317558001 ], [ -65.225033222195606, -10.993741798638487 ], [ -65.224361537894168, -10.993839416963658 ], [ -65.223926604390229, -10.994228857392837 ], [ -65.223897994473504, -10.99458442374951 ], [ -65.223892270548276, -10.994619977704257 ], [ -65.223476316933557, -10.994589264790426 ], [ -65.223519851969229, -10.994719745232864 ], [ -65.22386273063178, -10.994803463776268 ], [ -65.223838226786484, -10.994955668416283 ], [ -65.223339585905663, -10.995191071517835 ], [ -65.22301352815721, -10.995502463073951 ], [ -65.223001248837036, -10.995950611955072 ], [ -65.223211938903376, -10.996937890391289 ], [ -65.223123560023097, -10.997664701585951 ], [ -65.222722093862245, -10.99834745261497 ], [ -65.222290278203488, -10.999154027974352 ], [ -65.221671741507947, -11.000085571364915 ], [ -65.221174363426329, -11.000490917127273 ], [ -65.220492115045005, -11.001268421813894 ], [ -65.220062141100911, -11.00232218770115 ], [ -65.219881898532194, -11.003312326733228 ], [ -65.220255804690922, -11.003124189306989 ], [ -65.22088314725508, -11.003366807391842 ], [ -65.220732561740519, -11.00414042499102 ], [ -65.220327611645104, -11.004359690834425 ], [ -65.219486434699377, -11.004798449844731 ], [ -65.219458862127198, -11.005293062226615 ], [ -65.219244797501887, -11.005943541200748 ], [ -65.219060618869136, -11.006408397636518 ], [ -65.21918687543851, -11.006561978188577 ], [ -65.219561711604754, -11.006497436698353 ], [ -65.220060952654663, -11.006339283107696 ], [ -65.220435093606099, -11.006182043738214 ], [ -65.220869931341085, -11.00577715480982 ], [ -65.221210017320359, -11.005249356074403 ], [ -65.221581608476086, -11.004752227303463 ], [ -65.221735202526219, -11.004380295904253 ], [ -65.221857058448023, -11.003946795450204 ], [ -65.221728254598915, -11.00345332768258 ], [ -65.221787329850613, -11.002989385950437 ], [ -65.221910111877634, -11.002679481323428 ], [ -65.222244105814639, -11.001978760269841 ], [ -65.222300755667604, -11.001990095661709 ], [ -65.222381526851109, -11.001868571116363 ], [ -65.223090662829108, -11.001620221139248 ], [ -65.223121589608553, -11.001573643854904 ], [ -65.223573676649096, -11.00138493087017 ] ] ], [ [ [ -65.221377954261129, -10.99091257834516 ], [ -65.221906794048238, -10.992058465785318 ], [ -65.221913680087098, -10.992169352550258 ], [ -65.222028669766587, -10.992979643093058 ], [ -65.222057221176158, -10.9939644458263 ], [ -65.222035655977379, -10.994133509860246 ], [ -65.222039351901628, -10.994193023643342 ], [ -65.221950329062565, -10.994856117391087 ], [ -65.221872471027865, -10.995112401402231 ], [ -65.221663573982497, -10.995879340795277 ], [ -65.220880884107089, -10.998394522192829 ], [ -65.220608809250152, -10.999322477759003 ], [ -65.220644113286951, -10.999513712559049 ], [ -65.220472483223745, -10.99978743835978 ], [ -65.220459761869449, -10.999830826418252 ], [ -65.220350703184792, -11.000270110989877 ], [ -65.220124119188611, -11.001467675761429 ], [ -65.220527487630719, -11.000660235773084 ], [ -65.220640442095672, -11.000668877407014 ], [ -65.220689959347979, -11.00098878984126 ], [ -65.220760075984884, -11.000617388454824 ], [ -65.220994693909759, -11.000422831148553 ], [ -65.220842470761596, -11.000023125531024 ], [ -65.22117109551418, -10.998719325995079 ], [ -65.221691254482209, -10.997593053807263 ], [ -65.22212921477977, -10.995801345251802 ], [ -65.222431349901186, -10.995198630625159 ], [ -65.22256201809634, -10.993893973023498 ], [ -65.222344588659766, -10.992765094492485 ], [ -65.222779630377246, -10.992238244377145 ], [ -65.222649035954746, -10.991846558071124 ], [ -65.22235773539046, -10.991785431299361 ], [ -65.222126604652317, -10.991237067043969 ], [ -65.221734800205837, -10.990845252250795 ], [ -65.221125309706522, -10.990366366858495 ], [ -65.220919684622785, -10.990366366461593 ], [ -65.220864751287124, -10.990366936737729 ], [ -65.221377954261129, -10.99091257834516 ] ] ], [ [ [ -65.158773283822626, -11.610773500156336 ], [ -65.158911064805551, -11.610635588868918 ], [ -65.15885005966291, -11.610440501293329 ], [ -65.158690037876511, -11.610265708636637 ], [ -65.158567576909547, -11.609816873466 ], [ -65.158445116456946, -11.609368038160598 ], [ -65.158442258334077, -11.608996526028902 ], [ -65.158164290489424, -11.608959495556613 ], [ -65.157748391403587, -11.609040822276828 ], [ -65.157710829931972, -11.609314864695497 ], [ -65.157851167546141, -11.60950935965583 ], [ -65.158170457325767, -11.609761179767048 ], [ -65.15823251475517, -11.610093140507299 ], [ -65.157935013156035, -11.610095364854875 ], [ -65.157480046907736, -11.610255201176473 ], [ -65.15722506874161, -11.610628640716021 ], [ -65.157189611924579, -11.611176429141015 ], [ -65.157842764507009, -11.610995556935249 ], [ -65.157861996371125, -11.610917195549064 ], [ -65.157959810130805, -11.610740474640158 ], [ -65.158275641539106, -11.610542569131832 ], [ -65.158454443643308, -11.610580340834966 ], [ -65.158594331125101, -11.610716175414895 ], [ -65.158773283822626, -11.610773500156336 ] ] ], [ [ [ -65.157471168716441, -11.09297947306978 ], [ -65.15794249060518, -11.093254213819835 ], [ -65.158505287221843, -11.093203830652 ], [ -65.159486009654941, -11.092547869211719 ], [ -65.159341140770664, -11.091992676963901 ], [ -65.158350211765224, -11.091258134213561 ], [ -65.158346469255591, -11.090748282912507 ], [ -65.157916637110333, -11.089731603968536 ], [ -65.157531355716117, -11.088390136893114 ], [ -65.157619430035083, -11.087601512661927 ], [ -65.158595036767679, -11.086250305151307 ], [ -65.158402227805681, -11.085556396857703 ], [ -65.157930919355181, -11.085281654465094 ], [ -65.15689275231091, -11.084501087315115 ], [ -65.156375199415521, -11.084319377895655 ], [ -65.155955576130523, -11.084693199097659 ], [ -65.154744645245358, -11.085953375756544 ], [ -65.154086648599545, -11.085819018854595 ], [ -65.153988043393326, -11.085170785523269 ], [ -65.153745265496227, -11.084060054681037 ], [ -65.153880617021869, -11.083317444856549 ], [ -65.154490663066781, -11.08331308773325 ], [ -65.155102406249839, -11.083540480583475 ], [ -65.1561823975631, -11.083625466880356 ], [ -65.156415332134941, -11.083392038371185 ], [ -65.156317742732838, -11.082882857130924 ], [ -65.156311629221946, -11.08204855340861 ], [ -65.156351763208406, -11.08112121378379 ], [ -65.156911480682467, -11.0806536861104 ], [ -65.157428347320121, -11.080742695440883 ], [ -65.157757169853596, -11.080786696294984 ], [ -65.158226090941312, -11.0807369893455 ], [ -65.158973168114841, -11.080221765535029 ], [ -65.158873876787652, -11.07948083497147 ], [ -65.158496770412825, -11.07925177021365 ], [ -65.157840148320076, -11.0793028196414 ], [ -65.157279415698781, -11.079631297762605 ], [ -65.156674472672861, -11.080330912145518 ], [ -65.156672095306448, -11.080006460725649 ], [ -65.156528600534003, -11.079636665380024 ], [ -65.155445230190395, -11.079088175148202 ], [ -65.154460464316188, -11.07918791398256 ], [ -65.154228209026328, -11.079514041267968 ], [ -65.153532457701189, -11.080631473483226 ], [ -65.153349500593364, -11.081281717584003 ], [ -65.153025763634133, -11.081932966557087 ], [ -65.152875775748441, -11.082164528921517 ], [ -65.152864625268023, -11.082045382226491 ], [ -65.153077733011258, -11.081789360329491 ], [ -65.152828097233979, -11.081994956114659 ], [ -65.152819794708478, -11.08200530231335 ], [ -65.152595292029446, -11.082195259954073 ], [ -65.152452731448108, -11.082516741823849 ], [ -65.152105035678034, -11.082610077510578 ], [ -65.151980253789731, -11.082715658153283 ], [ -65.151817648244105, -11.082878192460067 ], [ -65.152122278152461, -11.082965262003551 ], [ -65.152453865914623, -11.082815902486239 ], [ -65.15242250034197, -11.082864326709505 ], [ -65.150884763904259, -11.084358585468147 ], [ -65.15051172028808, -11.084685715330597 ], [ -65.150329771710091, -11.08547501029846 ], [ -65.150706543736888, -11.085657734517048 ], [ -65.152302742486199, -11.085739051413114 ], [ -65.152727121086286, -11.086014138470432 ], [ -65.153390207710558, -11.086843752636167 ], [ -65.153256551598218, -11.087818114036963 ], [ -65.15293857822941, -11.089257318974585 ], [ -65.153134772871951, -11.090414735373352 ], [ -65.153238471756879, -11.091758222903325 ], [ -65.153058906213033, -11.092871970551309 ], [ -65.15241175335845, -11.094220822142809 ], [ -65.152605237411649, -11.095007436049377 ], [ -65.152937811218692, -11.095561292259347 ], [ -65.153783205274337, -11.095647955544996 ], [ -65.155660687953954, -11.095680881147473 ], [ -65.155842622662135, -11.094891584949146 ], [ -65.155699457917549, -11.094568140900243 ], [ -65.155692319872315, -11.093594786906758 ], [ -65.155782777309497, -11.09313061358643 ], [ -65.156062306507266, -11.092850498132739 ], [ -65.156483979195997, -11.09275477583787 ], [ -65.15709438384296, -11.092796759937388 ], [ -65.157471168716441, -11.09297947306978 ] ] ], [ [ [ -65.162123539869469, -11.084255045303928 ], [ -65.162002306852244, -11.083722861029608 ], [ -65.161388517817457, -11.083217382971108 ], [ -65.160613041167039, -11.083060705353315 ], [ -65.160259562041247, -11.082854650933797 ], [ -65.160417509015275, -11.081995998062091 ], [ -65.16067100911178, -11.081368423421557 ], [ -65.161183792555491, -11.080901225116596 ], [ -65.161863028025721, -11.080734124604243 ], [ -65.16211941835617, -11.080500524782776 ], [ -65.162465743926333, -11.079733226817254 ], [ -65.162507051191, -11.078968115037966 ], [ -65.162571821394934, -11.078202835101207 ], [ -65.162047811313286, -11.077140483074357 ], [ -65.161795167176223, -11.077883932931783 ], [ -65.160752781429395, -11.07972232347025 ], [ -65.159966096800346, -11.081234414011345 ], [ -65.159502617597227, -11.082025725545332 ], [ -65.158428243035516, -11.082705527569445 ], [ -65.157684218139281, -11.083637902769649 ], [ -65.158042116618745, -11.084446512295917 ], [ -65.158349010145869, -11.084699255221137 ], [ -65.159728591132449, -11.085639605352354 ], [ -65.159820913467215, -11.085430357743851 ], [ -65.159466240779182, -11.085062077498645 ], [ -65.159312198032737, -11.084854594097356 ], [ -65.160178129750662, -11.084547101198314 ], [ -65.161047463715121, -11.084703106699465 ], [ -65.161587971180339, -11.084815114184531 ], [ -65.162123539869469, -11.084255045303928 ] ] ], [ [ [ -65.182624355371786, -11.080144288097303 ], [ -65.184173230949924, -11.080179430312795 ], [ -65.185443307759996, -11.080587398724873 ], [ -65.186241036075359, -11.080581618662562 ], [ -65.187410376011528, -11.080063272959213 ], [ -65.187262712396134, -11.079137308419634 ], [ -65.186460168764839, -11.078494200413974 ], [ -65.185849113200717, -11.078359572349058 ], [ -65.18463147464125, -11.078692853675795 ], [ -65.184070094815127, -11.078928677058714 ], [ -65.181864618743276, -11.07894463388191 ], [ -65.179843750772505, -11.078542073145254 ], [ -65.179470752418439, -11.078869231520867 ], [ -65.17938445197565, -11.079889598549602 ], [ -65.180001003280395, -11.080765831397226 ], [ -65.180331541319504, -11.081041554340176 ], [ -65.180896363839764, -11.081269231152675 ], [ -65.18168894264987, -11.080568221320558 ], [ -65.182624355371786, -11.080144288097303 ] ] ], [ [ [ -65.188589080126548, -11.074492517421094 ], [ -65.188492131844868, -11.074076054754913 ], [ -65.187542633534207, -11.07259968101031 ], [ -65.187070641469603, -11.072232286602221 ], [ -65.186320892179168, -11.072376772671802 ], [ -65.185805417414542, -11.072473209010967 ], [ -65.185100183279488, -11.072292907079424 ], [ -65.184249709945234, -11.071511079958343 ], [ -65.184015090927275, -11.071512777275069 ], [ -65.183879817771967, -11.072255385801698 ], [ -65.184264146224905, -11.073457753723797 ], [ -65.184600866704457, -11.074567761390059 ], [ -65.185075268280926, -11.075259604879131 ], [ -65.1853599103801, -11.075674710396868 ], [ -65.185977154080106, -11.076643628167833 ], [ -65.187329702093933, -11.075521385400627 ], [ -65.187518776782198, -11.075705422074131 ], [ -65.187945228950525, -11.076258551732321 ], [ -65.188607683544163, -11.076995375866407 ], [ -65.189358820593554, -11.077036278940028 ], [ -65.189494079288252, -11.076293670383722 ], [ -65.189253598809898, -11.075507435937554 ], [ -65.188589080126548, -11.074492517421094 ] ] ], [ [ [ -65.165881765058472, -11.073624973346792 ], [ -65.165911230238521, -11.073377549207246 ], [ -65.166189823759979, -11.072973829535023 ], [ -65.166172364157191, -11.072726742129918 ], [ -65.165966979300819, -11.07245010149404 ], [ -65.165978985208739, -11.071955589896808 ], [ -65.165991218447331, -11.071491978253837 ], [ -65.165863133276446, -11.071091176400431 ], [ -65.165690168789311, -11.070968810720894 ], [ -65.16542403729018, -11.070939817927522 ], [ -65.165191005605905, -11.071157800391777 ], [ -65.165132073721878, -11.0716526487445 ], [ -65.165074391015537, -11.072317446994727 ], [ -65.164765875806822, -11.072906790060077 ], [ -65.164394679671361, -11.073481131641014 ], [ -65.16425821992641, -11.074069240844265 ], [ -65.163763364280953, -11.07484532930237 ], [ -65.164890131081279, -11.074914503575178 ], [ -65.165329801312666, -11.075143111644531 ], [ -65.165626765511504, -11.075110079411498 ], [ -65.165750535161123, -11.074923781769476 ], [ -65.165841089689323, -11.074475058935107 ], [ -65.166042385195638, -11.074195500190083 ], [ -65.166040226129425, -11.073901950609544 ], [ -65.165881765058472, -11.073624973346792 ] ] ], [ [ [ -65.163223827586208, -11.070079016642621 ], [ -65.163126739749998, -11.070535957105829 ], [ -65.162788477229668, -11.070644972106354 ], [ -65.162742515180355, -11.07130298509915 ], [ -65.162570802051491, -11.071385067712718 ], [ -65.162614337621648, -11.071994444287862 ], [ -65.162832001387798, -11.072342713300714 ], [ -65.163006037071966, -11.072342713300714 ], [ -65.163113230613334, -11.072050339719569 ], [ -65.163571992535751, -11.071863827908413 ], [ -65.163679186041804, -11.071614989361327 ], [ -65.164389195079409, -11.071214706870753 ], [ -65.165008637835129, -11.071428478079591 ], [ -65.165139242407832, -11.070949706611263 ], [ -65.164860704082102, -11.070899289884741 ], [ -65.164790973534707, -11.070732042705503 ], [ -65.164486332742896, -11.070732042705504 ], [ -65.164147664628643, -11.070980054872114 ], [ -65.164225007193195, -11.070601437070655 ], [ -65.163920610105336, -11.07046680073894 ], [ -65.164094402242554, -11.070296564010313 ], [ -65.164011284338045, -11.070068395207977 ], [ -65.164419250128688, -11.069524476033537 ], [ -65.164703892742438, -11.069512933361397 ], [ -65.164776509930689, -11.069301726642157 ], [ -65.165792268477603, -11.069512936510156 ], [ -65.165792268477631, -11.069208315929162 ], [ -65.165437800751093, -11.069336342104636 ], [ -65.165182788856072, -11.068903571207356 ], [ -65.164834613027892, -11.068860036171726 ], [ -65.164246316599346, -11.069503166043917 ], [ -65.163833317928891, -11.06955659936219 ], [ -65.163593290990931, -11.070330331699431 ], [ -65.163223827586208, -11.070079016642621 ] ] ], [ [ [ -65.187289429352973, -11.070098519695696 ], [ -65.187386717751266, -11.07056133270695 ], [ -65.187439836415962, -11.071395279824468 ], [ -65.187909073149271, -11.071391879724352 ], [ -65.188563593810017, -11.07106267364391 ], [ -65.189214668423602, -11.070269974142402 ], [ -65.188879317000314, -11.069345370674865 ], [ -65.188264494470459, -11.068700902157167 ], [ -65.187649674663561, -11.068056431848829 ], [ -65.186939291568621, -11.067180892776188 ], [ -65.186696766272973, -11.066116557228211 ], [ -65.186646748419804, -11.065699753032066 ], [ -65.185135596596155, -11.06441283662166 ], [ -65.184009452745386, -11.064420980229785 ], [ -65.183306299024551, -11.064518766715869 ], [ -65.181761622467619, -11.065039798070945 ], [ -65.182094886522435, -11.065686318097166 ], [ -65.18289841243697, -11.06646849497651 ], [ -65.184262271768503, -11.066875801999416 ], [ -65.185437066484397, -11.067099062922482 ], [ -65.185955970630857, -11.067466122334029 ], [ -65.185865562636295, -11.067930294968738 ], [ -65.185540881990065, -11.068442514995072 ], [ -65.185222388237506, -11.069789023260803 ], [ -65.185459068663988, -11.070065421342591 ], [ -65.18578753334755, -11.070063043784726 ], [ -65.186865741767548, -11.069916181392042 ], [ -65.187289429352973, -11.070098519695696 ] ] ], [ [ [ -65.163915384706968, -11.06466215083246 ], [ -65.163978799883068, -11.064777577734064 ], [ -65.164033600520753, -11.064784910580713 ], [ -65.164182134438249, -11.064776121099774 ], [ -65.164431427967017, -11.064643003097919 ], [ -65.164462086193183, -11.064557803944416 ], [ -65.164484753677144, -11.064449485818621 ], [ -65.164311623882142, -11.064303943448119 ], [ -65.16417034359209, -11.064235426887764 ], [ -65.163959926113634, -11.064337364522546 ], [ -65.163882627987277, -11.06446152478253 ], [ -65.163915384706968, -11.06466215083246 ] ] ], [ [ [ -65.166900831009542, -11.063304257311067 ], [ -65.166704637005438, -11.063212959605464 ], [ -65.166304372036208, -11.063022694821463 ], [ -65.165661728771425, -11.062841892224256 ], [ -65.165544875228292, -11.062904533013748 ], [ -65.1653819497337, -11.063083385034302 ], [ -65.165260679968966, -11.063609581695564 ], [ -65.165699480485287, -11.063722317569297 ], [ -65.165830953690573, -11.063520514623621 ], [ -65.166176248503788, -11.063680272503595 ], [ -65.166404576433763, -11.063887221090553 ], [ -65.166561157241674, -11.063909274422839 ], [ -65.166834648413655, -11.063876411390153 ], [ -65.166966064006814, -11.063666883096079 ], [ -65.166900831009542, -11.063304257311067 ] ] ], [ [ [ -65.180881942554834, -11.062948723098167 ], [ -65.180947020562542, -11.063288167874889 ], [ -65.18109053183062, -11.063657947691736 ], [ -65.181279822966829, -11.06387289026026 ], [ -65.181530077224153, -11.063871083280148 ], [ -65.182045425931861, -11.063759206965683 ], [ -65.182638864023247, -11.063631315048227 ], [ -65.183010812382008, -11.063165108453177 ], [ -65.182915708917747, -11.062995838544296 ], [ -65.182742172686261, -11.062796233933085 ], [ -65.182443738949246, -11.062628432659334 ], [ -65.182115739241468, -11.062692604304026 ], [ -65.181663070034872, -11.062819478465991 ], [ -65.181224898032184, -11.062791740775481 ], [ -65.180881942554834, -11.062948723098167 ] ] ], [ [ [ -65.163397405676847, -11.056955896529008 ], [ -65.163305601043874, -11.057234668545256 ], [ -65.162904606960993, -11.058010079882433 ], [ -65.162938154615603, -11.058318856559154 ], [ -65.163126750613031, -11.058441113589257 ], [ -65.164126400622024, -11.058248547858353 ], [ -65.164686520048505, -11.057842815630181 ], [ -65.164716894382494, -11.057718991542156 ], [ -65.164775828711186, -11.057224143241816 ], [ -65.164894150801459, -11.056296246704814 ], [ -65.164795091371943, -11.055586218306589 ], [ -65.164390928903416, -11.055929030172255 ], [ -65.163987445513371, -11.056364541769529 ], [ -65.163397405676847, -11.056955896529008 ] ] ], [ [ [ -65.165479195997975, -11.055025089693139 ], [ -65.165514333115269, -11.055550165728294 ], [ -65.16551750874261, -11.055982765782893 ], [ -65.166390434240697, -11.055574790727213 ], [ -65.166605998694649, -11.055109721844783 ], [ -65.166570859861338, -11.054584646279384 ], [ -65.166348261891599, -11.054091815425133 ], [ -65.165941154385862, -11.054032928695834 ], [ -65.165692266759194, -11.054220121216318 ], [ -65.165479195997975, -11.055025089693139 ] ] ], [ [ [ -65.167916173889964, -11.054605904739262 ], [ -65.168513921178558, -11.055065141792095 ], [ -65.168920348475609, -11.055031324878083 ], [ -65.169420618851149, -11.054996834086223 ], [ -65.169544379805771, -11.054810536705503 ], [ -65.169199152033997, -11.05465850595612 ], [ -65.168634275794304, -11.054415345538366 ], [ -65.168039254602192, -11.05432690795714 ], [ -65.167916173889964, -11.054605904739262 ] ] ], [ [ [ -65.171974369751013, -11.049922295127596 ], [ -65.171970093338743, -11.050005854946679 ], [ -65.171575501331844, -11.050253431894593 ], [ -65.170953981529706, -11.050814121141821 ], [ -65.170392293761608, -11.051003561623753 ], [ -65.169707526951598, -11.051471998193813 ], [ -65.16933715559729, -11.052154489459483 ], [ -65.169031843032613, -11.0531764311426 ], [ -65.169164008848966, -11.054133431539821 ], [ -65.16985309980349, -11.054252093398546 ], [ -65.170165000666955, -11.054126248748981 ], [ -65.170912788438571, -11.05371916082751 ], [ -65.171942556566947, -11.053371849188151 ], [ -65.1727535835239, -11.053057007746437 ], [ -65.17309630707183, -11.05286913606713 ], [ -65.174092511109777, -11.052213044560821 ], [ -65.174368345512519, -11.051438524749543 ], [ -65.174546011656517, -11.05007758287843 ], [ -65.174761559778375, -11.049612511213176 ], [ -65.175319597201025, -11.048928666576426 ], [ -65.175942242519028, -11.048522469632273 ], [ -65.176811937808338, -11.047681874153502 ], [ -65.176993922433738, -11.046908029042077 ], [ -65.177172488839233, -11.045670687204087 ], [ -65.177293279562363, -11.045082691033496 ], [ -65.177758831539677, -11.044584918246338 ], [ -65.178254522143746, -11.043932421050169 ], [ -65.178501568908558, -11.043498023128491 ], [ -65.178528745893317, -11.04294160225658 ], [ -65.178681497086643, -11.042446080295825 ], [ -65.179052976534237, -11.041918082350591 ], [ -65.179205042722771, -11.041329861107778 ], [ -65.179702321590938, -11.040893661253703 ], [ -65.180169231795887, -11.040581285057366 ], [ -65.18029229667286, -11.040302286351563 ], [ -65.180569477030417, -11.039713163883086 ], [ -65.180878163719498, -11.039154715753343 ], [ -65.180654648331952, -11.038538298384291 ], [ -65.18027907090439, -11.038510101832728 ], [ -65.18006080102289, -11.038604377689127 ], [ -65.179902581579753, -11.038358305829174 ], [ -65.179679069016004, -11.037741887207162 ], [ -65.17959868044376, -11.039565647883943 ], [ -65.179448438993035, -11.040401067055219 ], [ -65.178953667531445, -11.041177163749525 ], [ -65.177309979004704, -11.043104879733365 ], [ -65.175225619568323, -11.044664940999159 ], [ -65.17495047325292, -11.045532159778954 ], [ -65.173775711189805, -11.047425592261511 ], [ -65.173344385360778, -11.048324834397349 ], [ -65.172974480767706, -11.049069127640232 ], [ -65.172912595695379, -11.049137067644676 ], [ -65.172888605499878, -11.049138664485552 ], [ -65.172891892820232, -11.049159796112903 ], [ -65.172322822857652, -11.04978454285969 ], [ -65.172234780384485, -11.049839783163618 ], [ -65.171974369751013, -11.049922295127596 ] ] ], [ [ [ -65.195107742672533, -11.017660585304876 ], [ -65.193895282617774, -11.018658194471042 ], [ -65.19289557130412, -11.018819930360911 ], [ -65.191397945578345, -11.019325174525067 ], [ -65.190936111898125, -11.020317349915748 ], [ -65.189942793718615, -11.021344265391207 ], [ -65.190168136684562, -11.022207871842282 ], [ -65.189891901521307, -11.022920595216439 ], [ -65.189743518959901, -11.024003209730299 ], [ -65.190247388291766, -11.024463087816162 ], [ -65.191279314069547, -11.024424728841387 ], [ -65.192342745235095, -11.024417039712043 ], [ -65.193530826826972, -11.024346642594539 ], [ -65.194811821969239, -11.024151963715017 ], [ -65.195309278081155, -11.023746647135455 ], [ -65.195771786759522, -11.022847165408052 ], [ -65.197953610781653, -11.021811620357958 ], [ -65.198974041626613, -11.020228267957977 ], [ -65.199685370377821, -11.019141572637217 ], [ -65.199990558630333, -11.018119624832389 ], [ -65.199798307136334, -11.017502998533235 ], [ -65.199139894010997, -11.017291465632114 ], [ -65.19835752290831, -11.017235334866719 ], [ -65.196450114221548, -11.017310955249647 ], [ -65.195107742672533, -11.017660585304876 ] ] ], [ [ [ -65.209483262846391, -11.015995713827058 ], [ -65.209402766844377, -11.015687291567154 ], [ -65.209151059583249, -11.015488269081674 ], [ -65.208851862305323, -11.015212339935761 ], [ -65.208710082883712, -11.015074318284242 ], [ -65.208557620641969, -11.01560074305908 ], [ -65.208685606205179, -11.015986072122729 ], [ -65.209046319184111, -11.016122499461622 ], [ -65.209483262846391, -11.015995713827058 ] ] ], [ [ [ -65.213191828148453, -11.01000482792854 ], [ -65.212537005889629, -11.010272259034561 ], [ -65.21197727769308, -11.010708950351271 ], [ -65.211683620805104, -11.011174602798974 ], [ -65.211436530481848, -11.01159356454874 ], [ -65.211190131558524, -11.012105223658645 ], [ -65.210771138752932, -11.012540888141389 ], [ -65.210429527045122, -11.012867835629351 ], [ -65.210353413071104, -11.013146497658225 ], [ -65.210950421356543, -11.013512958028437 ], [ -65.211123822618362, -11.013697099382368 ], [ -65.21121776551189, -11.013711865168032 ], [ -65.212169601229974, -11.013426819600037 ], [ -65.211885926693938, -11.013135329980868 ], [ -65.211259372965301, -11.013000843010154 ], [ -65.211505426123239, -11.012442835043498 ], [ -65.211939478486457, -11.011929807967825 ], [ -65.212577397665086, -11.011492546235109 ], [ -65.213292118409257, -11.010869318668075 ], [ -65.213459054346558, -11.010188283904801 ], [ -65.213191828148453, -11.01000482792854 ] ] ], [ [ [ -65.158545580201121, -11.61726726003319 ], [ -65.159539084263841, -11.617494476676878 ], [ -65.160291568610347, -11.617332407459747 ], [ -65.16064526406501, -11.616899562572483 ], [ -65.160399423070373, -11.615884576873954 ], [ -65.159954945759551, -11.614831968950176 ], [ -65.158684381040558, -11.61468504268213 ], [ -65.157455590211939, -11.614811559829807 ], [ -65.155754994856252, -11.615489121209979 ], [ -65.15500701880994, -11.616237777351536 ], [ -65.154496745972537, -11.616945548142136 ], [ -65.153111070228604, -11.617307873786457 ], [ -65.153554027307663, -11.618164962760316 ], [ -65.15383170425919, -11.618162889505527 ], [ -65.154265349084, -11.617807671374853 ], [ -65.154739261899991, -11.617530369703596 ], [ -65.15620397026089, -11.617128336850431 ], [ -65.157314972608233, -11.617159139309356 ], [ -65.158545580201121, -11.61726726003319 ] ] ], [ [ [ -65.143351207335684, -11.617185009630941 ], [ -65.142894872735098, -11.617168845243279 ], [ -65.142359948545334, -11.617251036660084 ], [ -65.14213983070411, -11.616998461765917 ], [ -65.142114319801067, -11.616255577165823 ], [ -65.142033937822632, -11.616119291929577 ], [ -65.141955647118166, -11.616256755282274 ], [ -65.141600873762826, -11.616552707888003 ], [ -65.140849715437824, -11.616890711239405 ], [ -65.139977460498599, -11.61695584681987 ], [ -65.138963381997982, -11.616630939093374 ], [ -65.138287082118467, -11.616381742526018 ], [ -65.137610485059184, -11.616093437097661 ], [ -65.137607652826901, -11.61572192003996 ], [ -65.137662832327052, -11.615154426824002 ], [ -65.137676704203841, -11.614372138673195 ], [ -65.137928881934315, -11.613627194261523 ], [ -65.137905768820971, -11.613197163574668 ], [ -65.137726667357143, -11.613120271877275 ], [ -65.137334012240984, -11.613651155673397 ], [ -65.137199495792373, -11.614219236584839 ], [ -65.136925693659563, -11.614729685189591 ], [ -65.136554061082137, -11.615416849979146 ], [ -65.13578038215131, -11.615403023611439 ], [ -65.134923198170455, -11.614842282411608 ], [ -65.134741255623354, -11.614415790403108 ], [ -65.134751787924458, -11.614310497540068 ], [ -65.1346883805804, -11.614291845546253 ], [ -65.134640460502695, -11.614179515539782 ], [ -65.134314708345443, -11.614181925243685 ], [ -65.134011807874529, -11.614092822889592 ], [ -65.133837678630528, -11.614223427468765 ], [ -65.133850044464765, -11.614334686454402 ], [ -65.133412981109529, -11.61448191399721 ], [ -65.132858965433371, -11.614662001991194 ], [ -65.132583667322848, -11.61497691197887 ], [ -65.132648671997529, -11.615699955140789 ], [ -65.133308703772244, -11.616418598800356 ], [ -65.133727454172146, -11.616708822167764 ], [ -65.1347416791168, -11.617053302898995 ], [ -65.135754565399395, -11.617221797653807 ], [ -65.137265394912561, -11.617660364731679 ], [ -65.138039675923409, -11.617752400085713 ], [ -65.138135566426413, -11.617321487576985 ], [ -65.138212368171438, -11.616988489687966 ], [ -65.138569085200672, -11.616946736238145 ], [ -65.138828421156731, -11.617140359790101 ], [ -65.139108039218655, -11.617392496491446 ], [ -65.13926999530517, -11.617821496954299 ], [ -65.139948986006459, -11.618422653356683 ], [ -65.141469502405997, -11.61753141244078 ], [ -65.141906003750648, -11.617547726267631 ], [ -65.142582308311248, -11.617796913259836 ], [ -65.142862677153488, -11.618146812891473 ], [ -65.143480378094708, -11.618513760104504 ], [ -65.143735382056846, -11.618140328390909 ], [ -65.143631127733769, -11.617476248117184 ], [ -65.143351207335684, -11.617185009630941 ] ] ], [ [ [ -65.125336852383498, -11.612129236614724 ], [ -65.124999950833427, -11.611654860892479 ], [ -65.124651786104167, -11.611698395400323 ], [ -65.124477582734102, -11.611917339413248 ], [ -65.124521180997291, -11.612307761232008 ], [ -65.125175493557293, -11.612438428673245 ], [ -65.125696532903973, -11.612308792635734 ], [ -65.126001361311395, -11.612568970918215 ], [ -65.1263060233982, -11.612439397739028 ], [ -65.126872072923419, -11.612786646624448 ], [ -65.127171571344903, -11.612699881716125 ], [ -65.127526385483179, -11.612830243994159 ], [ -65.127615092765708, -11.612745759464682 ], [ -65.128920380584972, -11.613185374400308 ], [ -65.129836309842418, -11.613647929173549 ], [ -65.130576635866134, -11.611882539108107 ], [ -65.132393031930974, -11.610774060724737 ], [ -65.13476922009302, -11.610248073975805 ], [ -65.137596636495445, -11.61167419189962 ], [ -65.138155262423169, -11.612100255709814 ], [ -65.138714784558971, -11.612643639244562 ], [ -65.138411158752717, -11.614444914987871 ], [ -65.137786905139947, -11.61581836503823 ], [ -65.138624113369431, -11.616359689667869 ], [ -65.140450047002304, -11.616502584951178 ], [ -65.141872128601989, -11.615709847021028 ], [ -65.142062403316544, -11.614652486937784 ], [ -65.142850682049527, -11.613981778209808 ], [ -65.143762145001574, -11.613857680611178 ], [ -65.144872543516328, -11.613810319817304 ], [ -65.145864536177939, -11.613842053520985 ], [ -65.146029491532047, -11.61466211728402 ], [ -65.147287184273381, -11.613127507475825 ], [ -65.148035477306806, -11.612417975828844 ], [ -65.14703690535535, -11.611525898547157 ], [ -65.146991850354695, -11.610822270695872 ], [ -65.14658769671027, -11.609847550091313 ], [ -65.146423343535005, -11.609105699883081 ], [ -65.146658353727815, -11.608712861614871 ], [ -65.147844171735557, -11.608156514475317 ], [ -65.148399208441035, -11.608113275395663 ], [ -65.148470757113884, -11.607095908136253 ], [ -65.149529776328507, -11.605523665062075 ], [ -65.150270556136562, -11.603836462745777 ], [ -65.150139576074423, -11.602273077925675 ], [ -65.148940017469002, -11.601030516460135 ], [ -65.14810224756603, -11.60041100300681 ], [ -65.146469074254668, -11.599523633937396 ], [ -65.146739260161894, -11.598543899026764 ], [ -65.148003771295762, -11.597908755387744 ], [ -65.147481243302451, -11.597013130835316 ], [ -65.146408486422914, -11.596786447031105 ], [ -65.145224201963444, -11.597538315229011 ], [ -65.144318465473859, -11.598405439837691 ], [ -65.143650120685678, -11.599192582789371 ], [ -65.142899456161743, -11.599589243647243 ], [ -65.141908705895901, -11.599713918707625 ], [ -65.1404813312908, -11.599802716785875 ], [ -65.137504298167855, -11.599953824685826 ], [ -65.136768995237745, -11.599360887625938 ], [ -65.136328207432683, -11.598777507469748 ], [ -65.135711453466399, -11.598527856609287 ], [ -65.135394126789464, -11.598530202182172 ], [ -65.135081557284977, -11.599158262120548 ], [ -65.135031723259033, -11.599427155443708 ], [ -65.134236395492366, -11.599136432262968 ], [ -65.134248275179388, -11.599125309831701 ], [ -65.134403520777042, -11.59867440501144 ], [ -65.134500010344368, -11.5983217077203 ], [ -65.134200436252698, -11.598050155062888 ], [ -65.133505690377973, -11.597977067290651 ], [ -65.133108735196004, -11.597940888815943 ], [ -65.132662940161524, -11.598002843846597 ], [ -65.131855699298583, -11.597480823725446 ], [ -65.130067178937253, -11.597024700441299 ], [ -65.129393750255147, -11.597146992524426 ], [ -65.128841393157899, -11.597542157762232 ], [ -65.127689897445165, -11.597394201309569 ], [ -65.126771659493429, -11.596618770193057 ], [ -65.126015937211733, -11.596350564298845 ], [ -65.125141514663156, -11.596122338745065 ], [ -65.124183917125308, -11.59538629651049 ], [ -65.123543649202077, -11.594647918738323 ], [ -65.122859286881535, -11.593323217829699 ], [ -65.122096192018731, -11.592077311479695 ], [ -65.120864797045286, -11.591851690461001 ], [ -65.119405145602144, -11.592918359172653 ], [ -65.119185442244913, -11.59534477458064 ], [ -65.11911466644024, -11.596479476273851 ], [ -65.118414837347075, -11.598361876149326 ], [ -65.117274245669918, -11.599660859808077 ], [ -65.116968707803508, -11.601227490450071 ], [ -65.116465128239383, -11.602834682320998 ], [ -65.115887221826526, -11.605107285380724 ], [ -65.114188009213009, -11.605980147787431 ], [ -65.111933143808102, -11.606817957024454 ], [ -65.11166047329931, -11.607484819648004 ], [ -65.110000897863983, -11.608357371900732 ], [ -65.108418295907668, -11.608916474329485 ], [ -65.107861768576768, -11.608764098653353 ], [ -65.107473901303308, -11.609940230170755 ], [ -65.107800355494021, -11.611150255801826 ], [ -65.108720958673288, -11.612238609859252 ], [ -65.109474365186657, -11.612193993909958 ], [ -65.109820203751624, -11.610705288525711 ], [ -65.110409343067445, -11.609918783107522 ], [ -65.111236781314005, -11.609169644143941 ], [ -65.111988117443317, -11.608851269007324 ], [ -65.112078640644853, -11.610336782167838 ], [ -65.112319888387816, -11.610765225367452 ], [ -65.113037450067267, -11.611229291288366 ], [ -65.113597160945915, -11.611454413727216 ], [ -65.113593887044587, -11.611480595553891 ], [ -65.113985691466979, -11.611741805240069 ], [ -65.11433661831154, -11.611677221306183 ], [ -65.114508007236836, -11.611785340275739 ], [ -65.114720954131485, -11.611657569329918 ], [ -65.115143402307751, -11.611683183116812 ], [ -65.117558143121045, -11.611000610144766 ], [ -65.119934678544467, -11.610513847948001 ], [ -65.121482022815471, -11.610541588656323 ], [ -65.124225027740792, -11.611303606144467 ], [ -65.125815300639587, -11.611761211910103 ], [ -65.126077806699072, -11.611915221535769 ], [ -65.125992906123287, -11.612092986136325 ], [ -65.125696616061632, -11.612003141177844 ], [ -65.125336852383498, -11.612129236614724 ] ] ], [ [ [ -65.152671189866112, -11.609098283958309 ], [ -65.152454522108684, -11.609295444312325 ], [ -65.152597106924333, -11.609783242656659 ], [ -65.152916993622128, -11.610113282725612 ], [ -65.153454599583824, -11.610383034643265 ], [ -65.153654586004095, -11.610596641452732 ], [ -65.154028720635452, -11.610241869501484 ], [ -65.154305638895167, -11.610142030572437 ], [ -65.154508328732632, -11.610707596455416 ], [ -65.154571583851308, -11.611195985238192 ], [ -65.15483107240243, -11.611409146764759 ], [ -65.155325709794994, -11.611249017805436 ], [ -65.155479870904642, -11.610661233662496 ], [ -65.155436898705972, -11.610231357136557 ], [ -65.155512927480871, -11.609800591935945 ], [ -65.155512176326326, -11.609702825399784 ], [ -65.154836487366509, -11.609531880450383 ], [ -65.154434262969687, -11.608811368462526 ], [ -65.154353728285358, -11.608655533955325 ], [ -65.154075910721915, -11.608638052712807 ], [ -65.153762028686074, -11.609090147093633 ], [ -65.153704629778801, -11.609364337667046 ], [ -65.153367161009214, -11.609327746457842 ], [ -65.153147192360777, -11.609094733832453 ], [ -65.152671189866112, -11.609098283958309 ] ] ], [ [ [ -65.15228033834525, -11.602100697341774 ], [ -65.152165537822768, -11.602649078155046 ], [ -65.152289932764177, -11.603352112279099 ], [ -65.152455794141986, -11.604289490806082 ], [ -65.151706632921218, -11.604881708281836 ], [ -65.151196366117674, -11.605589471556573 ], [ -65.151320161787098, -11.60621429270137 ], [ -65.151878191599096, -11.60656211488007 ], [ -65.153222352698052, -11.605965459778712 ], [ -65.153775281607039, -11.605648464571184 ], [ -65.154800601856465, -11.604858637053979 ], [ -65.154913295538066, -11.604036509510255 ], [ -65.154551798000554, -11.603452573385354 ], [ -65.154113070795347, -11.603142974915704 ], [ -65.153513880632417, -11.602599918612968 ], [ -65.15228033834525, -11.602100697341774 ] ] ], [ [ [ -65.13871975688447, -11.589862449408317 ], [ -65.138643106143803, -11.590215000145845 ], [ -65.138566083295075, -11.590518667010798 ], [ -65.138307742480805, -11.59045213662144 ], [ -65.138128582224326, -11.590365465738889 ], [ -65.137890297016824, -11.590328118599436 ], [ -65.137771526271052, -11.590358328856221 ], [ -65.137523919795626, -11.590399268988184 ], [ -65.137434451287518, -11.590370598470264 ], [ -65.137609149645215, -11.589870662898674 ], [ -65.137735679803939, -11.589556852756566 ], [ -65.137722863579825, -11.589175631582512 ], [ -65.13762990077808, -11.588687452269754 ], [ -65.137805787975779, -11.588343945285585 ], [ -65.138060557185966, -11.587941191033492 ], [ -65.138487468735732, -11.588006475440734 ], [ -65.138763779639078, -11.587828439979058 ], [ -65.138919312150691, -11.587416641889778 ], [ -65.138928633073775, -11.587338354340565 ], [ -65.138928335514578, -11.587299247238546 ], [ -65.13876551344913, -11.586752921216474 ], [ -65.138603510280277, -11.586314139532892 ], [ -65.13858286018521, -11.586206741624709 ], [ -65.138442946693488, -11.584760731423911 ], [ -65.138610875095907, -11.583371109027473 ], [ -65.13892015310249, -11.582312870865419 ], [ -65.139669444557157, -11.581740245148181 ], [ -65.139902366531743, -11.581073664416195 ], [ -65.139758785087466, -11.580448977561772 ], [ -65.139916545237099, -11.58033048294241 ], [ -65.140392205430715, -11.580287855374577 ], [ -65.140929443591958, -11.580518536325167 ], [ -65.141285221115155, -11.580359466503468 ], [ -65.141399000549356, -11.579674212371836 ], [ -65.140817041604862, -11.578779005224181 ], [ -65.14057236921218, -11.577900856292359 ], [ -65.140146837129024, -11.576711169904199 ], [ -65.139963299197362, -11.576047668836747 ], [ -65.140274353353234, -11.575224073661438 ], [ -65.140447034150114, -11.57446016554081 ], [ -65.140564533861223, -11.574263750240023 ], [ -65.14095357080717, -11.573263586479294 ], [ -65.141070921039088, -11.573047617566257 ], [ -65.141783648318608, -11.572885908704903 ], [ -65.14249369549222, -11.572372234778783 ], [ -65.142209514294649, -11.571513933812369 ], [ -65.141787262960577, -11.570754426673474 ], [ -65.140931858388413, -11.570408768760268 ], [ -65.140254784545732, -11.570042235345294 ], [ -65.140346357949198, -11.569044271109473 ], [ -65.140735094587711, -11.568005001342257 ], [ -65.140550227113906, -11.567165517502248 ], [ -65.140169284175627, -11.566620801948046 ], [ -65.139673073212847, -11.566565803734742 ], [ -65.139300153465982, -11.567076979570469 ], [ -65.139091225238502, -11.568290912257277 ], [ -65.13921362635017, -11.568739765622196 ], [ -65.139297257773961, -11.569306233257795 ], [ -65.13847193792725, -11.57030961727153 ], [ -65.138058904626703, -11.570762424801293 ], [ -65.137805854141632, -11.571390042992421 ], [ -65.138048132663954, -11.571955339839759 ], [ -65.138840630052755, -11.571851713365991 ], [ -65.139156885784772, -11.571712494352184 ], [ -65.139574525258197, -11.571865845831661 ], [ -65.139579281254584, -11.572491559850462 ], [ -65.139286422780643, -11.573099918488742 ], [ -65.138992522999956, -11.573571402050929 ], [ -65.138973583499634, -11.573688869986453 ], [ -65.13943133421698, -11.573900588787174 ], [ -65.139887301475042, -11.57387766405871 ], [ -65.140028349535612, -11.574169941231746 ], [ -65.139853883442314, -11.574699206614847 ], [ -65.139519429140378, -11.575053662634433 ], [ -65.138926276137298, -11.575292702158341 ], [ -65.138574514889882, -11.575979714652609 ], [ -65.138574663495447, -11.575999268223413 ], [ -65.137986707519559, -11.576922681505961 ], [ -65.137634051088483, -11.577492372068164 ], [ -65.137295283248264, -11.577279772573402 ], [ -65.136976792790392, -11.577125686929863 ], [ -65.136760726438524, -11.577401047862285 ], [ -65.136643816848988, -11.577675676653831 ], [ -65.136923833119198, -11.577986484167246 ], [ -65.137183275859016, -11.578199669824503 ], [ -65.137225761107061, -11.578570895021299 ], [ -65.13691083368083, -11.578886095691749 ], [ -65.13631663056816, -11.578988256459631 ], [ -65.135741813004472, -11.579031608904559 ], [ -65.135626386413065, -11.579501773591266 ], [ -65.135749681171148, -11.580067949824828 ], [ -65.135734451999696, -11.580674257847438 ], [ -65.136075154025235, -11.58114105535946 ], [ -65.136532768016707, -11.581333223297317 ], [ -65.136186936480527, -11.582802378697181 ], [ -65.135936994551997, -11.583840622902457 ], [ -65.135425968999883, -11.584450591533273 ], [ -65.135173647900345, -11.585175978097675 ], [ -65.135218212277593, -11.585820954117349 ], [ -65.134631565617696, -11.586920348032841 ], [ -65.134279041234947, -11.587509591165247 ], [ -65.13353046507595, -11.588179975448762 ], [ -65.133176453062319, -11.58857368164788 ], [ -65.132667936189947, -11.589516059472325 ], [ -65.132712052227049, -11.590102375712013 ], [ -65.133113448671963, -11.590725165352422 ], [ -65.133672912667635, -11.591268568648109 ], [ -65.13462457190488, -11.591222433691806 ], [ -65.135653776637213, -11.590941066555656 ], [ -65.136247558814034, -11.590780241978395 ], [ -65.136883086346771, -11.590892873136479 ], [ -65.137361145010019, -11.591163104405314 ], [ -65.138914618093267, -11.59201201909192 ], [ -65.1392112111063, -11.591892496477222 ], [ -65.139584081305898, -11.591371538943903 ], [ -65.139600787243751, -11.590960767876799 ], [ -65.139468974263579, -11.590580427910115 ], [ -65.139366984567658, -11.590209644449027 ], [ -65.139275357863553, -11.589897448152415 ], [ -65.138986897165552, -11.589782254545877 ], [ -65.13871975688447, -11.589862449408317 ] ] ], [ [ [ -65.140489637151759, -11.100976722174325 ], [ -65.140900416128503, -11.101530038512943 ], [ -65.141185824797773, -11.102053343466819 ], [ -65.142001756768707, -11.102387462560905 ], [ -65.143411686654048, -11.10265554748076 ], [ -65.145132228026739, -11.102612393307503 ], [ -65.145501348130935, -11.10174450954198 ], [ -65.14518374385878, -11.101097831604989 ], [ -65.145243834695449, -11.100757482292872 ], [ -65.145587308586656, -11.100662329671255 ], [ -65.14630351016082, -11.100193697661943 ], [ -65.14689072557546, -11.099200651413518 ], [ -65.146511001428522, -11.09861622141235 ], [ -65.14581322769881, -11.09732331207765 ], [ -65.145431703946187, -11.096491677152427 ], [ -65.145332432556017, -11.095750737515054 ], [ -65.144014816916638, -11.095265685236047 ], [ -65.143200932841665, -11.09520967161521 ], [ -65.142546631719156, -11.095585148917085 ], [ -65.141861493114533, -11.096022648324357 ], [ -65.140838058019753, -11.097266003244401 ], [ -65.140058603912792, -11.09764236584356 ], [ -65.139589085444058, -11.097614798941962 ], [ -65.138809178457961, -11.09792935784249 ], [ -65.138564510477266, -11.098703646500523 ], [ -65.138817500593021, -11.099072674909188 ], [ -65.139227823526724, -11.099564193773222 ], [ -65.140046898018625, -11.100330925987594 ], [ -65.140489637151759, -11.100976722174325 ] ] ], [ [ [ -65.143468183721808, -11.091097807150401 ], [ -65.142783056083573, -11.091535306574695 ], [ -65.142663318545658, -11.092277805760206 ], [ -65.142917207016879, -11.092770432501009 ], [ -65.1431079619, -11.093186252879986 ], [ -65.143406978306501, -11.093431342117039 ], [ -65.143532008486119, -11.093415001803359 ], [ -65.143920713582403, -11.093087765962498 ], [ -65.144433771388407, -11.092651488070519 ], [ -65.144885947269117, -11.092447407520771 ], [ -65.145183498403583, -11.092491642631012 ], [ -65.145092572677655, -11.092894015182743 ], [ -65.144630276558246, -11.093855266122734 ], [ -65.144819118220823, -11.094008431846241 ], [ -65.145431332586909, -11.094297642103298 ], [ -65.146043435175173, -11.09457140072457 ], [ -65.146995506947292, -11.094271050289237 ], [ -65.147274144097622, -11.093867340051887 ], [ -65.147643025571028, -11.092968556124067 ], [ -65.148188039332837, -11.092624750801679 ], [ -65.149203463238365, -11.092432099850054 ], [ -65.149760614491456, -11.091609226727398 ], [ -65.150477014182925, -11.091171490121486 ], [ -65.15083397000582, -11.090782670045407 ], [ -65.150813355019395, -11.0901029765232 ], [ -65.150855310691469, -11.089422836523362 ], [ -65.151006312166857, -11.088680114806937 ], [ -65.151220900188548, -11.088075997714125 ], [ -65.151873589259722, -11.087484205046879 ], [ -65.152402832175838, -11.087125056337634 ], [ -65.152136006554016, -11.087003353696971 ], [ -65.151508953392039, -11.086822417748222 ], [ -65.151102024437449, -11.08679441928615 ], [ -65.15094808572529, -11.087135437824248 ], [ -65.150685440269768, -11.087585388278184 ], [ -65.15027862305999, -11.087572839012891 ], [ -65.150011684581301, -11.087435684277509 ], [ -65.149884738006904, -11.087189374543652 ], [ -65.149488821799437, -11.08652780694185 ], [ -65.149237978551128, -11.086452340305463 ], [ -65.148676092579251, -11.086626305197509 ], [ -65.148395769908959, -11.08679826309559 ], [ -65.148366516174221, -11.08707658862277 ], [ -65.148262096804785, -11.087772625370777 ], [ -65.148125602245287, -11.088360734038428 ], [ -65.147850806662404, -11.089289749059848 ], [ -65.147746047727509, -11.089939435462847 ], [ -65.146692049038847, -11.091275726045243 ], [ -65.146118569134813, -11.092006005403173 ], [ -65.14560326025439, -11.092133282146676 ], [ -65.145383923328325, -11.092088490645848 ], [ -65.145038993444658, -11.091982788969826 ], [ -65.144879635357597, -11.091582197683456 ], [ -65.144609313782453, -11.090981533028433 ], [ -65.144076447529883, -11.09084626511571 ], [ -65.143468183721808, -11.091097807150401 ] ] ], [ [ [ -65.15342831781058, -11.079351968495736 ], [ -65.153043545864975, -11.078890004368487 ], [ -65.153036503024097, -11.078611883634139 ], [ -65.152731883992189, -11.07848127852712 ], [ -65.152990831840384, -11.07895439481428 ], [ -65.153045667342894, -11.079182089901295 ], [ -65.153216758334622, -11.079698954688974 ], [ -65.153264842628204, -11.080006238565083 ], [ -65.15342831781058, -11.079351968495736 ] ] ], [ [ [ -65.078112706517246, -11.612656041515578 ], [ -65.078069171481658, -11.612177280794448 ], [ -65.077808763323404, -11.612263246570452 ], [ -65.077633936684634, -11.61209021125099 ], [ -65.077285667833706, -11.612525447153422 ], [ -65.077546866613375, -11.612786646094714 ], [ -65.077807972166482, -11.6128301811304 ], [ -65.078112706517246, -11.612656041515578 ] ] ], [ [ [ -65.078286846124655, -11.611959594871191 ], [ -65.077677367059707, -11.611480720751638 ], [ -65.077416272405117, -11.611698395402142 ], [ -65.077416272405117, -11.611959480944911 ], [ -65.077687369960543, -11.611963385002735 ], [ -65.077764552690525, -11.612090086051873 ], [ -65.077909241482928, -11.611992887385892 ], [ -65.078243311624391, -11.612133621087571 ], [ -65.078286846124655, -11.611959594871191 ] ], [ [ -65.077766857943629, -11.61192105730866 ], [ -65.07780352714019, -11.611831273194783 ], [ -65.077908459620716, -11.611979094361258 ], [ -65.077766857943629, -11.61192105730866 ] ] ], [ [ [ -64.990648098866586, -11.241009546551664 ], [ -64.990383474259318, -11.240084181674028 ], [ -64.989676898039022, -11.239764408564959 ], [ -64.988896233231529, -11.238912025609761 ], [ -64.988210756675272, -11.238244431285358 ], [ -64.987810673942306, -11.238108032687407 ], [ -64.987507521303812, -11.23841137613867 ], [ -64.987157729011287, -11.238761387556121 ], [ -64.986570930587064, -11.23878848264483 ], [ -64.985654642345537, -11.23870188250757 ], [ -64.985203320655543, -11.237940004234332 ], [ -64.985245994988361, -11.237313901787678 ], [ -64.985641000054628, -11.236708628166078 ], [ -64.986202412677088, -11.236403563797806 ], [ -64.986715915691306, -11.235959747708858 ], [ -64.986479707023605, -11.235752717900237 ], [ -64.985611970625314, -11.235897576494843 ], [ -64.984864794365208, -11.236505197945771 ], [ -64.984308927814524, -11.237621468911597 ], [ -64.984338271708594, -11.238478875998384 ], [ -64.984956002713929, -11.239540965873903 ], [ -64.985627201413379, -11.241553012575737 ], [ -64.985730637725737, -11.242943028035963 ], [ -64.986136759702987, -11.243960168109696 ], [ -64.986942818696463, -11.2450905284676 ], [ -64.987748884367917, -11.246220885491187 ], [ -64.988037465820966, -11.247215627900701 ], [ -64.988680620629708, -11.248555674857258 ], [ -64.989040282533253, -11.249642653436515 ], [ -64.989351398191516, -11.250498172154169 ], [ -64.989355853482692, -11.251147136647889 ], [ -64.989802118377085, -11.251167329164955 ], [ -64.98980793298449, -11.248594491945388 ], [ -64.989829343448946, -11.248293029963948 ], [ -64.989964648190522, -11.24748088201285 ], [ -64.990264304706272, -11.24666763453056 ], [ -64.990259690081928, -11.245995492903686 ], [ -64.989870825615895, -11.244074289580681 ], [ -64.990190300527303, -11.242727807556472 ], [ -64.990648098866586, -11.241009546551664 ] ] ], [ [ [ -64.979672978738918, -11.242960211734648 ], [ -64.979884762019736, -11.243028338210223 ], [ -64.980098286321876, -11.24335141642069 ], [ -64.980126355095678, -11.244023406075256 ], [ -64.980343205009589, -11.244833210165584 ], [ -64.980809773791393, -11.244389712995345 ], [ -64.981178625335701, -11.243390582351346 ], [ -64.981246844522317, -11.243065629356947 ], [ -64.981830802652098, -11.242621349632801 ], [ -64.98290955324002, -11.242428735620306 ], [ -64.983493665660262, -11.242007630662398 ], [ -64.983535550222769, -11.241265640891907 ], [ -64.982844848699131, -11.239833178575099 ], [ -64.982204595740399, -11.238910304007737 ], [ -64.981663484964457, -11.238751657411255 ], [ -64.980046324994902, -11.239179631788749 ], [ -64.978665682691528, -11.239860989706386 ], [ -64.977729861453057, -11.240353958497929 ], [ -64.97646833724437, -11.241289480399846 ], [ -64.976191015661044, -11.241940321443559 ], [ -64.976802093563037, -11.242028977106887 ], [ -64.977086682092093, -11.242444300261122 ], [ -64.977558785384986, -11.242812019837221 ], [ -64.978032154654045, -11.243365158250246 ], [ -64.978530269835673, -11.244103559195516 ], [ -64.979046804163417, -11.244100123994166 ], [ -64.979158344927882, -11.243241777188551 ], [ -64.979672978738918, -11.242960211734648 ] ] ], [ [ [ -64.967401975123209, -11.230432397727796 ], [ -64.966982827943141, -11.23094509681097 ], [ -64.967411714118029, -11.23186941156122 ], [ -64.967980214676103, -11.232607373322264 ], [ -64.968173382833285, -11.233394171555519 ], [ -64.968650491660512, -11.234503593737688 ], [ -64.968843034697301, -11.23519768045866 ], [ -64.96951143791955, -11.236815765413803 ], [ -64.969471089171094, -11.237789535410968 ], [ -64.969151200921516, -11.239089655754956 ], [ -64.969061377261369, -11.239692894779063 ], [ -64.969578536205759, -11.239782187727346 ], [ -64.970190869207173, -11.240056278817704 ], [ -64.971594545056817, -11.239305268500276 ], [ -64.972205302329712, -11.239347579672994 ], [ -64.973052421427511, -11.239620108872987 ], [ -64.97422193182372, -11.238963354007319 ], [ -64.975254353432106, -11.238863790671898 ], [ -64.977366465470567, -11.238710696676527 ], [ -64.978631770161201, -11.238331432587058 ], [ -64.97896204836421, -11.238561022339447 ], [ -64.98013406862637, -11.238275086431534 ], [ -64.980266712201299, -11.237068921869012 ], [ -64.97984062436548, -11.236561828448677 ], [ -64.980070661491666, -11.235864943396287 ], [ -64.979777854956595, -11.234244394471165 ], [ -64.97977121453539, -11.233270940943139 ], [ -64.980046625284771, -11.232341969412687 ], [ -64.980321086058538, -11.231273933105983 ], [ -64.980217689254289, -11.229883909638559 ], [ -64.979451235088959, -11.22766386491608 ], [ -64.978634367013854, -11.224934222808873 ], [ -64.978237580682261, -11.221830931169173 ], [ -64.977716983828486, -11.221231742924711 ], [ -64.976503116916817, -11.222259650621909 ], [ -64.976089673047412, -11.223606749266791 ], [ -64.975585154652478, -11.225371666080237 ], [ -64.97494071249757, -11.227276581832616 ], [ -64.972896736766458, -11.230535128227146 ], [ -64.973410097759484, -11.230068155685146 ], [ -64.97303728863551, -11.230487840091692 ], [ -64.972104473911216, -11.231421161932612 ], [ -64.970982255442152, -11.232123948917137 ], [ -64.969620217763861, -11.232086601836606 ], [ -64.968912104818287, -11.23153499587146 ], [ -64.968436887760333, -11.230703704795008 ], [ -64.967401975123209, -11.230432397727796 ] ] ], [ [ [ -64.964826441356877, -11.221945703931508 ], [ -64.964542050259894, -11.221553539862601 ], [ -64.965147598169423, -11.220831008272423 ], [ -64.965448411416133, -11.220180021110972 ], [ -64.964830955023103, -11.219141048118853 ], [ -64.963722366914325, -11.218383452684657 ], [ -64.96284808385515, -11.21755477374316 ], [ -64.962634226803701, -11.217388164462992 ], [ -64.962770844979133, -11.217233995364623 ], [ -64.963006187699307, -11.217575592285488 ], [ -64.963267282592469, -11.217532056031216 ], [ -64.963027978685687, -11.217235332419483 ], [ -64.963069754120312, -11.217022009882262 ], [ -64.963267282505683, -11.217053172385361 ], [ -64.963102463260824, -11.216380776660765 ], [ -64.963397898497419, -11.21631307625109 ], [ -64.964791008754645, -11.214832885566278 ], [ -64.967054830610095, -11.212090178319183 ], [ -64.967272505788543, -11.211611417609518 ], [ -64.967059747326715, -11.211742373001718 ], [ -64.966737668597432, -11.211977076500837 ], [ -64.966138196649794, -11.212504488776476 ], [ -64.965949539941647, -11.21268528665448 ], [ -64.96555192334101, -11.213131451975103 ], [ -64.964732038100223, -11.214402882034086 ], [ -64.964697388148409, -11.214459640046577 ], [ -64.964691523686767, -11.214465709120635 ], [ -64.964690597052595, -11.214467146083607 ], [ -64.963304810116782, -11.216020789177215 ], [ -64.962837400987041, -11.216624597922131 ], [ -64.961102715612896, -11.218489574810448 ], [ -64.960481166515549, -11.219186389133061 ], [ -64.960638894237931, -11.219186388766184 ], [ -64.959999529018958, -11.219891388876659 ], [ -64.95965049792656, -11.220357259050031 ], [ -64.959501553935368, -11.22048337063058 ], [ -64.959610339508657, -11.220144284600881 ], [ -64.959423750106112, -11.220263052293777 ], [ -64.959047580318384, -11.220565962369228 ], [ -64.958891629490168, -11.220728909122911 ], [ -64.958609159982259, -11.221058395666766 ], [ -64.959044421245508, -11.220841752020769 ], [ -64.959078365953303, -11.220841684986235 ], [ -64.958740043387436, -11.221128142610221 ], [ -64.957947439138493, -11.221967786547937 ], [ -64.957458475102101, -11.22257364704465 ], [ -64.957133538955148, -11.2231320724292 ], [ -64.957625940468475, -11.223036123637621 ], [ -64.958305535884165, -11.222846229072243 ], [ -64.959177482094873, -11.223327254032828 ], [ -64.959511012745878, -11.224043604108326 ], [ -64.959958335971834, -11.22422609312976 ], [ -64.960313470274727, -11.224664154350197 ], [ -64.96090322473367, -11.22507749253657 ], [ -64.961024994157412, -11.225725696865407 ], [ -64.96027871687464, -11.226472327750599 ], [ -64.959906828170304, -11.22703106474988 ], [ -64.960052387669222, -11.227725470699523 ], [ -64.96108415719624, -11.227533251423383 ], [ -64.96093812598437, -11.226769313149493 ], [ -64.96128747373325, -11.226349796178424 ], [ -64.962554169730041, -11.226179205163508 ], [ -64.962873839286431, -11.226579830372327 ], [ -64.963342921982175, -11.226507203842008 ], [ -64.96454772754312, -11.225864745691952 ], [ -64.96569436284507, -11.225300895338675 ], [ -64.967257935972839, -11.223899856507048 ], [ -64.967861439049301, -11.222876010383361 ], [ -64.967828071699856, -11.221415973396763 ], [ -64.966673455004411, -11.220797767761859 ], [ -64.965503518137439, -11.221384951202626 ], [ -64.964826441356877, -11.221945703931508 ] ] ], [ [ [ -64.981684289679222, -11.204797902674654 ], [ -64.980323176542527, -11.204876470494883 ], [ -64.978848308494705, -11.205488893331777 ], [ -64.978434571187293, -11.206789635709075 ], [ -64.97884390752958, -11.208293528849826 ], [ -64.979137130768152, -11.209983619192629 ], [ -64.979075692340871, -11.211305204409397 ], [ -64.979461565981865, -11.212809250371398 ], [ -64.980568424560829, -11.213311831843274 ], [ -64.982829190082924, -11.210886249018277 ], [ -64.982989255988528, -11.210259365614009 ], [ -64.983543197416196, -11.208864973829206 ], [ -64.984002599077172, -11.207378496242443 ], [ -64.983810683651143, -11.206777130917761 ], [ -64.983031876610141, -11.206179664878556 ], [ -64.982533201496636, -11.20534855072416 ], [ -64.981684289679222, -11.204797902674654 ] ] ], [ [ [ -65.043096166347851, -11.213698469790327 ], [ -65.042543827913889, -11.215278336813093 ], [ -65.043114409052208, -11.216294247723283 ], [ -65.043969311125764, -11.217679051177001 ], [ -65.044918125505347, -11.219063206615488 ], [ -65.045486766209791, -11.219800991423513 ], [ -65.04745547480627, -11.219323925304176 ], [ -65.048433618148891, -11.218204680576271 ], [ -65.049369378557202, -11.217734698372903 ], [ -65.051096437746125, -11.216285813166486 ], [ -65.052641567260366, -11.215672565527044 ], [ -65.0540034710491, -11.215709544403841 ], [ -65.054479859726584, -11.216679720236872 ], [ -65.055620125377544, -11.218572420271915 ], [ -65.056697052784841, -11.218147798627502 ], [ -65.056967934532835, -11.216616214166494 ], [ -65.057567469675206, -11.215082362752637 ], [ -65.057643656554802, -11.212578666074963 ], [ -65.057992690059322, -11.208821501910906 ], [ -65.059385756704231, -11.20663320710154 ], [ -65.06090487945211, -11.202358065651687 ], [ -65.061131087911463, -11.201151275285383 ], [ -65.06039143558759, -11.19615004116617 ], [ -65.058225294958731, -11.195237872076659 ], [ -65.056109712410716, -11.194835243228034 ], [ -65.053909064115402, -11.195684772778094 ], [ -65.04983505274285, -11.19719612269024 ], [ -65.0486212521037, -11.198177911043967 ], [ -65.048344128201677, -11.198828786006734 ], [ -65.048359783357753, -11.201053733434843 ], [ -65.047538838195521, -11.204489657471044 ], [ -65.046524863750392, -11.207185220172809 ], [ -65.045511526370603, -11.209973488520477 ], [ -65.044312326295454, -11.213041162262487 ], [ -65.043096166347851, -11.213698469790327 ] ] ], [ [ [ -65.00116805386881, -11.190876851155368 ], [ -64.999279460759382, -11.189336542940215 ], [ -64.999064059851463, -11.188735347102503 ], [ -64.998520977230015, -11.18827541172343 ], [ -64.998379974033426, -11.188253175995426 ], [ -64.998549696512598, -11.189040104683107 ], [ -64.998978431063861, -11.189941192640566 ], [ -64.998842991839382, -11.190730161468489 ], [ -64.998499145286175, -11.19193773392592 ], [ -64.998314689129799, -11.192425712308184 ], [ -64.997609345061846, -11.192268179665151 ], [ -64.996995515912985, -11.191762358490818 ], [ -64.996638476787965, -11.191046215095998 ], [ -64.996401669317024, -11.190746478352299 ], [ -64.995602432631927, -11.190589567243196 ], [ -64.994520553262404, -11.190295469780851 ], [ -64.993490381023122, -11.19069637506345 ], [ -64.991994204412066, -11.191610308636138 ], [ -64.991388147205967, -11.192240164937983 ], [ -64.991131670584679, -11.192496836551687 ], [ -64.991135155751707, -11.193006738651631 ], [ -64.991561341786991, -11.193537002192821 ], [ -64.99207794069001, -11.193556737071846 ], [ -64.99231205220326, -11.193462462611475 ], [ -64.99297060808064, -11.193643498231241 ], [ -64.993186637002268, -11.194337409161525 ], [ -64.993470711700979, -11.194683189880218 ], [ -64.993896904397062, -11.195213448883287 ], [ -64.993945757871302, -11.195491263446927 ], [ -64.994833509714724, -11.194859521230157 ], [ -64.995232102005829, -11.194787324614879 ], [ -64.996034845112803, -11.195454135221238 ], [ -64.996247229064821, -11.195614964683756 ], [ -64.995688442876812, -11.196290870277762 ], [ -64.994820512671993, -11.196389380524995 ], [ -64.994280275878694, -11.196346630679294 ], [ -64.993668345445485, -11.196118931200317 ], [ -64.992867666288561, -11.195753419053583 ], [ -64.992347734030005, -11.19524696193883 ], [ -64.991899812638351, -11.194971807645254 ], [ -64.991313579430027, -11.195068429074018 ], [ -64.990964944666104, -11.195580677795011 ], [ -64.991039330244178, -11.196159642593054 ], [ -64.990382986537583, -11.19630308674026 ], [ -64.989910481333297, -11.195865844175065 ], [ -64.989505235326646, -11.194964583905353 ], [ -64.989245113914095, -11.194688174548642 ], [ -64.988923748891523, -11.195756522626189 ], [ -64.990041318266918, -11.197835139438457 ], [ -64.990093020513768, -11.198530147879358 ], [ -64.990899886994882, -11.199799583786302 ], [ -64.991760689607602, -11.202088506271625 ], [ -64.992165638563691, -11.202943405509705 ], [ -64.99322567837001, -11.203469433571886 ], [ -64.993861576822326, -11.20376650642805 ], [ -64.994282386146097, -11.203508733756715 ], [ -64.994202908094422, -11.202188097555565 ], [ -64.99377368615967, -11.201217472036751 ], [ -64.992715875868655, -11.201015927278346 ], [ -64.992290943651582, -11.200671086585714 ], [ -64.992896060967198, -11.199902162121647 ], [ -64.992982662840703, -11.198835378254111 ], [ -64.99243702864004, -11.198004596227323 ], [ -64.992406893051552, -11.197031304417809 ], [ -64.99273347888186, -11.196727806842111 ], [ -64.993555890277733, -11.196838211634706 ], [ -64.994761361063325, -11.198035439778426 ], [ -64.995707187304149, -11.199025791196934 ], [ -64.996714066654263, -11.198648208156602 ], [ -64.997900949413534, -11.197133680096956 ], [ -64.998905113962664, -11.196362077937275 ], [ -64.9998864349581, -11.195683339373794 ], [ -65.000775763496108, -11.195283353887756 ], [ -65.001877634410022, -11.195067368374735 ], [ -65.003683738117005, -11.194846657122456 ], [ -65.004316751978237, -11.194726520060565 ], [ -65.005564729245904, -11.19527442318547 ], [ -65.006145525418844, -11.194389751355024 ], [ -65.00614025767041, -11.193624905304922 ], [ -65.005292787012991, -11.193282920291761 ], [ -65.004609478832336, -11.192916653085742 ], [ -65.003430342586412, -11.192136499785713 ], [ -65.002746879616552, -11.191747050219758 ], [ -65.001591545016595, -11.191013085071491 ], [ -65.00116805386881, -11.190876851155368 ] ] ], [ [ [ -64.988238602363097, -11.193080830187982 ], [ -64.987811469478331, -11.194397814154859 ], [ -64.987777634390625, -11.194564811157919 ], [ -64.987777634381573, -11.195404107312639 ], [ -64.987849168066916, -11.195641312805614 ], [ -64.988578212998945, -11.197047466325268 ], [ -64.988996305777448, -11.198337530167391 ], [ -64.988948512284722, -11.198780540543181 ], [ -64.988784641921711, -11.19901701857281 ], [ -64.988758427337018, -11.199075262087367 ], [ -64.988688760080464, -11.199155383543657 ], [ -64.98847419444543, -11.199465017975918 ], [ -64.988778824296261, -11.199465017448022 ], [ -64.989127093793556, -11.199073200733057 ], [ -64.989301233306065, -11.198420291055294 ], [ -64.989127093163518, -11.197767265520262 ], [ -64.9882154702387, -11.195945584661137 ], [ -64.987995491859337, -11.194854727471037 ], [ -64.988212857415192, -11.194284359477017 ], [ -64.988195909668661, -11.193912943748439 ], [ -64.988691743440242, -11.193457181087842 ], [ -64.988865882950549, -11.192978308406968 ], [ -64.989605979092119, -11.190409855238061 ], [ -64.9891707550142, -11.190409855238082 ], [ -64.988953080370578, -11.190932264920278 ], [ -64.988906932548986, -11.191592080931988 ], [ -64.988691870156771, -11.191802965633642 ], [ -64.988645722328243, -11.192375711601201 ], [ -64.988320746459053, -11.192860487088286 ], [ -64.988238602363097, -11.193080830187982 ] ] ], [ [ [ -65.047651152941881, -11.197095212773137 ], [ -65.048378358868902, -11.197020694031849 ], [ -65.049221629347713, -11.196759956223403 ], [ -65.050695593663121, -11.196054512501476 ], [ -65.052282509497175, -11.194722491379174 ], [ -65.052041566904123, -11.193843397051843 ], [ -65.051166348092636, -11.192899123847187 ], [ -65.049935280444572, -11.191424202408939 ], [ -65.04794998028315, -11.189514066582532 ], [ -65.046917149295339, -11.189521141182636 ], [ -65.04626477559205, -11.190220938796307 ], [ -65.044130473669824, -11.190490498024111 ], [ -65.042861276034046, -11.190267398243453 ], [ -65.042306845733904, -11.191545963295626 ], [ -65.042201012879687, -11.193192306556499 ], [ -65.042549962738846, -11.196087138940383 ], [ -65.043840383360262, -11.195985602450337 ], [ -65.044121258009298, -11.195867792150542 ], [ -65.04411881789224, -11.195520143093209 ], [ -65.044184847623541, -11.19489389295431 ], [ -65.04516619488021, -11.194238201288472 ], [ -65.045660773318346, -11.194466592537999 ], [ -65.046371665367516, -11.195412009655325 ], [ -65.047651152941881, -11.197095212773137 ] ] ], [ [ [ -65.071349122737942, -11.178923019268483 ], [ -65.070740161103842, -11.179112653874943 ], [ -65.069571810757253, -11.179862415130485 ], [ -65.068923464041703, -11.181118479514602 ], [ -65.068509837928261, -11.182372920095814 ], [ -65.067628399678355, -11.18386236954013 ], [ -65.067493480623057, -11.184697689330987 ], [ -65.067780414232317, -11.185437382480369 ], [ -65.068115610833487, -11.186362160482867 ], [ -65.068730511251474, -11.187006873606355 ], [ -65.069756406939703, -11.186026323036494 ], [ -65.069846348511305, -11.185469443233618 ], [ -65.07167228254643, -11.184761477082027 ], [ -65.071854793323979, -11.184018537157437 ], [ -65.071611833205026, -11.182861352279332 ], [ -65.071179120861146, -11.181427352383745 ], [ -65.071404626406633, -11.180127858193101 ], [ -65.071349122737942, -11.178923019268483 ] ] ], [ [ [ -65.007038970120945, -11.179248371781616 ], [ -65.006248852782065, -11.180412583465893 ], [ -65.005877105850132, -11.180971354319714 ], [ -65.005248106433797, -11.181670919161677 ], [ -65.004923143755221, -11.182206197453405 ], [ -65.004910371408769, -11.182401391181084 ], [ -65.004726009497446, -11.18255519271197 ], [ -65.00409891587455, -11.183532882511066 ], [ -65.002839006944541, -11.183924910619218 ], [ -65.002587416258962, -11.183913860151177 ], [ -65.002375357632943, -11.18379938865939 ], [ -65.00171777765722, -11.183757434236442 ], [ -65.000968689095615, -11.18406376521739 ], [ -65.000408024443217, -11.184461547454234 ], [ -65.000368827695411, -11.184653830830134 ], [ -65.000023093266151, -11.184811796934222 ], [ -65.00029624182757, -11.185276433477314 ], [ -65.000299720832388, -11.185783435806835 ], [ -65.00088958894726, -11.186219876929101 ], [ -65.001595554821833, -11.186470113016561 ], [ -65.002031970183552, -11.186431994450798 ], [ -65.002430787127736, -11.18674265978632 ], [ -65.002229553304929, -11.188204239442392 ], [ -65.002593130717457, -11.189870640158459 ], [ -65.002881511316488, -11.190842195387907 ], [ -65.004226714120861, -11.191876199175438 ], [ -65.005426772274419, -11.192285356976177 ], [ -65.006485029532868, -11.192556392190799 ], [ -65.006984216752656, -11.193456990449866 ], [ -65.008475085786486, -11.195185337798421 ], [ -65.008978121850689, -11.196642181357166 ], [ -65.010044556239023, -11.198095232298758 ], [ -65.011103317249365, -11.198435777885125 ], [ -65.013070381990588, -11.197727183025993 ], [ -65.013550848149052, -11.19591605101356 ], [ -65.011997211009543, -11.195300708439532 ], [ -65.010092902967244, -11.194896319592171 ], [ -65.009662207945979, -11.193717129817667 ], [ -65.010493846918763, -11.191764569157135 ], [ -65.011470160412102, -11.190367310093219 ], [ -65.012233279607386, -11.188693346662781 ], [ -65.012217917853548, -11.186468347356362 ], [ -65.009816407410057, -11.185441481609221 ], [ -65.008687755229118, -11.185170927211624 ], [ -65.010436770106679, -11.183490344028888 ], [ -65.010975653302694, -11.182680328001592 ], [ -65.011124761558136, -11.182836729417504 ], [ -65.012158711488652, -11.182992022128719 ], [ -65.012839760567871, -11.18303379563776 ], [ -65.01312160154697, -11.183055076810383 ], [ -65.013517768584791, -11.182635203327628 ], [ -65.013747380335701, -11.181891956954386 ], [ -65.013906891593805, -11.181195538818816 ], [ -65.014137622284125, -11.180614531865656 ], [ -65.014484437296687, -11.17984731811244 ], [ -65.014947015026294, -11.178847543301265 ], [ -65.01518062462047, -11.178683723003736 ], [ -65.015297028987817, -11.178543870187813 ], [ -65.015458137323961, -11.178079222485984 ], [ -65.015476503414604, -11.177842069661116 ], [ -65.016314580399424, -11.178027095936443 ], [ -65.017018769098428, -11.17802234961442 ], [ -65.018698716634077, -11.176550800739342 ], [ -65.019955657464322, -11.17501256627575 ], [ -65.02050889104639, -11.173548613903529 ], [ -65.019299763864694, -11.171818417608151 ], [ -65.017525394574349, -11.16981388596208 ], [ -65.016597007828679, -11.167942712509713 ], [ -65.015956058878473, -11.166904012161513 ], [ -65.015249017396428, -11.166491564157351 ], [ -65.012229744796642, -11.16776348677401 ], [ -65.009556783503967, -11.168198643499593 ], [ -65.009993645737666, -11.170281750185223 ], [ -65.010151240104022, -11.172714403399445 ], [ -65.009946211873654, -11.173619730066719 ], [ -65.009108432145297, -11.176158833998526 ], [ -65.008918750217163, -11.176106696758371 ], [ -65.008366090314837, -11.177663346969828 ], [ -65.007854469095463, -11.178362127330974 ], [ -65.007038970120945, -11.179248371781616 ] ] ], [ [ [ -65.019137046583268, -11.1686557065496 ], [ -65.019149309735056, -11.170428747421733 ], [ -65.019578546252347, -11.17139933159312 ], [ -65.02039508152518, -11.172367300847579 ], [ -65.021314599987036, -11.172952133622385 ], [ -65.021842249024118, -11.172879035929364 ], [ -65.023144729427543, -11.172835468462324 ], [ -65.023915703585345, -11.172308751181168 ], [ -65.024367145842703, -11.171401756077971 ], [ -65.025667204675017, -11.171010525199485 ], [ -65.026514378170418, -11.171317694656171 ], [ -65.027431486964332, -11.171554853861767 ], [ -65.027855920250758, -11.171830114725729 ], [ -65.028354395402928, -11.172626377250619 ], [ -65.02888735703462, -11.173318103910677 ], [ -65.029733088609888, -11.173416670823146 ], [ -65.03036732691983, -11.173481903058098 ], [ -65.031181479882562, -11.174102183107584 ], [ -65.031434475141324, -11.175039171640575 ], [ -65.030844637607302, -11.176294782538456 ], [ -65.030675852651868, -11.177338934470759 ], [ -65.03085528624284, -11.177824452973722 ], [ -65.031670664513911, -11.178618555305247 ], [ -65.032411752753106, -11.17885688982512 ], [ -65.033012489724797, -11.179165709742101 ], [ -65.033652073163353, -11.1799957664355 ], [ -65.033768853512782, -11.181594245957879 ], [ -65.03405416695891, -11.182113807949877 ], [ -65.034271972935585, -11.183051030246787 ], [ -65.033999269514183, -11.184339256744977 ], [ -65.033864493854693, -11.185209343516172 ], [ -65.034013096252849, -11.186320870273194 ], [ -65.034196668076945, -11.187397391965263 ], [ -65.034832635738951, -11.187705965063042 ], [ -65.036450603965164, -11.187451580796376 ], [ -65.037149217887972, -11.186647186335991 ], [ -65.0376297643474, -11.184870808657834 ], [ -65.03719971572724, -11.183795969923228 ], [ -65.036913666402498, -11.183172116985109 ], [ -65.036452784793113, -11.182723287795332 ], [ -65.035326806198071, -11.182835252829891 ], [ -65.035531025823971, -11.181825626499739 ], [ -65.036513977487985, -11.18140173439955 ], [ -65.037106951810799, -11.180598061402087 ], [ -65.038440044764684, -11.179893645665938 ], [ -65.038395117121397, -11.178503282842859 ], [ -65.039905457317914, -11.17797148851831 ], [ -65.040922867214761, -11.177443050116516 ], [ -65.040988663631353, -11.176782034472421 ], [ -65.041722694759628, -11.176012160337539 ], [ -65.042851074891303, -11.17624782600779 ], [ -65.042751291098938, -11.177082906577743 ], [ -65.042653454701238, -11.178196107000044 ], [ -65.04277149878331, -11.179968399513266 ], [ -65.043200584032022, -11.18090416803188 ], [ -65.043579359069241, -11.179684748940339 ], [ -65.043850799953503, -11.178222696759235 ], [ -65.044366020387073, -11.176376546552595 ], [ -65.044426693584967, -11.174985467652474 ], [ -65.043848261539097, -11.17283388775199 ], [ -65.043485712774782, -11.1713413976897 ], [ -65.043054456448743, -11.170092741817298 ], [ -65.042518311052874, -11.168949100089741 ], [ -65.041241594492732, -11.167636672124457 ], [ -65.040461681429008, -11.166877119702898 ], [ -65.039085429676348, -11.166434525762007 ], [ -65.038382977329348, -11.166682674777009 ], [ -65.037577569150415, -11.16731395724722 ], [ -65.036982918921723, -11.16787427100404 ], [ -65.036036430321346, -11.168471743229246 ], [ -65.035690169502317, -11.169308500577305 ], [ -65.035727559305982, -11.169621147547122 ], [ -65.037101641248526, -11.169750869037516 ], [ -65.037317013854334, -11.170340438618993 ], [ -65.037111831003486, -11.171211003940053 ], [ -65.03690810313455, -11.172290159990578 ], [ -65.036311259843629, -11.172537588087947 ], [ -65.035921542876665, -11.172192571076254 ], [ -65.035563398276139, -11.171325836766574 ], [ -65.03548667868084, -11.170422421629018 ], [ -65.034951286668559, -11.169383056758427 ], [ -65.034705557611417, -11.169489027160809 ], [ -65.034287179873672, -11.170082906007286 ], [ -65.033906915609691, -11.171093727581756 ], [ -65.033100516464813, -11.171585940857796 ], [ -65.032157153892967, -11.172635352019997 ], [ -65.031175914364653, -11.173302582637723 ], [ -65.030998903824056, -11.173164716230865 ], [ -65.030922680486455, -11.172330828129253 ], [ -65.030559712460445, -11.170768780127883 ], [ -65.03019529918393, -11.168998139235667 ], [ -65.029731068764264, -11.16806257962063 ], [ -65.029304948949473, -11.16754396365738 ], [ -65.028171293160895, -11.166543401931751 ], [ -65.027216579469396, -11.165958827176535 ], [ -65.026367009922808, -11.165304003409593 ], [ -65.025940900136234, -11.164785380818863 ], [ -65.024704535302547, -11.164202701000089 ], [ -65.02340329888635, -11.164420095662249 ], [ -65.023229428111918, -11.164734173600573 ], [ -65.023095581384851, -11.165743322335585 ], [ -65.022324379842615, -11.16623526950792 ], [ -65.02186667720575, -11.166238359700616 ], [ -65.020350331542886, -11.165900921239061 ], [ -65.019782917617533, -11.165313707086408 ], [ -65.019847562831742, -11.164478860178413 ], [ -65.020017590559874, -11.163608535568008 ], [ -65.020398141441191, -11.162632489970298 ], [ -65.020711161178156, -11.162074105072598 ], [ -65.020457977007354, -11.161102333246221 ], [ -65.020807645471294, -11.1607523040565 ], [ -65.021299825521751, -11.16064468303828 ], [ -65.022217138467511, -11.16091663043138 ], [ -65.023061630815889, -11.160841395723775 ], [ -65.023024016393776, -11.160493978987144 ], [ -65.022634330675146, -11.160148938854654 ], [ -65.02242260648957, -11.160080833718707 ], [ -65.021895702076932, -11.160258224846412 ], [ -65.021404244611432, -11.160470143134141 ], [ -65.020279296050205, -11.160721099698899 ], [ -65.019751427239385, -11.160759425418407 ], [ -65.018448757099762, -11.160768203312131 ], [ -65.017779817955969, -11.160772708681943 ], [ -65.017109918456484, -11.160638150274885 ], [ -65.016862835134177, -11.160639813455512 ], [ -65.016858974554822, -11.160467176324005 ], [ -65.017294261250882, -11.159238655764227 ], [ -65.017599006500902, -11.157671394480134 ], [ -65.01812142693035, -11.151184777353681 ], [ -65.017816681680841, -11.150357611675974 ], [ -65.017076712868146, -11.149748131922253 ], [ -65.017083931387219, -11.149803467317502 ], [ -65.017104811139916, -11.149835412525936 ], [ -65.017228133554894, -11.150761897971769 ], [ -65.017333969309661, -11.150825885256378 ], [ -65.017468219146664, -11.151493833034198 ], [ -65.017443985654467, -11.153282206582857 ], [ -65.017457355518331, -11.153555360179828 ], [ -65.017435511797999, -11.153907585662013 ], [ -65.017424684107695, -11.154706701759526 ], [ -65.017336878498767, -11.155930763189192 ], [ -65.016675970452908, -11.159841055696768 ], [ -65.016552752025916, -11.160582355683966 ], [ -65.01653279773727, -11.160688136942516 ], [ -65.016355752853045, -11.161735619573465 ], [ -65.016225392233054, -11.162281559174884 ], [ -65.01609187244361, -11.162909716794674 ], [ -65.016063918299281, -11.162957796965701 ], [ -65.016059207194857, -11.16297752660186 ], [ -65.015328265947119, -11.164479886441889 ], [ -65.014604683483981, -11.165288049444655 ], [ -65.014389779579631, -11.165601875702288 ], [ -65.01356020836235, -11.166485242861606 ], [ -65.013637434171685, -11.166639600554383 ], [ -65.013855021926787, -11.166379422364392 ], [ -65.014116319563996, -11.166552530483083 ], [ -65.01433387946814, -11.166508993767524 ], [ -65.014464483930752, -11.166247796506903 ], [ -65.014386101646608, -11.166054021863802 ], [ -65.015335185289359, -11.16529001275806 ], [ -65.015433942578881, -11.164961455310545 ], [ -65.015639930539336, -11.164854662397588 ], [ -65.015789355940584, -11.164518654816508 ], [ -65.015868242290608, -11.164496515728969 ], [ -65.016896592808521, -11.165437458004241 ], [ -65.017108560634114, -11.165540332134411 ], [ -65.017356216828134, -11.165712500061543 ], [ -65.017817042732162, -11.166161368977017 ], [ -65.018068063476932, -11.166820253669574 ], [ -65.018460158413191, -11.16751295426341 ], [ -65.019137046583268, -11.1686557065496 ] ] ], [ [ [ -65.053026649344091, -11.17705604004377 ], [ -65.053264961572964, -11.177564312449398 ], [ -65.053645414635611, -11.178257029806137 ], [ -65.053977619096671, -11.17876465674245 ], [ -65.05444510953312, -11.17848331567421 ], [ -65.055567866484211, -11.177919341788582 ], [ -65.056041561350497, -11.17851870411066 ], [ -65.056654458795208, -11.178885332705383 ], [ -65.057546738222911, -11.178925552612268 ], [ -65.058012916251343, -11.178458795106778 ], [ -65.058569056850317, -11.177435157051628 ], [ -65.057988392153334, -11.174982330486781 ], [ -65.056763267930876, -11.174341780549874 ], [ -65.05558443948884, -11.173608196333429 ], [ -65.054730960821502, -11.172408821153146 ], [ -65.053502591985634, -11.171304724500219 ], [ -65.052421255592904, -11.171080363524082 ], [ -65.051907806982769, -11.171501080736297 ], [ -65.050831029758996, -11.171925657125314 ], [ -65.050591099564684, -11.171185615564838 ], [ -65.050818002671804, -11.170071533572447 ], [ -65.051511082016859, -11.168490704954039 ], [ -65.051274736847432, -11.168260547521097 ], [ -65.049958370321448, -11.167991429918855 ], [ -65.04882262306279, -11.166701251964481 ], [ -65.048438948963579, -11.165544991546104 ], [ -65.04776777211417, -11.163556298039627 ], [ -65.046120556420604, -11.16296493241255 ], [ -65.044622285031068, -11.163531427828227 ], [ -65.043598624971537, -11.164836367721298 ], [ -65.043853454530051, -11.167708671275681 ], [ -65.045288712372439, -11.171546376300158 ], [ -65.046098134577377, -11.173163285663993 ], [ -65.047232601158541, -11.174268058398452 ], [ -65.047660630659479, -11.175053172006839 ], [ -65.04724398419836, -11.175890419722116 ], [ -65.047343728633933, -11.176724134524347 ], [ -65.047674945072856, -11.177092711271587 ], [ -65.048474309375351, -11.177272661370566 ], [ -65.049269766915998, -11.176896371776232 ], [ -65.050775909305202, -11.177442316775387 ], [ -65.050678761259988, -11.176979429531357 ], [ -65.050534017382731, -11.176424157721293 ], [ -65.050859371615857, -11.175958375009879 ], [ -65.051469976960405, -11.176000545011787 ], [ -65.051988323220314, -11.176275122754422 ], [ -65.052647178081202, -11.176502380367774 ], [ -65.053026649344091, -11.17705604004377 ] ] ] ] } }
]
}
