{
"type": "FeatureCollection",
"name": "rio_mequens",
"crs": { "type": "name", "properties": { "name": "urn:ogc:def:crs:OGC:1.3:CRS84" } },
"features": [
{ "type": "Feature", "properties": { "area_ha": 11.52 }, "geometry": { "type": "MultiPolygon", "coordinates": [ [ [ [ -61.910547056960823, -12.581876665838756 ], [ -61.909945967007019, -12.581879400390285 ], [ -61.909545867170841, -12.581658990132304 ], [ -61.909502321192406, -12.584445107166918 ], [ -61.909616139349275, -12.583963991684337 ], [ -61.910068160624618, -12.584140362445341 ], [ -61.909892723761679, -12.583467018186882 ], [ -61.910416440910112, -12.583530871945939 ], [ -61.910547045479532, -12.583226240667281 ], [ -61.910379490747616, -12.583037189882697 ], [ -61.910721186159904, -12.583051986553604 ], [ -61.910681627281562, -12.582823763635812 ], [ -61.910892749005747, -12.582659651216979 ], [ -61.910797018701494, -12.582494954935445 ], [ -61.91089532576509, -12.582399074989578 ], [ -61.910541066177402, -12.582237380725402 ], [ -61.910547056960823, -12.581876665838756 ] ], [ [ -61.909698887429592, -12.582440912937972 ], [ -61.909599353360271, -12.58242073136674 ], [ -61.90965741913503, -12.582190490745591 ], [ -61.909698887429592, -12.582440912937972 ] ], [ [ -61.909759140808951, -12.583397993276591 ], [ -61.909722321976517, -12.583308225159911 ], [ -61.909811351949969, -12.583272060018592 ], [ -61.909759140808951, -12.583397993276591 ] ], [ [ -61.910242419098225, -12.582747357533881 ], [ -61.90998303802283, -12.582815339191521 ], [ -61.91004488117192, -12.582498407327099 ], [ -61.91027336288375, -12.582549462145954 ], [ -61.910242419098225, -12.582747357533881 ] ], [ [ -61.910130017221832, -12.582265263913349 ], [ -61.91001657163131, -12.582232462269786 ], [ -61.910081494320323, -12.582130972890825 ], [ -61.910130017221832, -12.582265263913349 ] ], [ [ -61.910542905448978, -12.582539674964913 ], [ -61.910448735529485, -12.582568714838747 ], [ -61.910377173417984, -12.582432511963221 ], [ -61.910542905448978, -12.582539674964913 ] ] ], [ [ [ -61.911330687602877, -12.581920075098102 ], [ -61.911635421371642, -12.581702411196918 ], [ -61.911383584193459, -12.581513584358813 ], [ -61.910994856458892, -12.581276938464491 ], [ -61.910808383205165, -12.58122363977566 ], [ -61.911113128454986, -12.581876540590493 ], [ -61.911330687602877, -12.581920075098102 ] ] ], [ [ [ -61.90723851027996, -12.5802657442708 ], [ -61.908152089198211, -12.58026437173149 ], [ -61.907847884749799, -12.579874054197935 ], [ -61.907107789143495, -12.579569308948241 ], [ -61.906890229994495, -12.579612843455838 ], [ -61.907188839369176, -12.579858706438767 ], [ -61.90723851027996, -12.5802657442708 ] ] ], [ [ [ -61.67162689723034, -12.565681507326854 ], [ -61.672322481647619, -12.565595541899611 ], [ -61.672410527872465, -12.565855647469462 ], [ -61.672672375096148, -12.565760027579442 ], [ -61.672758797216112, -12.565942717012788 ], [ -61.672976355869956, -12.565855657686406 ], [ -61.67292269182672, -12.565639032257627 ], [ -61.673498776808962, -12.565812112433797 ], [ -61.673452270820746, -12.565211271556402 ], [ -61.673672916414283, -12.564984957504278 ], [ -61.673194147572559, -12.56468032674432 ], [ -61.672994039589994, -12.565021871505131 ], [ -61.672802332251599, -12.564941536958301 ], [ -61.67162689723034, -12.565681507326854 ] ] ], [ [ [ -61.90261506115143, -12.565052341523025 ], [ -61.902662739273239, -12.565432428399422 ], [ -61.90253395316838, -12.565528317511626 ], [ -61.902057841031628, -12.565420421827696 ], [ -61.901927236462257, -12.565725053106471 ], [ -61.902188330115791, -12.565855646936324 ], [ -61.902492925833549, -12.565639004117132 ], [ -61.902580261459754, -12.565855647464382 ], [ -61.902780718139027, -12.565895762198373 ], [ -61.90261379, -12.56485987 ], [ -61.902549839214473, -12.56446265104297 ], [ -61.902536726423776, -12.56446265104297 ], [ -61.902534284971786, -12.564772367962082 ], [ -61.902362586281193, -12.564810931328358 ], [ -61.902362586281164, -12.564941411715377 ], [ -61.90261506115143, -12.565052341523025 ] ] ], [ [ [ -61.842415922281859, -12.468861185880591 ], [ -61.842185880348396, -12.467262922269176 ], [ -61.842414715224983, -12.467161721603539 ], [ -61.842414714687642, -12.466944160394617 ], [ -61.842082667014701, -12.466884684940304 ], [ -61.84197971496841, -12.466548365198173 ], [ -61.842244549354653, -12.465583917201672 ], [ -61.842545319860342, -12.465289724513511 ], [ -61.842632390403857, -12.464854489431509 ], [ -61.842501912210572, -12.464810954395826 ], [ -61.841848887148274, -12.466116996015716 ], [ -61.84184888667609, -12.467205256639188 ], [ -61.841976866382574, -12.467285503993304 ], [ -61.842283187046846, -12.468597679485168 ], [ -61.842588982820708, -12.470688070241664 ], [ -61.842676052892109, -12.470949280455654 ], [ -61.843065592784086, -12.471291861045525 ], [ -61.842980798142044, -12.471863516204717 ], [ -61.843459556079516, -12.473430766739863 ], [ -61.843459555542417, -12.472124829639226 ], [ -61.843111275257336, -12.47103645374751 ], [ -61.842677132502082, -12.470559052344813 ], [ -61.842632389865415, -12.469338587356402 ], [ -61.842415922281859, -12.468861185880591 ] ] ], [ [ [ -61.646089745919191, -12.541854668331897 ], [ -61.646115239379739, -12.541519687239814 ], [ -61.645636480929475, -12.541693827382467 ], [ -61.645592946431343, -12.542041993707175 ], [ -61.645767075095961, -12.542303192645068 ], [ -61.64586577911551, -12.54193104569841 ], [ -61.646047228567205, -12.541920581917696 ], [ -61.64729080134456, -12.543043288251432 ], [ -61.647749447067795, -12.543229804033381 ], [ -61.648074431986743, -12.543652778750744 ], [ -61.648358937523554, -12.54375222446102 ], [ -61.648814538533962, -12.544218734742458 ], [ -61.649229673302905, -12.544360883090528 ], [ -61.649685239247525, -12.544871760277493 ], [ -61.649987290706015, -12.544827707692795 ], [ -61.6481816366841, -12.543553458818105 ], [ -61.648074326925084, -12.543217554158936 ], [ -61.647271753109671, -12.542816534255229 ], [ -61.646089745919191, -12.541854668331897 ] ] ], [ [ [ -61.6226064470602, -12.542738543530337 ], [ -61.62291106483103, -12.542607949171355 ], [ -61.622650205328661, -12.542386403705883 ], [ -61.622867530332996, -12.541867967524563 ], [ -61.622127561667611, -12.541780897453235 ], [ -61.622469707606982, -12.542026760284463 ], [ -61.6226064470602, -12.542738543530337 ] ] ], [ [ [ -61.625175003223937, -12.541519562003529 ], [ -61.625349026828793, -12.541171292994225 ], [ -61.625044293057137, -12.540779592160906 ], [ -61.624565523664927, -12.540910196739887 ], [ -61.624652582795804, -12.541084211646856 ], [ -61.624942183204311, -12.54114352223387 ], [ -61.625175003223937, -12.541519562003529 ] ] ], [ [ [ -61.644069208704629, -12.541301886824728 ], [ -61.644286767344333, -12.541171292993843 ], [ -61.644199708751032, -12.541040802375479 ], [ -61.642632563468069, -12.540953731776039 ], [ -61.642719622598833, -12.541084211646393 ], [ -61.644069208704629, -12.541301886824728 ] ] ], [ [ [ -61.644763154267373, -12.540568744279463 ], [ -61.644330429859174, -12.541171282245797 ], [ -61.644862612361543, -12.541218722509416 ], [ -61.645549294856671, -12.5416937021457 ], [ -61.645592818414258, -12.54156321152729 ], [ -61.64512400912826, -12.54114951682744 ], [ -61.644984535755334, -12.540737535220007 ], [ -61.645076532875692, -12.539806473721125 ], [ -61.645583056622371, -12.539172575844297 ], [ -61.645907453470187, -12.539172575844654 ], [ -61.646070412373497, -12.539386408137725 ], [ -61.646328093137079, -12.539127370891014 ], [ -61.646594240773076, -12.539299275183854 ], [ -61.646768264377897, -12.53916868135299 ], [ -61.646419995570582, -12.538864050592027 ], [ -61.645418794809949, -12.538907585627674 ], [ -61.645274663406184, -12.539412473134703 ], [ -61.644939920856231, -12.539473530603715 ], [ -61.644763154267373, -12.540568744279463 ] ] ], [ [ [ -61.629876798014756, -12.533204370718625 ], [ -61.630050822160527, -12.533247905226247 ], [ -61.630486161039649, -12.532943171252636 ], [ -61.630137880754546, -12.531898433608502 ], [ -61.629833262978792, -12.531811374285255 ], [ -61.629659059367938, -12.532375935795773 ], [ -61.62992330373816, -12.532995345357305 ], [ -61.629876798014756, -12.533204370718625 ] ] ] ] } }
]
}
