{
"type": "FeatureCollection",
"name": "rio_guapore",
"crs": { "type": "name", "properties": { "name": "urn:ogc:def:crs:OGC:1.3:CRS84" } },
"features": [
{ "type": "Feature", "properties": { "area_ha": 150.2 }, "geometry": { "type": "MultiPolygon", "coordinates": [ [ [ [ -64.812636185573851, -12.038341620279541 ], [ -64.813068939666209, -12.037775169991193 ], [ -64.812636058363992, -12.037079218185566 ], [ -64.812549115502208, -12.037035693896128 ], [ -64.812505581002995, -12.037514465348051 ], [ -64.812701942750479, -12.037685995951655 ], [ -64.812636185573851, -12.038341620279541 ] ] ], [ [ [ -64.811112332396732, -12.033291561271886 ], [ -64.811417077366286, -12.032595109511712 ], [ -64.811155878605916, -12.032246840500516 ], [ -64.810851249365641, -12.032246834851628 ], [ -64.810502969080687, -12.032812790310135 ], [ -64.810502969361295, -12.033291566888087 ], [ -64.81063357393198, -12.033465696284564 ], [ -64.811112332396732, -12.033291561271886 ] ] ], [ [ [ -64.80976274654742, -12.031376139259283 ], [ -64.809458127968469, -12.031289069187965 ], [ -64.809588733075614, -12.032072575143154 ], [ -64.810111037749863, -12.032203179722176 ], [ -64.810198096367643, -12.031985619012382 ], [ -64.80976274654742, -12.031376139259283 ] ] ], [ [ [ -64.81938152256744, -12.022624978215541 ], [ -64.818687544611151, -12.022582062581824 ], [ -64.81755564460066, -12.023017287724208 ], [ -64.818382694528935, -12.023278497410271 ], [ -64.818755394780041, -12.022895261181612 ], [ -64.819253384325648, -12.022843147581627 ], [ -64.81938152256744, -12.022624978215541 ] ] ], [ [ [ -64.823955179096018, -12.016617636953074 ], [ -64.824172843109721, -12.016399967274941 ], [ -64.824518658070389, -12.015702907846805 ], [ -64.823955295090016, -12.015790591522416 ], [ -64.824106535732255, -12.01606492209741 ], [ -64.823694084876294, -12.01618240683981 ], [ -64.823607015093202, -12.016356438013119 ], [ -64.823737619663945, -12.01657410244534 ], [ -64.823955179096018, -12.016617636953074 ] ] ], [ [ [ -64.823519828739521, -12.01539878169628 ], [ -64.823388465874729, -12.015528281851987 ], [ -64.823041059340852, -12.015485846274384 ], [ -64.823128129164445, -12.015877541874639 ], [ -64.823693957965659, -12.015877541874636 ], [ -64.823519828739521, -12.01539878169628 ] ] ], [ [ [ -64.824537453773132, -12.014447131443072 ], [ -64.824695379531747, -12.014658560347982 ], [ -64.824956473464084, -12.014528069708765 ], [ -64.82486940339281, -12.014223324459065 ], [ -64.824521134560214, -12.014049195590502 ], [ -64.824505050582573, -12.014250923206976 ], [ -64.824216505592105, -12.014353929566106 ], [ -64.824303564210709, -12.014484420205298 ], [ -64.824537453773132, -12.014447131443072 ] ] ], [ [ [ -64.827534781220777, -12.012820043503053 ], [ -64.827699181248008, -12.012917159449247 ], [ -64.82782978581875, -12.012786668281933 ], [ -64.827612122093115, -12.012351329199351 ], [ -64.827176887727134, -12.012612533948944 ], [ -64.827220422516518, -12.012917159449207 ], [ -64.827481506069631, -12.012960694484899 ], [ -64.827534781220777, -12.012820043503053 ] ] ], [ [ [ -64.823650550127553, -12.010696883376141 ], [ -64.823824573990137, -12.010783942173381 ], [ -64.824037333214051, -12.010612037483407 ], [ -64.824564669596597, -12.010566266995101 ], [ -64.824903103882846, -12.010308961818135 ], [ -64.825087090024667, -12.010348591816767 ], [ -64.825476429922929, -12.00956446806639 ], [ -64.825199187560912, -12.009626475648599 ], [ -64.824695274703814, -12.009260341666964 ], [ -64.82378114378173, -12.009390946774021 ], [ -64.823563480055952, -12.009608610678207 ], [ -64.823519945020379, -12.009956890963586 ], [ -64.823650550127553, -12.010696883376141 ] ] ], [ [ [ -64.879680013845331, -11.984010020449231 ], [ -64.879157720061102, -11.983835880306614 ], [ -64.879244790132603, -11.984706456337387 ], [ -64.879854164902866, -11.984401710559796 ], [ -64.879895230012735, -11.984227078603016 ], [ -64.879680013845331, -11.984010020449231 ] ] ], [ [ [ -64.878722358789389, -11.983095785228118 ], [ -64.877851658076111, -11.983618205656171 ], [ -64.877808133955384, -11.983792220588274 ], [ -64.8785586282564, -11.983618142798493 ], [ -64.87898346418956, -11.983792220060367 ], [ -64.879147754356197, -11.983621984837047 ], [ -64.879592954689016, -11.983618079917788 ], [ -64.879941223523304, -11.983400519203993 ], [ -64.87976708391686, -11.983182854771551 ], [ -64.879317380044213, -11.983263458827267 ], [ -64.879157709146043, -11.983008715156775 ], [ -64.879001132463316, -11.983437355985629 ], [ -64.878865415256342, -11.983424174960305 ], [ -64.878722358789389, -11.983095785228118 ] ] ], [ [ [ -64.882509791164779, -11.980396487806191 ], [ -64.882640395735663, -11.980048321457392 ], [ -64.882553337115283, -11.979874192588484 ], [ -64.882383766606338, -11.979886180757973 ], [ -64.882422721093619, -11.979525911775236 ], [ -64.882074567679311, -11.97974358235526 ], [ -64.882335766749264, -11.980352952242642 ], [ -64.882509791164779, -11.980396487806191 ] ] ], [ [ [ -64.881944185044958, -11.980697357773783 ], [ -64.882074440271893, -11.980222461600095 ], [ -64.881726171437577, -11.979743587481517 ], [ -64.88149243199787, -11.979784617894785 ], [ -64.881464950308839, -11.979612981846644 ], [ -64.881248690697248, -11.979612919505858 ], [ -64.880738602979406, -11.979747386005762 ], [ -64.880436306616033, -11.979597035246693 ], [ -64.88028017468163, -11.97935524312329 ], [ -64.880333039381512, -11.979177631489955 ], [ -64.880041812242382, -11.979184567505227 ], [ -64.879943494015407, -11.979041225185888 ], [ -64.880289504116789, -11.978785696078891 ], [ -64.880115427523421, -11.97857753585793 ], [ -64.880297950820307, -11.978434650394895 ], [ -64.880637911272601, -11.978872761557707 ], [ -64.880724854473499, -11.978829231114476 ], [ -64.880546694058978, -11.978538353607762 ], [ -64.880855459273661, -11.977915104709686 ], [ -64.88058463253239, -11.977586443815353 ], [ -64.880898994845708, -11.977349035309318 ], [ -64.880749325057664, -11.977069617151281 ], [ -64.880905818810263, -11.976797180465717 ], [ -64.881247274903032, -11.976608944275927 ], [ -64.881160515029038, -11.976482727789453 ], [ -64.881290809630755, -11.976217238318572 ], [ -64.880959763265466, -11.976117092479113 ], [ -64.88081192477469, -11.975781898707783 ], [ -64.880347345699761, -11.975600053490059 ], [ -64.880507179525111, -11.975303013315434 ], [ -64.880071870145272, -11.975390110390991 ], [ -64.880111234534795, -11.975574217742441 ], [ -64.879867434925245, -11.975916800832735 ], [ -64.879562913882239, -11.975764344525606 ], [ -64.879433923482281, -11.975405756013377 ], [ -64.879674823731335, -11.975303193822164 ], [ -64.879854164904586, -11.975433493211916 ], [ -64.87998475856088, -11.97530300256957 ], [ -64.87968445685371, -11.97514167044379 ], [ -64.879723548347044, -11.974388766820502 ], [ -64.879465340288604, -11.97428384355273 ], [ -64.879331744476815, -11.973996962773324 ], [ -64.879071280479764, -11.974169916581815 ], [ -64.878774224778937, -11.974130328317242 ], [ -64.878722243062938, -11.973822822102806 ], [ -64.878461148573592, -11.973822822630719 ], [ -64.878347287579984, -11.974173493975584 ], [ -64.87776459891748, -11.974127567352454 ], [ -64.877612929578461, -11.974387237772504 ], [ -64.8774163186322, -11.974388777566498 ], [ -64.877368527289121, -11.975095332301668 ], [ -64.877024503311389, -11.975303013315575 ], [ -64.877058691740771, -11.976018944099701 ], [ -64.876836915580995, -11.976106051413655 ], [ -64.87663127243971, -11.975912441473572 ], [ -64.876327943277062, -11.975999459949302 ], [ -64.876835243248181, -11.976276456698512 ], [ -64.876980968276015, -11.976696009774145 ], [ -64.877155847628472, -11.976566509078909 ], [ -64.877507521310477, -11.976593018711156 ], [ -64.877478844454984, -11.976774002390837 ], [ -64.877111573919279, -11.97687016066268 ], [ -64.877500953482809, -11.977344052155782 ], [ -64.877416319169185, -11.977827931447429 ], [ -64.877633993811429, -11.978393876165255 ], [ -64.877851542348481, -11.9784809462366 ], [ -64.878089419995206, -11.978145038469883 ], [ -64.878262549011055, -11.978157993008242 ], [ -64.878279952875303, -11.978541549692356 ], [ -64.877851668989905, -11.978872886240357 ], [ -64.87785166899009, -11.979743462271006 ], [ -64.87809654476888, -11.979444964298805 ], [ -64.87827830625352, -11.97950613200797 ], [ -64.878199949275484, -11.980048207520698 ], [ -64.878287019346899, -11.980352952770383 ], [ -64.878458724238712, -11.98043503966303 ], [ -64.87841762499022, -11.980831848908606 ], [ -64.878691695100244, -11.980836082634298 ], [ -64.87885296389598, -11.981093047848868 ], [ -64.879054433193645, -11.981107934561871 ], [ -64.879070649989174, -11.981441328662164 ], [ -64.879288198524918, -11.981484863697837 ], [ -64.879375268596291, -11.981310723555181 ], [ -64.879222974734446, -11.981013998177737 ], [ -64.879299920715781, -11.980807992215878 ], [ -64.879723548881742, -11.98087537319846 ], [ -64.879854311321211, -11.980528124437917 ], [ -64.880146458922695, -11.98063405301418 ], [ -64.880386557530798, -11.981222248541332 ], [ -64.879941350702623, -11.981702663558796 ], [ -64.88016888236335, -11.981788204013185 ], [ -64.880106144034258, -11.982331524327385 ], [ -64.879699141797758, -11.982490614803936 ], [ -64.879114174110242, -11.982312154586113 ], [ -64.879299526893448, -11.982668397631155 ], [ -64.879114185025188, -11.982965054910581 ], [ -64.879244663488876, -11.983008589946236 ], [ -64.883061160220208, -11.980794328332088 ], [ -64.883424026913787, -11.980831838162954 ], [ -64.883772307199195, -11.98039661248858 ], [ -64.883554747747965, -11.980353077980819 ], [ -64.883158024918075, -11.980613943733729 ], [ -64.882901722212978, -11.980483683087837 ], [ -64.882666056675689, -11.980905736534543 ], [ -64.882205912362579, -11.981135603704439 ], [ -64.881944185044958, -11.980697357773783 ] ], [ [ -64.877319395659327, -11.975323081329385 ], [ -64.877397626747296, -11.975250871863143 ], [ -64.87763451981445, -11.975391448734076 ], [ -64.877504127711617, -11.975563119139235 ], [ -64.877319395659327, -11.975323081329385 ] ], [ [ -64.877770592115141, -11.977377367427497 ], [ -64.877993863485642, -11.977265833075984 ], [ -64.878069280845665, -11.977513780499134 ], [ -64.877839576849098, -11.97757173480114 ], [ -64.877770592115141, -11.977377367427497 ] ], [ [ -64.877991741881232, -11.974479913498579 ], [ -64.87795245287802, -11.974613491656163 ], [ -64.87788665344128, -11.974512841197495 ], [ -64.877991741881232, -11.974479913498579 ] ], [ [ -64.87805486315014, -11.975078872116297 ], [ -64.878019703456204, -11.974811565060172 ], [ -64.878201721697934, -11.97478091592758 ], [ -64.878236916798102, -11.974926003301247 ], [ -64.87805486315014, -11.975078872116297 ] ], [ [ -64.878496247967135, -11.976611825256256 ], [ -64.878244479408565, -11.976478279854993 ], [ -64.878348637402723, -11.976252311537159 ], [ -64.878672267118432, -11.976536799634097 ], [ -64.878496247967135, -11.976611825256256 ] ], [ [ -64.878334874218965, -11.976194304493402 ], [ -64.878407657783882, -11.976003353608082 ], [ -64.878603354149064, -11.975959782060196 ], [ -64.878557697166727, -11.976213058532514 ], [ -64.878334874218965, -11.976194304493402 ] ], [ [ -64.878375084513635, -11.975825254316851 ], [ -64.878504724456874, -11.975695735476213 ], [ -64.878635294904925, -11.975781797820488 ], [ -64.878578016214746, -11.975916303003396 ], [ -64.878375084513635, -11.975825254316851 ] ], [ [ -64.878840408131694, -11.974499492634534 ], [ -64.878599856340458, -11.974637072823395 ], [ -64.878519687682413, -11.974360915202228 ], [ -64.87867606853375, -11.97423707994883 ], [ -64.87885350080559, -11.974346607863625 ], [ -64.878840408131694, -11.974499492634534 ] ], [ [ -64.878655219929357, -11.977103775449994 ], [ -64.878552359252495, -11.976903690778627 ], [ -64.878765918878472, -11.976870187488133 ], [ -64.878761461866873, -11.977057893266467 ], [ -64.878655219929357, -11.977103775449994 ] ], [ [ -64.878600997426688, -11.979940205007864 ], [ -64.878786482012856, -11.979926648379195 ], [ -64.878984105921688, -11.980223837668223 ], [ -64.878788204718063, -11.980386716239929 ], [ -64.878600997426688, -11.979940205007864 ] ], [ [ -64.878636038619049, -11.9754345981507 ], [ -64.878808574146134, -11.975650189214836 ], [ -64.878592842385046, -11.975565685409025 ], [ -64.878636038619049, -11.9754345981507 ] ], [ [ -64.878801154206016, -11.977474859428465 ], [ -64.878757680661948, -11.977616866952628 ], [ -64.878726321306303, -11.977503460117306 ], [ -64.878801154206016, -11.977474859428465 ] ], [ [ -64.878947054130776, -11.98058839914126 ], [ -64.878953728485627, -11.980492377894645 ], [ -64.879115956584045, -11.980484005377514 ], [ -64.87909890583262, -11.980627603771181 ], [ -64.878947054130776, -11.98058839914126 ] ], [ [ -64.879118562880308, -11.976654872312091 ], [ -64.879066145494932, -11.976780806969279 ], [ -64.879029423524514, -11.976691026591457 ], [ -64.879118562880308, -11.976654872312091 ] ], [ [ -64.879272827880101, -11.976137821838156 ], [ -64.879183888408036, -11.976297462227164 ], [ -64.879163886641351, -11.976149145893805 ], [ -64.879272827880101, -11.976137821838156 ] ], [ [ -64.879297545067686, -11.974282212585193 ], [ -64.879421578170152, -11.974494204352146 ], [ -64.87931274253836, -11.974510180550554 ], [ -64.879297545067686, -11.974282212585193 ] ], [ [ -64.879579622838634, -11.976154181859416 ], [ -64.879682982940082, -11.976356041291247 ], [ -64.879441704899833, -11.976273899133975 ], [ -64.879579622838634, -11.976154181859416 ] ], [ [ -64.879713709298585, -11.9797038316363 ], [ -64.879962594578714, -11.979782744249189 ], [ -64.879597200151025, -11.979840651251491 ], [ -64.879713709298585, -11.9797038316363 ] ], [ [ -64.879874635970523, -11.978746171630052 ], [ -64.879799297239302, -11.978868376555498 ], [ -64.879771183776427, -11.978773608149389 ], [ -64.879874635970523, -11.978746171630052 ] ], [ [ -64.879844686561185, -11.977823854856354 ], [ -64.879759036065096, -11.977624885887018 ], [ -64.880037888201628, -11.977614436050789 ], [ -64.880037888194039, -11.977867389899249 ], [ -64.879844686561185, -11.977823854856354 ] ], [ [ -64.879813875897213, -11.975981769230971 ], [ -64.879980629420587, -11.976053103133927 ], [ -64.879847182480788, -11.976093580664832 ], [ -64.879813875897213, -11.975981769230971 ] ], [ [ -64.880060601421917, -11.976574312698958 ], [ -64.880390862955849, -11.976424758058805 ], [ -64.880681972298774, -11.976610429691256 ], [ -64.880468562281635, -11.976782860594389 ], [ -64.880060601421917, -11.976574312698958 ] ], [ [ -64.880338159211504, -11.976957532264286 ], [ -64.88024073678578, -11.9770876143183 ], [ -64.880191209468691, -11.977031719509018 ], [ -64.880338159211504, -11.976957532264286 ] ], [ [ -64.880428992515576, -11.977469599150206 ], [ -64.880469003593092, -11.977653569774448 ], [ -64.880278349908963, -11.977580824513559 ], [ -64.880428992515576, -11.977469599150206 ] ], [ [ -64.88037219674554, -11.9783045332226 ], [ -64.880291634706467, -11.978125334379778 ], [ -64.880461901626944, -11.978044952571741 ], [ -64.880504870939205, -11.978268378979642 ], [ -64.88037219674554, -11.9783045332226 ] ], [ [ -64.880291769879008, -11.975746067083778 ], [ -64.880416157878898, -11.975674988120788 ], [ -64.880386168745986, -11.975777708187293 ], [ -64.880291769879008, -11.975746067083778 ] ], [ [ -64.88052266886919, -11.982009581982586 ], [ -64.880418311686427, -11.982146494193094 ], [ -64.880366717925426, -11.982049414228333 ], [ -64.88052266886919, -11.982009581982586 ] ], [ [ -64.880340105810149, -11.977322568662471 ], [ -64.88048202202198, -11.977050486011345 ], [ -64.88072497917895, -11.977131450949482 ], [ -64.880652265451261, -11.977386229027806 ], [ -64.880340105810149, -11.977322568662471 ] ], [ [ -64.881117717750641, -11.98157124623391 ], [ -64.881247244312831, -11.981485895218372 ], [ -64.881334469679302, -11.981615559623412 ], [ -64.881161071623367, -11.981701559167586 ], [ -64.881117717750641, -11.98157124623391 ] ], [ [ -64.881119105259771, -11.979966245386834 ], [ -64.881242364808159, -11.979745697121292 ], [ -64.881421542451079, -11.979874078124 ], [ -64.881296998524888, -11.98004575298963 ], [ -64.881119105259771, -11.979966245386834 ] ], [ [ -64.881283839220686, -11.980694297366293 ], [ -64.881341442790486, -11.980838898520746 ], [ -64.881239227109063, -11.980795949120765 ], [ -64.881283839220686, -11.980694297366293 ] ], [ [ -64.881574447013605, -11.980734996537928 ], [ -64.881474297050204, -11.980420652575031 ], [ -64.88165820759238, -11.980405689937554 ], [ -64.881744248187943, -11.980746500615718 ], [ -64.881574447013605, -11.980734996537928 ] ] ], [ [ [ -64.858957463469736, -11.803992647959273 ], [ -64.858522113113096, -11.804297268523506 ], [ -64.859044417886949, -11.804471408138244 ], [ -64.859305628100969, -11.804340803031227 ], [ -64.859436222300161, -11.804079718030636 ], [ -64.858957463469736, -11.803992647959273 ] ] ], [ [ [ -64.755092313046219, -12.140348399615227 ], [ -64.755344067737425, -12.140605418536726 ], [ -64.755561626575442, -12.140518462936347 ], [ -64.755389923817845, -12.140392849670324 ], [ -64.755431022005084, -12.140083123326143 ], [ -64.754778123195649, -12.140083123326212 ], [ -64.754908728302681, -12.140431278921975 ], [ -64.755092313046219, -12.140348399615227 ] ] ], [ [ [ -64.757085702929501, -12.136821866668013 ], [ -64.757257005778442, -12.136556161683345 ], [ -64.75712901512081, -12.13651325040124 ], [ -64.756950291448291, -12.137178269837005 ], [ -64.7567371998, -12.137296881043275 ], [ -64.756867793985251, -12.137819176253908 ], [ -64.757172423129091, -12.137383832503044 ], [ -64.757085702929501, -12.136821866668013 ] ] ], [ [ [ -64.754211818161622, -12.132591101251904 ], [ -64.75399449255201, -12.133552743286208 ], [ -64.754255586965215, -12.133596277793938 ], [ -64.754386180848655, -12.13346567926177 ], [ -64.754438434814631, -12.133097732349759 ], [ -64.754734461134419, -12.132899723792855 ], [ -64.754784120229104, -12.132449159160851 ], [ -64.755082741185063, -12.132159632891268 ], [ -64.755039206686007, -12.131724396477765 ], [ -64.754778112272007, -12.131680861970008 ], [ -64.754542436063247, -12.132059379609025 ], [ -64.754212167730074, -12.132116211798825 ], [ -64.754081562924469, -12.13229034590475 ], [ -64.754211818161622, -12.132591101251904 ] ] ], [ [ [ -64.746777608774281, -12.15138032798677 ], [ -64.746767549904064, -12.151097487350645 ], [ -64.746516398546177, -12.150944977610266 ], [ -64.746245129476193, -12.150357391744301 ], [ -64.745599175395171, -12.149634245880652 ], [ -64.74554856890569, -12.149356085923932 ], [ -64.744813057047025, -12.148366774348583 ], [ -64.744852007798741, -12.147875883964661 ], [ -64.744247101564071, -12.147147793292387 ], [ -64.744198982264038, -12.146395692751941 ], [ -64.74389544282819, -12.146048890125121 ], [ -64.743937772050216, -12.145524992038579 ], [ -64.743690076990532, -12.145420384995502 ], [ -64.74354595726588, -12.144959047321466 ], [ -64.743406020113028, -12.144918981318927 ], [ -64.743458886658061, -12.144654291325189 ], [ -64.743023886420175, -12.143387790357446 ], [ -64.743154141945325, -12.143043505751994 ], [ -64.743030401818586, -12.143025412964954 ], [ -64.742893281311794, -12.142604159679406 ], [ -64.743067071567765, -12.142477431733928 ], [ -64.743067071337606, -12.142216329327759 ], [ -64.74280586112387, -12.141040883364708 ], [ -64.742286062729249, -12.139915798222855 ], [ -64.741979901229669, -12.138735003787234 ], [ -64.741978695446832, -12.138036965903568 ], [ -64.741771079195573, -12.137928001377084 ], [ -64.741589502134815, -12.137434301075441 ], [ -64.741630415161808, -12.136643844762173 ], [ -64.741419605337327, -12.13649515909011 ], [ -64.741196270572161, -12.135818156262159 ], [ -64.740933854591717, -12.133988207586393 ], [ -64.740760064555388, -12.133723011977775 ], [ -64.740454969200044, -12.131071360196614 ], [ -64.740150224487124, -12.130070065122792 ], [ -64.739934986084663, -12.130075045882812 ], [ -64.740063153879348, -12.129634704019541 ], [ -64.739759614369902, -12.129244365569576 ], [ -64.739976083808145, -12.129068748555838 ], [ -64.739663725489365, -12.128511447006982 ], [ -64.739671339095153, -12.128241593624738 ], [ -64.739327317841813, -12.128164515614312 ], [ -64.739366593309057, -12.127849767557132 ], [ -64.738979361923526, -12.127165211020609 ], [ -64.73849851449593, -12.12576691097812 ], [ -64.738235032477732, -12.124580654043772 ], [ -64.738321752453885, -12.12401868441831 ], [ -64.737932559012322, -12.123503089019048 ], [ -64.737755796990569, -12.122364353062885 ], [ -64.737495792483912, -12.121843409152921 ], [ -64.737407516705574, -12.120753556743155 ], [ -64.73723599841378, -12.120586241496566 ], [ -64.73710397715746, -12.119927867493317 ], [ -64.73718984152751, -12.119534575744439 ], [ -64.736885446364653, -12.118006863348553 ], [ -64.73684162513247, -12.115582290375629 ], [ -64.737190890382323, -12.11291644568993 ], [ -64.737801603794466, -12.110212284145746 ], [ -64.738278217421822, -12.108868388807808 ], [ -64.738280654541342, -12.108471582087679 ], [ -64.739065816503114, -12.106506952912799 ], [ -64.739453663631309, -12.105908001460678 ], [ -64.739499470138199, -12.104683334827554 ], [ -64.739976083814213, -12.10364418452758 ], [ -64.740454969206965, -12.102033388207827 ], [ -64.740544310955045, -12.100112156261996 ], [ -64.740761642962582, -12.099614507913037 ], [ -64.740933866056807, -12.099595414935889 ], [ -64.741456275276875, -12.098985930727903 ], [ -64.741717485242305, -12.098289375140302 ], [ -64.741717485778835, -12.097941208799158 ], [ -64.74145739788932, -12.097636281309848 ], [ -64.741543345636273, -12.097462323406813 ], [ -64.741282262128578, -12.097418788371126 ], [ -64.741047186683772, -12.097884112562928 ], [ -64.740585701845418, -12.098115343185386 ], [ -64.740345589016599, -12.098627872475895 ], [ -64.739889140987444, -12.098420094191546 ], [ -64.739799931634408, -12.098981834146453 ], [ -64.739636425318395, -12.10027264278051 ], [ -64.739580515199108, -12.100363471545368 ], [ -64.739405454649258, -12.101465805572447 ], [ -64.739343401127087, -12.1018940133211 ], [ -64.739330957900279, -12.101934902130035 ], [ -64.739321980439016, -12.101991432062331 ], [ -64.738641059895059, -12.104138465814119 ], [ -64.738182983441789, -12.105710190681862 ], [ -64.737632787013936, -12.107487260338106 ], [ -64.736914892414219, -12.110230643275383 ], [ -64.736905514117325, -12.110269243251196 ], [ -64.736654866305742, -12.111346345225741 ], [ -64.736474019945035, -12.112785542050744 ], [ -64.736403718736184, -12.113316317292067 ], [ -64.736337156113819, -12.113856343474726 ], [ -64.73627568708757, -12.115078595726487 ], [ -64.736275730940278, -12.116900286769512 ], [ -64.736343471566045, -12.117514479681915 ], [ -64.736508074572839, -12.118629152580013 ], [ -64.736858038881735, -12.12023495979156 ], [ -64.737364788347008, -12.121852583021962 ], [ -64.737907000522796, -12.123664568958532 ], [ -64.73817639985981, -12.12464179524801 ], [ -64.738186972443245, -12.124703803990791 ], [ -64.738190226235204, -12.124714439837504 ], [ -64.738256316125103, -12.125110508232982 ], [ -64.738501921209775, -12.126550994621368 ], [ -64.738656142147875, -12.127408059056165 ], [ -64.739008200786103, -12.12946722530738 ], [ -64.739147922926662, -12.129678307327898 ], [ -64.739079710695961, -12.129885481748284 ], [ -64.73908984675893, -12.129944766868789 ], [ -64.739172429103917, -12.130391030929317 ], [ -64.739322108474624, -12.130495590614892 ], [ -64.739288592181936, -12.131018760825825 ], [ -64.739317758983574, -12.13117637436094 ], [ -64.739626853717326, -12.131322756474541 ], [ -64.739559366564251, -12.131524547447301 ], [ -64.739366720567219, -12.131419651228541 ], [ -64.73936672061977, -12.13144095656166 ], [ -64.739384101780274, -12.131534882052222 ], [ -64.739415092481835, -12.131712455615512 ], [ -64.739507839000993, -12.131856725652568 ], [ -64.739576737087802, -12.132638662742801 ], [ -64.739594941653365, -12.132742973049218 ], [ -64.739768394420082, -12.133028920636535 ], [ -64.739838653680678, -12.134139418141528 ], [ -64.739839093505623, -12.134141938293681 ], [ -64.739862175702612, -12.13425254342158 ], [ -64.740018669030007, -12.134283139571632 ], [ -64.739908808702765, -12.134475999141577 ], [ -64.740249838403429, -12.136110143139206 ], [ -64.740834306962427, -12.138507631882533 ], [ -64.741262271986329, -12.140080113569358 ], [ -64.741518911455003, -12.140048666311749 ], [ -64.741640271358648, -12.140364397491311 ], [ -64.741412867551333, -12.140518467562986 ], [ -64.741434468047672, -12.140712817500456 ], [ -64.741471725515737, -12.140849713468469 ], [ -64.742111299916019, -12.14310995761854 ], [ -64.743054515572922, -12.146278194822608 ], [ -64.743196714080682, -12.14665537553725 ], [ -64.743729049735634, -12.147764863311522 ], [ -64.744013943558414, -12.148408467047116 ], [ -64.744442192419399, -12.149302751432895 ], [ -64.744750895222978, -12.149834227008967 ], [ -64.745600803763523, -12.151065009502076 ], [ -64.746320361347614, -12.151802580780611 ], [ -64.74726422742134, -12.152629430704053 ], [ -64.74835230512565, -12.153610889607364 ], [ -64.749243429837179, -12.154270714033828 ], [ -64.749943368364484, -12.154751025977646 ], [ -64.750399087614198, -12.154914974806069 ], [ -64.751399428078386, -12.155212373322499 ], [ -64.751481327419199, -12.155231497922575 ], [ -64.751774079005187, -12.15518978070333 ], [ -64.750538762297168, -12.154791007822423 ], [ -64.749510257150618, -12.153970799704693 ], [ -64.749186538921577, -12.153874526979671 ], [ -64.747899471753669, -12.152403538948626 ], [ -64.747390555334235, -12.152124780778001 ], [ -64.746777608774281, -12.15138032798677 ] ], [ [ -64.739718955009664, -12.131878739164907 ], [ -64.739884881901958, -12.131952063729864 ], [ -64.739751292051594, -12.13198355160389 ], [ -64.739718955009664, -12.131878739164907 ] ] ], [ [ [ -64.732558786219869, -12.091055715503586 ], [ -64.732052718781787, -12.090627323335054 ], [ -64.731080597404841, -12.090316111095795 ], [ -64.730790202747485, -12.089974297800049 ], [ -64.728831126142538, -12.088929456944065 ], [ -64.727774967521057, -12.088620201152629 ], [ -64.726610839323527, -12.087928151123805 ], [ -64.726300038635074, -12.087925571205783 ], [ -64.723508533856119, -12.086878799724783 ], [ -64.720167654044957, -12.084880698627144 ], [ -64.719454739934562, -12.08465606522322 ], [ -64.718643927796649, -12.084097067985162 ], [ -64.718228602173085, -12.084069331562679 ], [ -64.717686157011997, -12.083661717628491 ], [ -64.716293035870677, -12.083139297200498 ], [ -64.714074154363828, -12.082834489076806 ], [ -64.712723267807334, -12.082921622022264 ], [ -64.711156017443244, -12.083269901779701 ], [ -64.711156017443273, -12.083530987300966 ], [ -64.712641421716881, -12.08327008241276 ], [ -64.712787135891418, -12.083270055883041 ], [ -64.713054215631814, -12.083248658060654 ], [ -64.713679026653011, -12.083269893499313 ], [ -64.71397524558563, -12.08326983956767 ], [ -64.714036269157262, -12.083282035092576 ], [ -64.714168017244901, -12.083286512811981 ], [ -64.715029114632443, -12.083440705229464 ], [ -64.715298023262918, -12.083534195908612 ], [ -64.715519345604108, -12.08357842704835 ], [ -64.720656479614064, -12.085624573714306 ], [ -64.721448341198055, -12.086011280402888 ], [ -64.723022262429311, -12.086758527014183 ], [ -64.725816877317186, -12.08812930293459 ], [ -64.727271140545838, -12.088758110204761 ], [ -64.727776234397723, -12.088960171176286 ], [ -64.72942246448531, -12.089549300771409 ], [ -64.730265729911594, -12.089944306289283 ], [ -64.73117933896566, -12.090487875139502 ], [ -64.73239849315388, -12.091313412379293 ], [ -64.733415092791333, -12.092053429652308 ], [ -64.73364740694025, -12.092209346619526 ], [ -64.733796869177382, -12.092363777936397 ], [ -64.734259867041601, -12.092790659243633 ], [ -64.735786316954204, -12.094396261909708 ], [ -64.73603357530385, -12.094674846465658 ], [ -64.736260605338799, -12.094909424429545 ], [ -64.736426496992067, -12.095117549064737 ], [ -64.736450844283013, -12.095144981016972 ], [ -64.736473962040847, -12.095177097847136 ], [ -64.738150758622027, -12.097280776181019 ], [ -64.738384390066798, -12.097412909456137 ], [ -64.738806440368933, -12.097590614846553 ], [ -64.739108711460915, -12.097677217054354 ], [ -64.739528429990685, -12.09770022186297 ], [ -64.73840882253198, -12.095590306126537 ], [ -64.737856379727347, -12.095093881668639 ], [ -64.737625201051898, -12.094632537600257 ], [ -64.736493292419567, -12.093674775831715 ], [ -64.733489374958751, -12.091454489012683 ], [ -64.732558786219869, -12.091055715503586 ] ] ], [ [ [ -64.706976526782029, -12.078350432002468 ], [ -64.70693299228283, -12.078176302606591 ], [ -64.706715432884252, -12.078132768098904 ], [ -64.706323628763613, -12.078437507198974 ], [ -64.706323629019494, -12.078655074052588 ], [ -64.706541176961693, -12.07878566841285 ], [ -64.706976526782029, -12.078350432002468 ] ] ], [ [ [ -64.696745920635863, -12.077305601893528 ], [ -64.69665885056456, -12.077566687413789 ], [ -64.696917789771831, -12.078039894713021 ], [ -64.696920060778808, -12.078567993234209 ], [ -64.697181260073094, -12.078829202920256 ], [ -64.697703564720612, -12.078742133376897 ], [ -64.698310576454503, -12.077653260496756 ], [ -64.698138925997284, -12.07747974256416 ], [ -64.697573075393848, -12.077436207528443 ], [ -64.697385492263479, -12.077716799213025 ], [ -64.696979673703993, -12.077594399128929 ], [ -64.696963480034256, -12.07726206738583 ], [ -64.696745920635863, -12.077305601893528 ] ] ], [ [ [ -64.697089618292281, -12.07614214662896 ], [ -64.696882571490661, -12.076301716629921 ], [ -64.69670238559992, -12.076260761037478 ], [ -64.696702386136437, -12.076521857304538 ], [ -64.697398819471303, -12.077131337057132 ], [ -64.697713094158672, -12.076707850957874 ], [ -64.698008309970817, -12.076608916629118 ], [ -64.698179971638055, -12.07595539417327 ], [ -64.697812950894615, -12.075911886737392 ], [ -64.697486016241768, -12.075477130395411 ], [ -64.697455621379902, -12.075742608458675 ], [ -64.697007130849485, -12.075738340609467 ], [ -64.697089618292281, -12.07614214662896 ] ] ], [ [ [ -64.798498876678266, -12.064727715945059 ], [ -64.79870628520149, -12.064834132178294 ], [ -64.798748382514887, -12.065072132179969 ], [ -64.799357872478041, -12.064288615478983 ], [ -64.799314337978799, -12.06415802111824 ], [ -64.79869050395483, -12.06410801982398 ], [ -64.798617893176285, -12.063853276396518 ], [ -64.798400228916591, -12.063983880975606 ], [ -64.79813901870277, -12.064810921965943 ], [ -64.798498876678266, -12.064727715945059 ] ] ], [ [ [ -64.799520415750735, -12.012806242506173 ], [ -64.799488605332641, -12.013178380408617 ], [ -64.79976060795174, -12.013312695829583 ], [ -64.799357999689505, -12.013918465268688 ], [ -64.799733596001275, -12.01402042212932 ], [ -64.800273524587013, -12.014789228326018 ], [ -64.800315643811359, -12.012394863708 ], [ -64.799836874164967, -12.012264259128905 ], [ -64.799780734528952, -12.012428788838786 ], [ -64.799401534724865, -12.01243839874371 ], [ -64.799227331250876, -12.012657342960866 ], [ -64.799270929617904, -12.012786554341295 ], [ -64.799520415750735, -12.012806242506173 ] ] ], [ [ [ -64.804190325317137, -12.013310368492279 ], [ -64.804414572794855, -12.013384775631211 ], [ -64.804538658017449, -12.014049069847935 ], [ -64.804799752237074, -12.01374433009603 ], [ -64.804756527472676, -12.012921552617627 ], [ -64.804930357056222, -12.012133642747528 ], [ -64.804799751949318, -12.0116112223195 ], [ -64.80458220396909, -12.011567698030172 ], [ -64.804538669469778, -12.011915864374352 ], [ -64.804678890519639, -12.012070387291843 ], [ -64.804364528790956, -12.012351328672173 ], [ -64.804190325317137, -12.013310368492279 ] ] ], [ [ [ -64.804146726950108, -12.013483239599577 ], [ -64.803755261030901, -12.013087424143913 ], [ -64.804190325317151, -12.012001654663967 ], [ -64.803888136903993, -12.011792183651181 ], [ -64.803972586271698, -12.011088801891486 ], [ -64.803715957860419, -12.010839591527377 ], [ -64.803755959514376, -12.010565580098776 ], [ -64.80394793115407, -12.010056084721262 ], [ -64.804277342974316, -12.010130916637685 ], [ -64.804451472200668, -12.009913241987288 ], [ -64.804451472200682, -12.009739226532052 ], [ -64.804190325315389, -12.009684929816141 ], [ -64.804495006700407, -12.008302456413807 ], [ -64.804407936629232, -12.007562464002294 ], [ -64.803841981701964, -12.00690944921357 ], [ -64.803625179088669, -12.006995414852948 ], [ -64.803450177297222, -12.006778844634573 ], [ -64.803232606946025, -12.006778844634566 ], [ -64.803231495938292, -12.008824809672317 ], [ -64.803089397519841, -12.009076591094686 ], [ -64.802884337577467, -12.009042665961381 ], [ -64.802753669140046, -12.009348680247747 ], [ -64.802840827087792, -12.009521495985844 ], [ -64.803175267981928, -12.009399641914552 ], [ -64.803187878193526, -12.009653618507031 ], [ -64.802985028034144, -12.009960699359121 ], [ -64.802753732470592, -12.009608621425112 ], [ -64.802710197971322, -12.010087392876198 ], [ -64.803058478256901, -12.011132233732274 ], [ -64.8033607873476, -12.011170776323709 ], [ -64.803591647907922, -12.012333208134477 ], [ -64.803450293041948, -12.012394863707891 ], [ -64.803544974869268, -12.012925928193969 ], [ -64.802767019097843, -12.01263922455599 ], [ -64.802710070773259, -12.012264258600922 ], [ -64.802244692895528, -12.012072565471801 ], [ -64.801882904559434, -12.011437082176904 ], [ -64.801681429666289, -12.011377610652426 ], [ -64.801370538005372, -12.01093629742479 ], [ -64.801229879024604, -12.010522846427875 ], [ -64.800794655865687, -12.010218111924496 ], [ -64.800751121366389, -12.010566278268515 ], [ -64.801023474880864, -12.011038022685145 ], [ -64.800620515723281, -12.011132347673632 ], [ -64.800749916184799, -12.012222185681081 ], [ -64.800627481402174, -12.012401789916527 ], [ -64.800315770473802, -12.012394863707978 ], [ -64.800315771010645, -12.014832711764116 ], [ -64.801534740556647, -12.015572796096292 ], [ -64.801888230700726, -12.015442496718583 ], [ -64.802318217755101, -12.015486758118556 ], [ -64.803102012757392, -12.015877541873927 ], [ -64.803890842345567, -12.015703706928511 ], [ -64.804233807937564, -12.015790471274686 ], [ -64.804840821585472, -12.015398162507717 ], [ -64.804584697504964, -12.015144381548907 ], [ -64.804495006698943, -12.014484534673661 ], [ -64.804064238200425, -12.014191789418044 ], [ -64.804059656878707, -12.013787984849266 ], [ -64.803907361813714, -12.013692894600307 ], [ -64.804146726950108, -12.013483239599577 ] ], [ [ -64.800427262526028, -12.013927667779235 ], [ -64.800550680911343, -12.014129409906646 ], [ -64.800412767342522, -12.014114355153787 ], [ -64.800427262526028, -12.013927667779235 ] ], [ [ -64.801177921640459, -12.01112580762002 ], [ -64.801314640669702, -12.011180864383123 ], [ -64.801223823317287, -12.011216838425142 ], [ -64.801177921640459, -12.01112580762002 ] ], [ [ -64.803680410297844, -12.007886986124538 ], [ -64.80378512290217, -12.008024551230127 ], [ -64.803688909246503, -12.008039809869079 ], [ -64.803680410297844, -12.007886986124538 ] ] ], [ [ [ -64.800315643275894, -12.008824980036824 ], [ -64.800141503669579, -12.008520245533461 ], [ -64.799880420116253, -12.008389640426461 ], [ -64.799706280509952, -12.008737909965504 ], [ -64.799749815545653, -12.008999016984397 ], [ -64.800228689485422, -12.009477891102543 ], [ -64.800315643275894, -12.008824980036824 ] ] ], [ [ [ -64.801183879719986, -12.008345486991786 ], [ -64.800666489812542, -12.00839898062431 ], [ -64.800576864942741, -12.008128430740376 ], [ -64.800446375825757, -12.008215495356847 ], [ -64.800576980687126, -12.009303751487824 ], [ -64.800881599275854, -12.009260216452144 ], [ -64.801183879719986, -12.008345486991786 ] ] ] ] } }
]
}
