{
"type": "FeatureCollection",
"name": "rio_omere",
"crs": { "type": "name", "properties": { "name": "urn:ogc:def:crs:OGC:1.3:CRS84" } },
"features": [
{ "type": "Feature", "properties": { "area_ha": 2.09 }, "geometry": { "type": "MultiPolygon", "coordinates": [ [ [ [ -61.017174371028759, -12.838502082945261 ], [ -61.017164579015251, -12.83825449033939 ], [ -61.016990565923003, -12.838341560410775 ], [ -61.017088907869812, -12.838698617896206 ], [ -61.016947052252426, -12.838776898977489 ], [ -61.016947046153383, -12.838777048117231 ], [ -61.01699056592318, -12.839168601420559 ], [ -61.017098994770478, -12.838917076499801 ], [ -61.017295195072045, -12.838994460750003 ], [ -61.017556394336125, -12.83877678609951 ], [ -61.01746932426483, -12.838559235589136 ], [ -61.017174371028759, -12.838502082945261 ] ] ], [ [ [ -61.015249100971012, -12.747787292708342 ], [ -61.018077522161875, -12.747875693956754 ], [ -61.021213337355135, -12.747701491479637 ], [ -61.018064003328249, -12.747701541288206 ], [ -61.015557531980136, -12.747744001288504 ], [ -61.015249100971012, -12.747787292708342 ] ] ], [ [ [ -61.033392593132326, -12.747701553821704 ], [ -61.033192849321971, -12.747533667888911 ], [ -61.030917361111001, -12.747498 ], [ -61.030738403835642, -12.747500757749368 ], [ -61.025175089103548, -12.747613152557026 ], [ -61.028429599195924, -12.747570948714708 ], [ -61.029181668520152, -12.747701553814647 ], [ -61.032217147169135, -12.747658018808353 ], [ -61.033401854705836, -12.747788623885427 ], [ -61.034317383090922, -12.747570886371911 ], [ -61.034111420818519, -12.747548060798495 ], [ -61.033874036837041, -12.747544341582691 ], [ -61.033392593132326, -12.747701553821704 ] ] ] ] } }
]
}
