{
"type": "FeatureCollection",
"name": "rio_negro_ocaia",
"crs": { "type": "name", "properties": { "name": "urn:ogc:def:crs:OGC:1.3:CRS84" } },
"features": [
{ "type": "Feature", "properties": { "area_ha": 43.14 }, "geometry": { "type": "MultiPolygon", "coordinates": [ [ [ [ -64.914659653571363, -11.201292250851777 ], [ -64.914421087891171, -11.200988869436127 ], [ -64.9143602924851, -11.201286859751365 ], [ -64.913985748418838, -11.201250079122218 ], [ -64.914234426734438, -11.201356915168674 ], [ -64.914294502656048, -11.201628022361374 ], [ -64.913797697124309, -11.202626077397987 ], [ -64.913589320431669, -11.202727872694052 ], [ -64.913158582741417, -11.202425525085301 ], [ -64.913185965652914, -11.202670788180905 ], [ -64.912940907563083, -11.20255613019232 ], [ -64.912853838026521, -11.202730156394615 ], [ -64.913202117777232, -11.203209031040766 ], [ -64.913767946951268, -11.202991355862434 ], [ -64.913826339019323, -11.202850590155387 ], [ -64.914023180587151, -11.203019718698862 ], [ -64.914029168049623, -11.203252565548533 ], [ -64.914262326982595, -11.202867031389003 ], [ -64.914541643919208, -11.20273405017072 ], [ -64.915030462985769, -11.202817215719818 ], [ -64.915073997486829, -11.202164304125043 ], [ -64.914847021198241, -11.201993644961913 ], [ -64.914943456059092, -11.201730233540449 ], [ -64.914812787807705, -11.201293614157885 ], [ -64.914659653571363, -11.201292250851777 ] ], [ [ -64.914680507721783, -11.201555445430936 ], [ -64.91454046597147, -11.201504034875981 ], [ -64.914667452285215, -11.201326863551158 ], [ -64.91472552773557, -11.201375793028641 ], [ -64.914680507721783, -11.201555445430936 ] ] ], [ [ [ -64.909943413084662, -11.19856571127325 ], [ -64.909762723670639, -11.197984951447278 ], [ -64.909283964566043, -11.197941416411586 ], [ -64.909109824958207, -11.198637863041615 ], [ -64.909320543471622, -11.198793865455356 ], [ -64.909371034637587, -11.199073202652077 ], [ -64.909810922306946, -11.199266511514725 ], [ -64.909675779887365, -11.19946514265996 ], [ -64.909684152686964, -11.199731621831807 ], [ -64.909712174980996, -11.200047320782346 ], [ -64.909697441405143, -11.200154558816539 ], [ -64.909719251776338, -11.200848712496713 ], [ -64.909588646671807, -11.201164278080753 ], [ -64.909718676834885, -11.203632475441045 ], [ -64.909724278465731, -11.203639356118464 ], [ -64.909849856885486, -11.203512507260834 ], [ -64.90976376847324, -11.201118693339064 ], [ -64.910198137171193, -11.20063919490695 ], [ -64.909765152113579, -11.199677711265092 ], [ -64.909946924072344, -11.19964306265479 ], [ -64.910067584324167, -11.199856832766253 ], [ -64.910399704393768, -11.199915255012508 ], [ -64.910501533944085, -11.200335781029974 ], [ -64.910764028955995, -11.19963927205635 ], [ -64.910589900232353, -11.199378073116529 ], [ -64.910335228424046, -11.199479947033208 ], [ -64.910241608528139, -11.198812106378673 ], [ -64.909943413084662, -11.19856571127325 ] ] ], [ [ [ -64.88851302216392, -11.191169998199655 ], [ -64.889218349270536, -11.191669300208753 ], [ -64.888561172184708, -11.190975811233214 ], [ -64.887342306588025, -11.190409855241633 ], [ -64.887926235411186, -11.190816032293336 ], [ -64.88851302216392, -11.191169998199655 ] ] ], [ [ [ -64.831530379976257, -11.181615652818122 ], [ -64.831782667624935, -11.181630070926715 ], [ -64.83187866026168, -11.182094538210432 ], [ -64.83235744113604, -11.181963933103463 ], [ -64.832313906100453, -11.181267498281027 ], [ -64.831748055154549, -11.181223963245319 ], [ -64.83144332069503, -11.181441639784129 ], [ -64.831530379976257, -11.181615652818122 ] ] ], [ [ [ -64.815727057510173, -11.180875682960535 ], [ -64.81552732124598, -11.180992989976993 ], [ -64.815378766340714, -11.1806144722186 ], [ -64.814893713200547, -11.180655427812342 ], [ -64.814638670734382, -11.180353262004592 ], [ -64.814209614391103, -11.180742497882658 ], [ -64.813769381621455, -11.180570874836365 ], [ -64.813506886628488, -11.180745066578828 ], [ -64.814353111069209, -11.181015365796686 ], [ -64.814987077306711, -11.181789793488177 ], [ -64.815247545519213, -11.181747362961467 ], [ -64.815814232100237, -11.181963933102923 ], [ -64.81607533779534, -11.181963933102901 ], [ -64.816249467053893, -11.181789793488207 ], [ -64.816155910455024, -11.181647920715916 ], [ -64.816336537125267, -11.181615653345517 ], [ -64.816551883855951, -11.181049236074211 ], [ -64.8162931283766, -11.181006287539615 ], [ -64.816324131713742, -11.181160535936117 ], [ -64.816097561299827, -11.18121958458635 ], [ -64.815727057510173, -11.180875682960535 ] ], [ [ -64.814627257875884, -11.180784102281104 ], [ -64.8145346573491, -11.180591220554657 ], [ -64.814618684458765, -11.180554823502773 ], [ -64.814627257875884, -11.180784102281104 ] ] ], [ [ [ -64.852731953764945, -11.180832033451289 ], [ -64.85299316344431, -11.18113676795441 ], [ -64.853167177397864, -11.181093231004963 ], [ -64.853191652506126, -11.180841225471648 ], [ -64.853515457053362, -11.18078860161336 ], [ -64.853184519568941, -11.180687945183273 ], [ -64.852949513008326, -11.180309727495573 ], [ -64.852688418194532, -11.180527402146012 ], [ -64.852731953764945, -11.180832033451289 ] ] ], [ [ [ -64.834055422833856, -11.179700238373741 ], [ -64.833993938223585, -11.18003521932803 ], [ -64.833663607607733, -11.180092051789947 ], [ -64.833707142643433, -11.180440207383057 ], [ -64.833881271902143, -11.180527276926442 ], [ -64.834403576928764, -11.180527277454388 ], [ -64.834403576928864, -11.179917911647285 ], [ -64.83423186516616, -11.179879356879677 ], [ -64.834272971821932, -11.179613166397564 ], [ -64.834055422833856, -11.179700238373741 ] ] ], [ [ [ -64.842451390061228, -11.178173930828208 ], [ -64.84219506303188, -11.177915237660642 ], [ -64.841761875933585, -11.178131789295033 ], [ -64.841324895911981, -11.178088254255902 ], [ -64.841107972422591, -11.177741159863585 ], [ -64.840977493503487, -11.177784696826523 ], [ -64.841019827589591, -11.178047333662727 ], [ -64.840878883797785, -11.17817200020327 ], [ -64.840511013317027, -11.1779824785941 ], [ -64.840542016958921, -11.177523484685256 ], [ -64.840010015615064, -11.177068411544388 ], [ -64.840237271174715, -11.176826810169379 ], [ -64.840522838417613, -11.175877607579981 ], [ -64.84088617921114, -11.175859036909021 ], [ -64.840759818420736, -11.176522054173052 ], [ -64.840933832280157, -11.176739729351413 ], [ -64.841128084334301, -11.17605471043691 ], [ -64.841488225090828, -11.176149959931299 ], [ -64.841543322779586, -11.176565589208755 ], [ -64.841978673232873, -11.176260842019085 ], [ -64.841820684284798, -11.176059116560332 ], [ -64.842152824162895, -11.175999633217154 ], [ -64.84263169867161, -11.175433678281406 ], [ -64.842501093564664, -11.174911382545055 ], [ -64.842216493545763, -11.174855474105152 ], [ -64.841935148984803, -11.174476032716326 ], [ -64.841761124240733, -11.174737242402413 ], [ -64.841841147862823, -11.175058898957589 ], [ -64.8416802229968, -11.175213548386099 ], [ -64.84150098877484, -11.175174021205363 ], [ -64.841503742231538, -11.174508945960342 ], [ -64.841848131170849, -11.174387568345907 ], [ -64.841561272068887, -11.174375664738443 ], [ -64.841509107924381, -11.174108258735625 ], [ -64.841722610017655, -11.174042792158629 ], [ -64.842414023493475, -11.17438883742534 ], [ -64.842285745694582, -11.173633762955481 ], [ -64.842762366919843, -11.173255657419025 ], [ -64.842762303779111, -11.173039376011291 ], [ -64.842204548170145, -11.173069995166786 ], [ -64.84215281327981, -11.172560490618961 ], [ -64.841634960367557, -11.172267701061333 ], [ -64.841935201242137, -11.17169105898533 ], [ -64.841632744499222, -11.171480628950295 ], [ -64.841891603066088, -11.171341384928475 ], [ -64.841891666206493, -11.17112510352162 ], [ -64.841637348260377, -11.171011354911727 ], [ -64.841630519132863, -11.170732019120861 ], [ -64.841461737164508, -11.171398666310942 ], [ -64.841151633740679, -11.171472114727266 ], [ -64.840933958464362, -11.172125142234144 ], [ -64.841107750352521, -11.172556456421555 ], [ -64.840716283919122, -11.173561785692691 ], [ -64.840713855056151, -11.174263337377509 ], [ -64.840542143144759, -11.174388964070697 ], [ -64.840668504050569, -11.174660164065436 ], [ -64.84027784935445, -11.17483268029296 ], [ -64.840019722813977, -11.174476032188437 ], [ -64.839627908027794, -11.175172582012468 ], [ -64.839623339920706, -11.17548929380273 ], [ -64.839453767253872, -11.175607945058681 ], [ -64.839496257627673, -11.176043947222592 ], [ -64.839236092707083, -11.176565703153919 ], [ -64.839061888888011, -11.177565625948024 ], [ -64.839357376968991, -11.177721666724578 ], [ -64.839475390319237, -11.178184405996097 ], [ -64.839018416898938, -11.178437722354376 ], [ -64.838931347457901, -11.178872956845799 ], [ -64.83910513870309, -11.179304387178444 ], [ -64.838931346828204, -11.179439028166781 ], [ -64.838844213709677, -11.180049785835168 ], [ -64.838974871075237, -11.180527276926654 ], [ -64.839495038816992, -11.180695774190669 ], [ -64.839544249780445, -11.181023412005144 ], [ -64.83923609217338, -11.181093357610184 ], [ -64.839323162244895, -11.182007468667324 ], [ -64.839758512601605, -11.182181608810044 ], [ -64.840073192990232, -11.182098443427229 ], [ -64.840193852074293, -11.182355748424756 ], [ -64.840482437900022, -11.182283566167746 ], [ -64.840581110599672, -11.182454899791495 ], [ -64.840324468600102, -11.182660504949052 ], [ -64.841004876941483, -11.183155327378037 ], [ -64.841151634277992, -11.183618275733798 ], [ -64.841543438180281, -11.183966544744569 ], [ -64.841817943001004, -11.183859904392653 ], [ -64.841935148983083, -11.184053614815918 ], [ -64.842351310549191, -11.183583308878109 ], [ -64.842631698669848, -11.183618264987208 ], [ -64.842698126961523, -11.183453201711425 ], [ -64.843023514084692, -11.183357052888033 ], [ -64.843023513990872, -11.183226574357855 ], [ -64.842596363731403, -11.183213658459712 ], [ -64.842544956241184, -11.182927151862449 ], [ -64.842718768835297, -11.182834632456212 ], [ -64.842774869991544, -11.182374334777563 ], [ -64.843328259335181, -11.182094536843397 ], [ -64.84311059494658, -11.181833453744309 ], [ -64.842788525110279, -11.182000705797741 ], [ -64.842725044328816, -11.181721637736977 ], [ -64.843197654133945, -11.181615778038019 ], [ -64.843067059910965, -11.181441638423328 ], [ -64.842530192535506, -11.181522241498188 ], [ -64.84237079755593, -11.181228264908558 ], [ -64.842805838813078, -11.181006162847051 ], [ -64.842612691891787, -11.180117252851931 ], [ -64.842849373848935, -11.18004839206233 ], [ -64.842791402594926, -11.179750113307641 ], [ -64.842980105240514, -11.179874251919676 ], [ -64.843284724205702, -11.179787181848322 ], [ -64.843091577318816, -11.179464227320874 ], [ -64.843545934419893, -11.179090621277613 ], [ -64.843717747106282, -11.178437134173238 ], [ -64.842988463007131, -11.178571115221475 ], [ -64.842979978421653, -11.178220034509208 ], [ -64.842849384733213, -11.178132975712485 ], [ -64.842451390061228, -11.178173930828208 ] ], [ [ -64.840281346807942, -11.179308884076212 ], [ -64.840060499467668, -11.179460157986378 ], [ -64.83991037503246, -11.1793056975546 ], [ -64.84022594083784, -11.179221288757367 ], [ -64.840281346807942, -11.179308884076212 ] ], [ [ -64.84019438807475, -11.175478705103776 ], [ -64.840112961641907, -11.175605363708058 ], [ -64.839999025373928, -11.17553398904721 ], [ -64.840058643140637, -11.175392540998173 ], [ -64.84019438807475, -11.175478705103776 ] ], [ [ -64.840498617972543, -11.1805708468895 ], [ -64.840390062939633, -11.180822510430104 ], [ -64.840147565946239, -11.180806967214478 ], [ -64.840345816977404, -11.180493379378234 ], [ -64.840498617972543, -11.1805708468895 ] ], [ [ -64.840297365521295, -11.175252705144089 ], [ -64.84013579909012, -11.175243948481603 ], [ -64.840174676528321, -11.175051065780137 ], [ -64.840297365521295, -11.175252705144089 ] ], [ [ -64.840356463346581, -11.177910789987832 ], [ -64.840328429246995, -11.177816024239377 ], [ -64.840431954076692, -11.177788585706191 ], [ -64.840356463346581, -11.177910789987832 ] ], [ [ -64.840803878579578, -11.181181794759276 ], [ -64.840571115943973, -11.181217496228445 ], [ -64.840548566089026, -11.181034894669185 ], [ -64.840643649370747, -11.181012629349608 ], [ -64.840803878579578, -11.181181794759276 ] ], [ [ -64.841108623827154, -11.180528769222137 ], [ -64.840880734094895, -11.180740886498874 ], [ -64.840676866445321, -11.180343145577165 ], [ -64.841074126844433, -11.180400863186652 ], [ -64.841108623827154, -11.180528769222137 ] ], [ [ -64.84115163570074, -11.182573463477608 ], [ -64.840990834695205, -11.182599498290342 ], [ -64.840943329592221, -11.182324078005307 ], [ -64.84106264162763, -11.182331306500171 ], [ -64.84115163570074, -11.182573463477608 ] ], [ [ -64.841152158863508, -11.181355934897098 ], [ -64.841097812591158, -11.181594442206105 ], [ -64.840953977987397, -11.181603404639016 ], [ -64.841022824383813, -11.181330000670451 ], [ -64.841152158863508, -11.181355934897098 ] ], [ [ -64.841050288987631, -11.181303499481681 ], [ -64.840951174697281, -11.181297435687176 ], [ -64.840946398441744, -11.181155353798678 ], [ -64.841050288987631, -11.181303499481681 ] ], [ [ -64.841296674885257, -11.181317374596976 ], [ -64.841319224749853, -11.181412906100412 ], [ -64.841222145605087, -11.181434680218256 ], [ -64.841296674885257, -11.181317374596976 ] ], [ [ -64.841586981941347, -11.183226540491312 ], [ -64.841334131416687, -11.18344703903894 ], [ -64.841235620710336, -11.183148031127841 ], [ -64.841369275257122, -11.183096876158764 ], [ -64.841586981941347, -11.183226540491312 ] ], [ [ -64.841978788536707, -11.182486479279392 ], [ -64.841575526346645, -11.182878231741572 ], [ -64.841245624160962, -11.182633995452292 ], [ -64.841398281734826, -11.182318680418835 ], [ -64.841674020635935, -11.182269710480901 ], [ -64.841848068028014, -11.182399283988428 ], [ -64.842109278336295, -11.182138071880631 ], [ -64.842109277707422, -11.181964047576756 ], [ -64.841883586682442, -11.181775288587756 ], [ -64.841964004372215, -11.181665214036446 ], [ -64.842219897343568, -11.181583659953823 ], [ -64.842414086634349, -11.181998039717199 ], [ -64.842327080240707, -11.182181619556756 ], [ -64.842434721492012, -11.182368989624871 ], [ -64.842256441458218, -11.182610126188145 ], [ -64.841978788536707, -11.182486479279392 ] ], [ [ -64.841582202583893, -11.183705115794332 ], [ -64.841445064099901, -11.183630964361223 ], [ -64.841605993198186, -11.183526845355827 ], [ -64.841582202583893, -11.183705115794332 ] ], [ [ -64.842283539957435, -11.182791123106529 ], [ -64.842162502417139, -11.183440058710852 ], [ -64.841634637266054, -11.183062425988945 ], [ -64.841838132957847, -11.182882074065247 ], [ -64.842283539957435, -11.182791123106529 ] ], [ [ -64.842370488456709, -11.179264886111934 ], [ -64.842103109941959, -11.179349376776024 ], [ -64.841937750453098, -11.179141058090064 ], [ -64.841984775736194, -11.178770705470177 ], [ -64.842234863130187, -11.178570435866927 ], [ -64.842588279035411, -11.178960015642627 ], [ -64.842839810453853, -11.178746531833045 ], [ -64.842981994902431, -11.178786354009601 ], [ -64.842890422810498, -11.179445803362235 ], [ -64.842725063306048, -11.1796105869968 ], [ -64.842441126422329, -11.179606208723937 ], [ -64.842370488456709, -11.179264886111934 ] ], [ [ -64.84219689215557, -11.173562264410817 ], [ -64.842053696745623, -11.173697476032748 ], [ -64.841985222092077, -11.173459798453743 ], [ -64.842080539074246, -11.173437092298002 ], [ -64.84219689215557, -11.173562264410817 ] ], [ [ -64.842629396598113, -11.178355630786752 ], [ -64.842540140499594, -11.178391787665989 ], [ -64.842503521919852, -11.178302010228359 ], [ -64.842629396598113, -11.178355630786752 ] ] ] ] } }
]
}
