{
"type": "FeatureCollection",
"name": "sagarana",
"crs": { "type": "name", "properties": { "name": "urn:ogc:def:crs:OGC:1.3:CRS84" } },
"features": [
{ "type": "Feature", "properties": { "patch_id": 1276.0, "area_ha": 1.4353, "lon_centro": -64.985552, "lat_centro": -11.981679 }, "geometry": { "type": "Polygon", "coordinates": [ [ [ -64.986394437521639, -11.982420849032671 ], [ -64.98612579567444, -11.982057755665826 ], [ -64.986210246131762, -11.981789733626366 ], [ -64.985958382134228, -11.981634965201746 ], [ -64.985818441725002, -11.981180243654888 ], [ -64.984457521975912, -11.980870988460888 ], [ -64.983075850198375, -11.979917727092687 ], [ -64.983772410769234, -11.980701233059486 ], [ -64.985450075680461, -11.981366630358233 ], [ -64.985775022946413, -11.982007294874816 ], [ -64.986428037031231, -11.982703844172489 ], [ -64.987298737744709, -11.983443939778876 ], [ -64.987644445830682, -11.983530518652255 ], [ -64.986394437521639, -11.982420849032671 ] ] ] } },
{ "type": "Feature", "properties": { "patch_id": 1275.0, "area_ha": 1.0921, "lon_centro": -64.995734, "lat_centro": -11.907652 }, "geometry": { "type": "Polygon", "coordinates": [ [ [ -64.996136234282091, -11.906778867168605 ], [ -64.995888137566197, -11.90676979863307 ], [ -64.995875139756478, -11.906561192518108 ], [ -64.995641283698475, -11.907067666788613 ], [ -64.995352730239688, -11.907127147454004 ], [ -64.995561061791989, -11.907238256166625 ], [ -64.995570056185258, -11.907427891991683 ], [ -64.995477217475383, -11.907925979323679 ], [ -64.995265660168542, -11.907954313131667 ], [ -64.995395916043023, -11.908167987626685 ], [ -64.99517859009741, -11.909042564348393 ], [ -64.995396138482036, -11.90891196311399 ], [ -64.995451392007396, -11.908322160193354 ], [ -64.996049163674456, -11.908041269273214 ], [ -64.996136234282091, -11.906778867168605 ] ] ] } },
{ "type": "Feature", "properties": { "patch_id": 1265.0, "area_ha": 0.2737, "lon_centro": -65.007423, "lat_centro": -11.856037 }, "geometry": { "type": "Polygon", "coordinates": [ [ [ -65.007324865036068, -11.854754499543866 ], [ -65.007411871818903, -11.855963958816892 ], [ -65.007281266713107, -11.856363902284651 ], [ -65.00741162528648, -11.856587241989837 ], [ -65.007456758400551, -11.85780188970352 ], [ -65.007474715460859, -11.856762542605269 ], [ -65.007463214984, -11.85523907657929 ], [ -65.007324865036068, -11.854754499543866 ] ] ] } }
]
}
