{
"type": "FeatureCollection",
"name": "tanaru_restricao_de_uso",
"crs": { "type": "name", "properties": { "name": "urn:ogc:def:crs:OGC:1.3:CRS84" } },
"features": [
{ "type": "Feature", "properties": { "area_ha": 42.6 }, "geometry": { "type": "MultiPolygon", "coordinates": [ [ [ [ -61.36723374598121, -12.696044709989593 ], [ -61.368864656591377, -12.696054447007675 ], [ -61.368708699464207, -12.69593839640517 ], [ -61.366359163641668, -12.695983262868912 ], [ -61.36723374598121, -12.696044709989593 ] ] ], [ [ [ -61.340416612834602, -12.69184843843558 ], [ -61.340718383696966, -12.692194383336075 ], [ -61.340789762665068, -12.691983112257917 ], [ -61.340934755365026, -12.692107250391267 ], [ -61.341065243880635, -12.692020191594425 ], [ -61.340891104275812, -12.691497885110513 ], [ -61.340194670704015, -12.691410815039177 ], [ -61.340194670704157, -12.692020180847885 ], [ -61.340416612834602, -12.69184843843558 ] ] ], [ [ [ -61.344112544349976, -12.690410416118308 ], [ -61.344548163325356, -12.690714129249747 ], [ -61.344862290663691, -12.690587715488242 ], [ -61.344896454556235, -12.690757664813342 ], [ -61.345288142340806, -12.69040939527456 ], [ -61.344504512236547, -12.69014829900491 ], [ -61.343764543628716, -12.69027890411191 ], [ -61.343895137790277, -12.690539989107076 ], [ -61.344112544349976, -12.690410416118308 ] ] ], [ [ [ -61.346484762254434, -12.68591550363684 ], [ -61.346278216557089, -12.685920890565026 ], [ -61.345680085196975, -12.685359445081353 ], [ -61.345462410018698, -12.685751135711385 ], [ -61.346178011443094, -12.685933854743322 ], [ -61.346332760410334, -12.686313242603569 ], [ -61.346115435553969, -12.686534891044463 ], [ -61.346023772079512, -12.687112863076797 ], [ -61.345495865067832, -12.687993199941701 ], [ -61.345370650506332, -12.687865308518344 ], [ -61.345505817519928, -12.687318407742058 ], [ -61.345375542441268, -12.687008329261609 ], [ -61.345505817520056, -12.686839522349691 ], [ -61.345462283022151, -12.686491356008784 ], [ -61.344591698360254, -12.686883171857684 ], [ -61.344101464949752, -12.687444616808948 ], [ -61.344069161342944, -12.687057300725797 ], [ -61.343656300231288, -12.687047414572017 ], [ -61.343590587333921, -12.686756807788804 ], [ -61.343924284646143, -12.686454162740148 ], [ -61.344243312968814, -12.686404160718553 ], [ -61.344314240842323, -12.686105633696958 ], [ -61.344635117344602, -12.686099415996766 ], [ -61.344635117344602, -12.685925400545054 ], [ -61.344226262261486, -12.685904991999847 ], [ -61.344330372095001, -12.685751135711405 ], [ -61.344269797337894, -12.68529265886904 ], [ -61.344525986804079, -12.684933662226609 ], [ -61.344722187416188, -12.685011040105033 ], [ -61.344896327558914, -12.68483689996236 ], [ -61.344873051562089, -12.684588063091612 ], [ -61.34506917517222, -12.684706357201 ], [ -61.345244607306611, -12.684575700494904 ], [ -61.345269220921118, -12.684280147257875 ], [ -61.345767028272391, -12.684358014569945 ], [ -61.345854097806054, -12.684053383264692 ], [ -61.345009766394625, -12.684133636757 ], [ -61.34498339763055, -12.683530973583233 ], [ -61.344809373537899, -12.683487439075535 ], [ -61.344526444256452, -12.683912830470236 ], [ -61.34402575384118, -12.684096929046929 ], [ -61.34396195980829, -12.684476371061285 ], [ -61.343415625882443, -12.684618163587793 ], [ -61.343242346527106, -12.68448477107354 ], [ -61.343244272505373, -12.68409110043347 ], [ -61.343416199844107, -12.683921395142686 ], [ -61.343285531239502, -12.683530973583188 ], [ -61.34280237767944, -12.683789786073755 ], [ -61.342850180882834, -12.683487438547528 ], [ -61.342417272555679, -12.683231209013467 ], [ -61.342421333475087, -12.683045140522584 ], [ -61.34276311027395, -12.682921369139541 ], [ -61.34271957577603, -12.682703807905447 ], [ -61.341892537093031, -12.682703807905511 ], [ -61.34138288937956, -12.683134931973466 ], [ -61.340872110653685, -12.683230521143173 ], [ -61.340602601350071, -12.683166745650688 ], [ -61.340543153476709, -12.682883270453393 ], [ -61.340978173811592, -12.682877834103898 ], [ -61.34093463931368, -12.682486132727103 ], [ -61.340325275808915, -12.682747342941099 ], [ -61.340325275809164, -12.683879129177736 ], [ -61.340542887491551, -12.684129700987182 ], [ -61.34039794642873, -12.684177532688123 ], [ -61.340325275809178, -12.684009858975466 ], [ -61.340293277997361, -12.684137843935343 ], [ -61.340281741404588, -12.684818320025647 ], [ -61.340281741311564, -12.685402866172719 ], [ -61.340412282384847, -12.68566339969769 ], [ -61.340281740773939, -12.685707725366557 ], [ -61.340250043633723, -12.686687896549465 ], [ -61.34024382296905, -12.687054784195121 ], [ -61.340392120213018, -12.687025193298526 ], [ -61.340547513436206, -12.687299353048392 ], [ -61.340393297146605, -12.687352854002487 ], [ -61.340259909759062, -12.687108947318402 ], [ -61.340238715632104, -12.687356005276122 ], [ -61.340238605647556, -12.687362491919556 ], [ -61.34058647507878, -12.687840816895697 ], [ -61.34092144596741, -12.687616377421302 ], [ -61.34146841993239, -12.688158970587123 ], [ -61.341363763426358, -12.688624249262562 ], [ -61.340822085239417, -12.688480670400986 ], [ -61.340586359026972, -12.688015082257024 ], [ -61.340412345881532, -12.688015082257033 ], [ -61.340223046970117, -12.688280092099314 ], [ -61.340194671533439, -12.689953501677133 ], [ -61.340194670704079, -12.691367155312799 ], [ -61.340295339442086, -12.691232779407258 ], [ -61.340499415953659, -12.691367155312857 ], [ -61.34074714050589, -12.691217304691731 ], [ -61.340934639311548, -12.691280085241496 ], [ -61.341108778916549, -12.691062420809724 ], [ -61.340969992564112, -12.690816167220055 ], [ -61.341146087793646, -12.690757988321121 ], [ -61.341283046595635, -12.691018875027478 ], [ -61.341702135247836, -12.691164367284149 ], [ -61.341805456078283, -12.691410689820525 ], [ -61.341961927608438, -12.691069144988338 ], [ -61.342470377606773, -12.691014147865809 ], [ -61.34280677284427, -12.691671900562463 ], [ -61.343111391094844, -12.691715435598169 ], [ -61.343285530699887, -12.69119312911433 ], [ -61.342876675784105, -12.690691003315862 ], [ -61.343633822468597, -12.690583524142756 ], [ -61.343720881056775, -12.69032242840095 ], [ -61.342887758969624, -12.690232789701216 ], [ -61.342816658204676, -12.690038515559118 ], [ -61.343633822468711, -12.690017568679046 ], [ -61.343935909797487, -12.689779088195674 ], [ -61.344417442165316, -12.689886964099992 ], [ -61.344833751926998, -12.688720097013105 ], [ -61.345144213464977, -12.688728350243212 ], [ -61.345027059662812, -12.689103333457945 ], [ -61.345201083752954, -12.68910333292998 ], [ -61.345897633378293, -12.688885658279583 ], [ -61.346158843592306, -12.688624448065525 ], [ -61.346231641782282, -12.688282634247919 ], [ -61.346681264020447, -12.688319702815866 ], [ -61.346628084858381, -12.687577175771633 ], [ -61.346986008732614, -12.687318407742014 ], [ -61.346942473696991, -12.687144370797183 ], [ -61.34672492605349, -12.687100846508153 ], [ -61.346627776013619, -12.687383709409731 ], [ -61.346300807615364, -12.687662291985992 ], [ -61.346117584890678, -12.687530368136924 ], [ -61.346376518233278, -12.68731840774203 ], [ -61.346431808827866, -12.686902707072223 ], [ -61.346594193949443, -12.68688304663873 ], [ -61.346518878885767, -12.686597961836112 ], [ -61.346942474234893, -12.686447696282043 ], [ -61.347005990159559, -12.686257891467132 ], [ -61.347203684448928, -12.68631709117504 ], [ -61.347110090196992, -12.686131682779605 ], [ -61.347334289018285, -12.686012356671915 ], [ -61.347247219484714, -12.685707725366781 ], [ -61.347029555251687, -12.685664190859018 ], [ -61.346594320946153, -12.685707725366779 ], [ -61.346484762254434, -12.68591550363684 ] ], [ [ -61.340804097705849, -12.691148812828455 ], [ -61.340575127497416, -12.691188629888462 ], [ -61.340395178681931, -12.690952213556461 ], [ -61.340688061737247, -12.690894295526547 ], [ -61.340804097705849, -12.691148812828455 ] ], [ [ -61.34071752041865, -12.690258164025146 ], [ -61.340716963595852, -12.689800007972874 ], [ -61.340507534779654, -12.689743567919445 ], [ -61.340456064765114, -12.689577977479171 ], [ -61.340562269655692, -12.689019333656509 ], [ -61.340717520262096, -12.68908177189458 ], [ -61.340717091131502, -12.689321008636433 ], [ -61.340885666848621, -12.689336307126899 ], [ -61.340891231274234, -12.689495148779057 ], [ -61.341229629703378, -12.689224060982012 ], [ -61.341326570685482, -12.689364543144112 ], [ -61.341606832402583, -12.68932958749852 ], [ -61.341675389933897, -12.689493781899751 ], [ -61.34137011720437, -12.689582332794537 ], [ -61.341631016036814, -12.689934865209075 ], [ -61.341405405825419, -12.690265988338318 ], [ -61.34071752041865, -12.690258164025146 ] ], [ [ -61.340547269083821, -12.684692825837937 ], [ -61.340731363516333, -12.68462569122959 ], [ -61.340878629247477, -12.684947738450242 ], [ -61.340746226807532, -12.684961163329628 ], [ -61.340552196827211, -12.684856393349348 ], [ -61.340547269083821, -12.684692825837937 ] ], [ [ -61.340694733283669, -12.686356372877265 ], [ -61.340578728922701, -12.686325859012836 ], [ -61.340643214798355, -12.686223255939778 ], [ -61.340694733283669, -12.686356372877265 ] ], [ [ -61.340746226984585, -12.68648488957558 ], [ -61.340723275057876, -12.68637989737678 ], [ -61.340821714284125, -12.686367361344971 ], [ -61.340746226984585, -12.68648488957558 ] ], [ [ -61.341106968364741, -12.683268973068898 ], [ -61.341145855552647, -12.683415171940382 ], [ -61.34078775470369, -12.683828761212112 ], [ -61.340886964301454, -12.683384324560141 ], [ -61.341106968364741, -12.683268973068898 ] ], [ [ -61.34171892496483, -12.686707539611962 ], [ -61.341527850638656, -12.686832678669189 ], [ -61.341506905706524, -12.686597572639737 ], [ -61.341645833006496, -12.686584326996829 ], [ -61.34171892496483, -12.686707539611962 ] ], [ [ -61.342114479874432, -12.687620869228367 ], [ -61.341679180081428, -12.687593201046788 ], [ -61.341823773552697, -12.686889242980813 ], [ -61.342114479874432, -12.687620869228367 ] ], [ [ -61.342197003588062, -12.685882772408082 ], [ -61.342406220037169, -12.686079732488281 ], [ -61.342284352414872, -12.686273556139508 ], [ -61.342429441975938, -12.686388571355332 ], [ -61.342153683809705, -12.686533497283836 ], [ -61.342362049573772, -12.686602467769321 ], [ -61.342284352414985, -12.68679597656754 ], [ -61.342442249978035, -12.686811924234908 ], [ -61.34227485373755, -12.687053120669358 ], [ -61.342033095129104, -12.686774218908056 ], [ -61.341786299147607, -12.685977389758145 ], [ -61.342197003588062, -12.685882772408082 ] ], [ [ -61.342329542711404, -12.683095916249258 ], [ -61.342279299693253, -12.683312954452704 ], [ -61.342023365525129, -12.683135184929586 ], [ -61.342115538272083, -12.683008733674312 ], [ -61.342329542711404, -12.683095916249258 ] ], [ [ -61.342559069840384, -12.685801656229946 ], [ -61.342493457169148, -12.685701186271794 ], [ -61.34259846950404, -12.68566825645145 ], [ -61.342559069840384, -12.685801656229946 ] ], [ [ -61.343024320487196, -12.685925389798371 ], [ -61.342684778208366, -12.685513777051515 ], [ -61.343154774424931, -12.685490957087554 ], [ -61.343372726135797, -12.685664099506317 ], [ -61.343198588163887, -12.685881865509311 ], [ -61.343189215266534, -12.68624951446081 ], [ -61.342918329137383, -12.686308013128924 ], [ -61.343024320487196, -12.685925389798371 ] ], [ [ -61.3431550444827, -12.683966315451686 ], [ -61.342978134976107, -12.684028214031192 ], [ -61.343004425817469, -12.683748407252116 ], [ -61.34314568031634, -12.683772690459209 ], [ -61.3431550444827, -12.683966315451686 ] ], [ [ -61.34338608673751, -12.686597672610548 ], [ -61.343288158330708, -12.68654172877015 ], [ -61.343367798474226, -12.686406396247007 ], [ -61.34338608673751, -12.686597672610548 ] ], [ [ -61.344923746951764, -12.687650854308636 ], [ -61.34477971117964, -12.687649678510649 ], [ -61.344783006842412, -12.687549140783968 ], [ -61.344923746951764, -12.687650854308636 ] ], [ [ -61.346114541969754, -12.688103086487995 ], [ -61.345924889409218, -12.688095194692654 ], [ -61.345863471322048, -12.68795205391249 ], [ -61.346090941184819, -12.687892931343795 ], [ -61.346114541969754, -12.688103086487995 ] ], [ [ -61.346442901026485, -12.686199726677193 ], [ -61.346525139823086, -12.685960640817035 ], [ -61.346635579661104, -12.686093712027583 ], [ -61.346442901026485, -12.686199726677193 ] ] ], [ [ [ -61.345366602485221, -12.685034891696533 ], [ -61.345375329001989, -12.685402854898047 ], [ -61.345679969146069, -12.685359319862403 ], [ -61.345555490095123, -12.68490873896843 ], [ -61.345680236827214, -12.684794396521834 ], [ -61.345984703450604, -12.684836899962347 ], [ -61.345723504181869, -12.684575814967278 ], [ -61.34528825893053, -12.684619350002968 ], [ -61.345114130270858, -12.685011050851591 ], [ -61.345366602485221, -12.685034891696533 ] ] ], [ [ [ -61.326394064388936, -12.660849219999239 ], [ -61.326366895313441, -12.66160988014988 ], [ -61.326367050960549, -12.662054302277415 ], [ -61.326611612046527, -12.661850411876051 ], [ -61.326463969076116, -12.661435459480911 ], [ -61.32682928722506, -12.661066781234013 ], [ -61.326742344674273, -12.660762149927903 ], [ -61.32660236766413, -12.661173334069757 ], [ -61.326466732197041, -12.661191033887768 ], [ -61.326394064388936, -12.660849219999239 ] ] ], [ [ [ -61.348594237891113, -12.579002710554947 ], [ -61.347160160380696, -12.577958512614428 ], [ -61.346899066169243, -12.57795851208645 ], [ -61.347116741347598, -12.578219597608353 ], [ -61.348594237891113, -12.579002710554947 ] ] ] ] } }
]
}
