{
"type": "FeatureCollection",
"name": "uty_xunati",
"crs": { "type": "name", "properties": { "name": "urn:ogc:def:crs:OGC:1.3:CRS84" } },
"features": [
{ "type": "Feature", "properties": { "area_ha": 31.01 }, "geometry": { "type": "MultiPolygon", "coordinates": [ [ [ [ -60.014914242048711, -12.422150856484897 ], [ -60.014509299423487, -12.422103084335649 ], [ -60.014613920826768, -12.422357581273129 ], [ -60.014117473178196, -12.422146619898808 ], [ -60.013982744213465, -12.422434741044125 ], [ -60.013603865310976, -12.422679017485995 ], [ -60.01308594576691, -12.422260395009758 ], [ -60.013028981458334, -12.422059549299913 ], [ -60.012680827925301, -12.422016014264265 ], [ -60.012593757853999, -12.422494775076046 ], [ -60.012763785460983, -12.42252620103997 ], [ -60.012811433032482, -12.423017195504112 ], [ -60.013072516493828, -12.423017195504084 ], [ -60.013066478814331, -12.422699987293569 ], [ -60.013292960278001, -12.42251741104274 ], [ -60.013333853997196, -12.422799531062768 ], [ -60.013594936921798, -12.423060730539667 ], [ -60.013672205998034, -12.422803421531306 ], [ -60.013986752242843, -12.422843055361302 ], [ -60.014212580444585, -12.422648537439274 ], [ -60.014465637635162, -12.422886590396981 ], [ -60.014538379369249, -12.422501235821962 ], [ -60.014726847849197, -12.422712450254272 ], [ -60.014812155436751, -12.422529891137687 ], [ -60.015423408419927, -12.422538310111555 ], [ -60.015432763333756, -12.422301244971235 ], [ -60.015641083061631, -12.422233575598945 ], [ -60.015597559486935, -12.422103084863199 ], [ -60.015110834357422, -12.422057349757949 ], [ -60.014944638855887, -12.42188540968483 ], [ -60.014914242048711, -12.422150856484897 ] ] ], [ [ [ -60.012375955923503, -12.421406523764867 ], [ -60.01172305714028, -12.421101778515144 ], [ -60.01154891699764, -12.421232383622122 ], [ -60.011679172457391, -12.421489642047565 ], [ -60.011480816126493, -12.42174560946825 ], [ -60.011344244363741, -12.421745665956974 ], [ -60.011244055920365, -12.421493594363607 ], [ -60.011026496913431, -12.421580657029427 ], [ -60.011069681959675, -12.4227086231217 ], [ -60.010939427035282, -12.422886601134195 ], [ -60.011287706784074, -12.423321940753821 ], [ -60.011722941312357, -12.423321940226334 ], [ -60.011882518476895, -12.423110285856136 ], [ -60.012158291669053, -12.423104265047966 ], [ -60.012332420350823, -12.422886601134142 ], [ -60.012301463756991, -12.422645253932547 ], [ -60.012593630564879, -12.422625390920107 ], [ -60.012289934493225, -12.422234421315968 ], [ -60.012305097170092, -12.42207535827197 ], [ -60.012506571954589, -12.422146494263197 ], [ -60.01259363056505, -12.421928830349415 ], [ -60.012375955923503, -12.421406523764867 ] ] ], [ [ [ -60.013945654563429, -12.42080204799322 ], [ -60.014073885690657, -12.42044736045019 ], [ -60.013978644220686, -12.420049263131355 ], [ -60.014204427421859, -12.420013278042777 ], [ -60.014117368274789, -12.419490982723012 ], [ -60.013856273887782, -12.41944744715984 ], [ -60.013986550144125, -12.419670401630123 ], [ -60.01390039237274, -12.419838077641479 ], [ -60.013619502622831, -12.419786532843865 ], [ -60.013507877775432, -12.419578052794302 ], [ -60.013377388838563, -12.419665115472995 ], [ -60.013377388495506, -12.420100348114207 ], [ -60.013677998981542, -12.420204041788992 ], [ -60.013611774113585, -12.420364017017809 ], [ -60.013333842535737, -12.420231078329316 ], [ -60.01327009836772, -12.420479925653964 ], [ -60.013012659469396, -12.420485336552066 ], [ -60.012876089746037, -12.420271891674178 ], [ -60.013028980922165, -12.420013391886391 ], [ -60.012854968067458, -12.419926332552157 ], [ -60.01259375785353, -12.420448752980137 ], [ -60.012633158213944, -12.420649804608122 ], [ -60.012419501883571, -12.420535823578945 ], [ -60.012114872461204, -12.42062289312282 ], [ -60.012201942532606, -12.420927513791966 ], [ -60.012894390588031, -12.421220149968024 ], [ -60.012724362960881, -12.421841749540965 ], [ -60.012991703286822, -12.421711467661355 ], [ -60.013377261743777, -12.421754679469652 ], [ -60.013203121064521, -12.421319442956433 ], [ -60.012942240242026, -12.42109637470352 ], [ -60.013260397953822, -12.420618981377965 ], [ -60.013462186637142, -12.420704121815209 ], [ -60.013246783925418, -12.421014594600322 ], [ -60.013499272935228, -12.421169040054581 ], [ -60.01350799360285, -12.421406399184287 ], [ -60.01385001705173, -12.421319652352619 ], [ -60.01394333303535, -12.421493468728114 ], [ -60.014257526690919, -12.421454121344592 ], [ -60.014204554710339, -12.421711155170978 ], [ -60.014509288499156, -12.421841749013403 ], [ -60.014683312277135, -12.421580550063972 ], [ -60.014639777241669, -12.420709952457162 ], [ -60.014465764387467, -12.420622893122918 ], [ -60.014552505607526, -12.420878699461575 ], [ -60.01441597257282, -12.421101455296023 ], [ -60.013945654563429, -12.42080204799322 ] ], [ [ -60.012472590377776, -12.420879916247175 ], [ -60.012380215990454, -12.420850589978288 ], [ -60.012502605974319, -12.420777229354503 ], [ -60.012472590377776, -12.420879916247175 ] ], [ [ -60.013558474521865, -12.420988148262841 ], [ -60.013569741848258, -12.420846634603283 ], [ -60.013719095454562, -12.420869149944354 ], [ -60.013680242765219, -12.421058893239096 ], [ -60.013558474521865, -12.420988148262841 ] ] ], [ [ [ -60.019559236810188, -12.414527863548203 ], [ -60.018340266735613, -12.413918498157635 ], [ -60.017426030986663, -12.41361375290786 ], [ -60.017121401561745, -12.413657287416099 ], [ -60.019559236810188, -12.414527863548203 ] ] ], [ [ [ -60.022954969596668, -12.396025473388626 ], [ -60.022954969060095, -12.395764377019287 ], [ -60.022606805128696, -12.395503178069896 ], [ -60.021866720982324, -12.396373764411189 ], [ -60.022476095127431, -12.396722033431866 ], [ -60.022954969596668, -12.396025473388626 ] ] ], [ [ [ -60.021474841757176, -12.394231193219353 ], [ -60.021619841565936, -12.39411639261292 ], [ -60.021692580839172, -12.39441468780608 ], [ -60.021953663776721, -12.394501747140263 ], [ -60.021978227269592, -12.394206196579379 ], [ -60.022432549169146, -12.394153466854876 ], [ -60.022297381717252, -12.393476077192565 ], [ -60.022432560092476, -12.393065216072488 ], [ -60.021479742948834, -12.393108406936978 ], [ -60.021170148951029, -12.392934610965366 ], [ -60.02078687736239, -12.393157215710321 ], [ -60.020506275179351, -12.392806635669229 ], [ -60.020908833844253, -12.392629740079039 ], [ -60.02090883384426, -12.392412190537398 ], [ -60.020389170798133, -12.392520165599741 ], [ -60.019428747524138, -12.392455725573063 ], [ -60.019170189797855, -12.392650770716848 ], [ -60.018862687167911, -12.392499260608552 ], [ -60.01847098766244, -12.392542795116777 ], [ -60.01842745316344, -12.392934496593464 ], [ -60.018851071848239, -12.39325889603816 ], [ -60.019385223948575, -12.394371152770525 ], [ -60.019814449148122, -12.394747723061643 ], [ -60.019777038733167, -12.395154772675399 ], [ -60.020384092104933, -12.395498038517907 ], [ -60.020336421463838, -12.395953356519374 ], [ -60.020125319018803, -12.396069133006009 ], [ -60.019777039270181, -12.396678612768163 ], [ -60.019907632917359, -12.396939708610326 ], [ -60.021692453562181, -12.39667849892372 ], [ -60.021657638434348, -12.396441140939848 ], [ -60.022519618703512, -12.395415993626431 ], [ -60.022171649173011, -12.395019946149759 ], [ -60.022187548718634, -12.394865961148332 ], [ -60.022432548632331, -12.394763071198845 ], [ -60.021719664020146, -12.394625525303995 ], [ -60.021474841757176, -12.394231193219353 ] ], [ [ -60.020473270488324, -12.393059811337203 ], [ -60.020391367030669, -12.39310840692546 ], [ -60.020277048492041, -12.392931889252491 ], [ -60.020418409226622, -12.392803943047705 ], [ -60.020473270488324, -12.393059811337203 ] ], [ [ -60.021379744000185, -12.395556628424853 ], [ -60.021172654924705, -12.395379420650475 ], [ -60.021381903982594, -12.394973392840651 ], [ -60.021518020851914, -12.395374175559814 ], [ -60.021379744000185, -12.395556628424853 ] ] ], [ [ [ -60.009284968391881, -12.418576621865995 ], [ -60.00911083917336, -12.418097861581291 ], [ -60.008632069949002, -12.418228459316484 ], [ -60.008675593718593, -12.41866369140986 ], [ -60.009284968391881, -12.418576621865995 ] ] ], [ [ [ -60.009241432819991, -12.416704729175398 ], [ -60.008894569839356, -12.416487002444178 ], [ -60.008831678646366, -12.416706292756571 ], [ -60.008698312336946, -12.416369563881686 ], [ -60.008936688107163, -12.416138659868544 ], [ -60.008893161699753, -12.41600817086108 ], [ -60.008376880297398, -12.416310347498962 ], [ -60.007935509035704, -12.416269389555683 ], [ -60.008022579107113, -12.416661080296612 ], [ -60.008756549632075, -12.416950590133629 ], [ -60.00870539821728, -12.417056807529244 ], [ -60.00841439442825, -12.417009485162072 ], [ -60.008457918539953, -12.417183500197133 ], [ -60.008886706611818, -12.41721220683565 ], [ -60.008675605179086, -12.417618964924401 ], [ -60.008806201121196, -12.418054209918592 ], [ -60.008980234066378, -12.418097735946175 ], [ -60.009140034279909, -12.417755916905939 ], [ -60.009415573499084, -12.417749456188268 ], [ -60.009241433356465, -12.417488370554482 ], [ -60.009063260671361, -12.417474491739462 ], [ -60.009079025331964, -12.417290234637274 ], [ -60.009241433356564, -12.417227035760265 ], [ -60.009241432819991, -12.416704729175398 ] ] ], [ [ [ -60.005497547037763, -12.41491980344982 ], [ -60.005639440623753, -12.415498283259387 ], [ -60.00556721109966, -12.41568988849823 ], [ -60.005410476966603, -12.415703434091856 ], [ -60.005454012002339, -12.416008054761722 ], [ -60.00579236346848, -12.415707210695604 ], [ -60.006150445824559, -12.415877449654698 ], [ -60.006440638094041, -12.415578724659849 ], [ -60.006847005858639, -12.415529180106285 ], [ -60.006672866252707, -12.415137478628207 ], [ -60.006534293605426, -12.415321530502057 ], [ -60.006063386677283, -12.41505040908431 ], [ -60.005758046056151, -12.415179828836097 ], [ -60.005497547037763, -12.41491980344982 ] ] ], [ [ [ -60.00822579816969, -12.414913342743922 ], [ -60.008153386309999, -12.414707407337975 ], [ -60.00841426714284, -12.414615047463235 ], [ -60.007724779529617, -12.414370822638737 ], [ -60.007935382287286, -12.414049102736593 ], [ -60.00776125306853, -12.413918498157015 ], [ -60.007617022225332, -12.414096425225013 ], [ -60.007252278972679, -12.414012445383833 ], [ -60.007068650634615, -12.413754923165698 ], [ -60.007076741256206, -12.413580508231588 ], [ -60.007369426823836, -12.413352417585804 ], [ -60.007234631500076, -12.41307526364271 ], [ -60.007500031591185, -12.413004144097222 ], [ -60.007272678197111, -12.412876118096788 ], [ -60.007369426287362, -12.412481830715407 ], [ -60.006672982076459, -12.41230770183722 ], [ -60.00649885339427, -12.412568797680814 ], [ -60.006822677206969, -12.412533823153877 ], [ -60.007116451419179, -12.412924741887668 ], [ -60.006940224602815, -12.413175824930134 ], [ -60.006585912005271, -12.41300426240792 ], [ -60.006497949608665, -12.413133763501135 ], [ -60.006107037536736, -12.413091331951808 ], [ -60.006143500195861, -12.413238911686248 ], [ -60.005962974918553, -12.413359420063143 ], [ -60.005802292287072, -12.413309007130076 ], [ -60.006148300718195, -12.413694981204033 ], [ -60.006019968002214, -12.413961918822228 ], [ -60.006237631720104, -12.41413604770044 ], [ -60.006815537797024, -12.414218275665922 ], [ -60.006890668179111, -12.41448432851322 ], [ -60.007053076354275, -12.41450399245571 ], [ -60.006957518749395, -12.414733300986894 ], [ -60.006716528573165, -12.414789084499926 ], [ -60.007021262362372, -12.41509381848512 ], [ -60.00724313874484, -12.415121410278942 ], [ -60.007151878393394, -12.415485634333583 ], [ -60.007325891787623, -12.415529169369272 ], [ -60.007597681169607, -12.415311556488552 ], [ -60.007717857506918, -12.415529237419049 ], [ -60.007926132559938, -12.415464683297303 ], [ -60.007871947091452, -12.415719197537477 ], [ -60.007587217826227, -12.415616364548093 ], [ -60.007326018877031, -12.415746962307406 ], [ -60.007707837222597, -12.41607253003763 ], [ -60.007761357969031, -12.416312799483791 ], [ -60.00832810144216, -12.416052693292595 ], [ -60.008544872786153, -12.416138659868551 ], [ -60.008553593246106, -12.415944835941398 ], [ -60.00876254796453, -12.415920984690185 ], [ -60.008762547964636, -12.415398688842329 ], [ -60.008319524149549, -12.415276757801895 ], [ -60.008457802715093, -12.41487626841432 ], [ -60.00822579816969, -12.414913342743922 ] ], [ [ -60.006975402363452, -12.413598857376805 ], [ -60.006938547958072, -12.413741961902501 ], [ -60.006762373595663, -12.413662302367738 ], [ -60.006975402363452, -12.413598857376805 ] ], [ [ -60.007016801778128, -12.413567821755791 ], [ -60.006979883359648, -12.413477306056974 ], [ -60.007070610468617, -12.413432251740886 ], [ -60.007016801778128, -12.413567821755791 ] ], [ [ -60.008107758817722, -12.415747618683069 ], [ -60.007975940299175, -12.41565123578512 ], [ -60.008052655050406, -12.415553362285907 ], [ -60.008150912339673, -12.41561052273706 ], [ -60.008107758817722, -12.415747618683069 ] ], [ [ -60.008566278546411, -12.41587320008763 ], [ -60.008462062683193, -12.41584406097256 ], [ -60.008489775594569, -12.415750700065651 ], [ -60.008566278546411, -12.41587320008763 ] ] ], [ [ [ -60.004583311628203, -12.413831420759447 ], [ -60.004704561866795, -12.414242633081832 ], [ -60.004147961468455, -12.41444080421468 ], [ -60.004365625186381, -12.414789073235575 ], [ -60.004726744925286, -12.41479330851857 ], [ -60.005149140004391, -12.415180889084025 ], [ -60.005099567155753, -12.414950750837614 ], [ -60.005453885254148, -12.414789073762984 ], [ -60.005453884717546, -12.414527977391772 ], [ -60.005150043440679, -12.414570419686774 ], [ -60.00511172997566, -12.414469093152064 ], [ -60.005497420289934, -12.41431018837061 ], [ -60.005419726647702, -12.414115097155431 ], [ -60.005715095468332, -12.41409251319233 ], [ -60.005799663363, -12.413874335945314 ], [ -60.005410350218838, -12.41313486698739 ], [ -60.005018661644925, -12.413047796916018 ], [ -60.00471391639531, -12.41339607720138 ], [ -60.004925018484521, -12.413628581426826 ], [ -60.004583311628203, -12.413831420759447 ] ], [ [ -60.005582179842079, -12.413662302416885 ], [ -60.005493075496112, -12.413698426869347 ], [ -60.005545426871393, -12.413572488356975 ], [ -60.005582179842079, -12.413662302416885 ] ] ], [ [ [ -60.005932897392555, -12.407126907485203 ], [ -60.006411666964205, -12.407170441993337 ], [ -60.006667626789479, -12.406996607308752 ], [ -60.006672992998972, -12.407170442520824 ], [ -60.006847006397351, -12.407170442520817 ], [ -60.006847006397415, -12.406735216744137 ], [ -60.006276705134383, -12.406819891231079 ], [ -60.006236225931261, -12.406561014311649 ], [ -60.005932897729231, -12.406691674970501 ], [ -60.005932897392555, -12.407126907485203 ] ] ] ] } }
]
}
