{
"type": "FeatureCollection",
"name": "tanaru_restricao_de_uso",
"crs": { "type": "name", "properties": { "name": "urn:ogc:def:crs:OGC:1.3:CRS84" } },
"features": [
{ "type": "Feature", "properties": { "area_ha": 202.48 }, "geometry": { "type": "MultiPolygon", "coordinates": [ [ [ [ -61.433463606084459, -12.696431659174442 ], [ -61.433713605562559, -12.696433133023421 ], [ -61.433713605562559, -12.696280842154929 ], [ -61.433463606084459, -12.696280842154929 ], [ -61.433463606084459, -12.696431659174442 ] ] ], [ [ [ -61.430963611303419, -12.696416920684666 ], [ -61.430963611303419, -12.696280842154929 ], [ -61.430463612347211, -12.696280842154929 ], [ -61.430463612347211, -12.69641397298671 ], [ -61.430963611303419, -12.696416920684666 ] ] ], [ [ [ -61.429713613912902, -12.696409551439777 ], [ -61.429713613912902, -12.696280842154929 ], [ -61.428963615478594, -12.696280842154929 ], [ -61.428963615478594, -12.696405129892844 ], [ -61.429713613912902, -12.696409551439777 ] ] ], [ [ [ -61.428463616522386, -12.696280842154929 ], [ -61.428463616522386, -12.696030842885879 ], [ -61.42771361808807, -12.696030842885879 ], [ -61.42771361808807, -12.696280842154929 ], [ -61.428463616522386, -12.696280842154929 ] ] ], [ [ [ -61.426963619653762, -12.696030842885879 ], [ -61.426713620175654, -12.696030842885879 ], [ -61.426713620175654, -12.696280842154929 ], [ -61.426963619653762, -12.696280842154929 ], [ -61.426963619653762, -12.696030842885879 ] ] ], [ [ [ -61.425463622785138, -12.696030842885879 ], [ -61.424463624872722, -12.696030842885879 ], [ -61.424463624872722, -12.696280842154929 ], [ -61.425463622785138, -12.696280842154929 ], [ -61.425463622785138, -12.696030842885879 ] ] ], [ [ [ -61.423213627482205, -12.696280842154929 ], [ -61.423213627482205, -12.696030842885879 ], [ -61.422963628004098, -12.696030842885879 ], [ -61.422963628004098, -12.696280842154929 ], [ -61.423213627482205, -12.696280842154929 ] ] ], [ [ [ -61.421713630613581, -12.696030842885879 ], [ -61.421463631135481, -12.696030842885879 ], [ -61.421463631135481, -12.696280842154929 ], [ -61.421713630613581, -12.696280842154929 ], [ -61.421713630613581, -12.696030842885879 ] ] ], [ [ [ -61.420463633223065, -12.696030842885879 ], [ -61.420213633744957, -12.696030842885879 ], [ -61.420213633744957, -12.696280842154929 ], [ -61.420463633223065, -12.696280842154929 ], [ -61.420463633223065, -12.696030842885879 ] ] ], [ [ [ -61.414463645748576, -12.696030842885879 ], [ -61.413963646792368, -12.696030842885879 ], [ -61.413963646792368, -12.696280842154929 ], [ -61.414463645748576, -12.696280842154929 ], [ -61.414463645748576, -12.696030842885879 ] ] ], [ [ [ -61.409213656708395, -12.696030842885879 ], [ -61.408963657230295, -12.696030842885879 ], [ -61.408963657230295, -12.696280842154929 ], [ -61.409213656708395, -12.696280842154929 ], [ -61.409213656708395, -12.696030842885879 ] ] ], [ [ [ -61.428963615478594, -12.689780861159608 ], [ -61.428213617044278, -12.689780861159608 ], [ -61.428213617044278, -12.690030860428658 ], [ -61.428463616522386, -12.690030860428658 ], [ -61.428463616522386, -12.690280859697708 ], [ -61.428713616000486, -12.690280859697708 ], [ -61.428713616000486, -12.690030860428658 ], [ -61.428963615478594, -12.690030860428658 ], [ -61.428963615478594, -12.689780861159608 ] ] ], [ [ [ -61.435463601909291, -12.688280865545302 ], [ -61.435213602431183, -12.688280865545302 ], [ -61.435213602431183, -12.688780864083405 ], [ -61.435463601909291, -12.688780864083405 ], [ -61.435463601909291, -12.688280865545302 ] ] ], [ [ [ -61.431463610259627, -12.687280868469099 ], [ -61.431463610259627, -12.687030869200049 ], [ -61.430713611825318, -12.687030869200049 ], [ -61.430713611825318, -12.687280868469099 ], [ -61.431463610259627, -12.687280868469099 ] ] ], [ [ [ -61.430463612347211, -12.679530891128524 ], [ -61.43021361286911, -12.679530891128524 ], [ -61.43021361286911, -12.679780890397574 ], [ -61.430463612347211, -12.679780890397574 ], [ -61.430463612347211, -12.679530891128524 ] ] ], [ [ [ -61.426463620697554, -12.679280891859472 ], [ -61.426213621219446, -12.679280891859472 ], [ -61.426213621219446, -12.679780890397574 ], [ -61.426463620697554, -12.679780890397574 ], [ -61.426463620697554, -12.679280891859472 ] ] ], [ [ [ -61.426963619653762, -12.679030892590422 ], [ -61.426963619653762, -12.679780890397574 ], [ -61.42746361860997, -12.679780890397574 ], [ -61.42746361860997, -12.679530891128524 ], [ -61.42771361808807, -12.679530891128524 ], [ -61.42771361808807, -12.679030892590422 ], [ -61.426963619653762, -12.679030892590422 ] ] ], [ [ [ -61.425963621741346, -12.67878089332137 ], [ -61.425463622785138, -12.67878089332137 ], [ -61.425463622785138, -12.679030892590422 ], [ -61.425963621741346, -12.679030892590422 ], [ -61.425963621741346, -12.67878089332137 ] ] ], [ [ [ -61.432713607650143, -12.678530894052319 ], [ -61.432963607128251, -12.678530894052319 ], [ -61.432963607128251, -12.678280894783269 ], [ -61.433213606606351, -12.678280894783269 ], [ -61.433213606606351, -12.677780896245167 ], [ -61.432713607650143, -12.677780896245167 ], [ -61.432713607650143, -12.678530894052319 ] ] ], [ [ [ -61.425713622263245, -12.677530896976116 ], [ -61.425713622263245, -12.677280897707066 ], [ -61.425213623307037, -12.677280897707066 ], [ -61.425213623307037, -12.678030895514219 ], [ -61.424713624350829, -12.678030895514219 ], [ -61.424713624350829, -12.678280894783269 ], [ -61.425463622785138, -12.678280894783269 ], [ -61.425463622785138, -12.677530896976116 ], [ -61.425713622263245, -12.677530896976116 ] ] ], [ [ [ -61.432463608172043, -12.677530896976116 ], [ -61.432213608693942, -12.677530896976116 ], [ -61.432213608693942, -12.677780896245167 ], [ -61.432463608172043, -12.677780896245167 ], [ -61.432463608172043, -12.677530896976116 ] ] ], [ [ [ -61.432463608172043, -12.676780899168964 ], [ -61.432213608693942, -12.676780899168964 ], [ -61.432213608693942, -12.676530899899912 ], [ -61.431963609215835, -12.676530899899912 ], [ -61.431963609215835, -12.677280897707066 ], [ -61.431713609737734, -12.677280897707066 ], [ -61.431713609737734, -12.677530896976116 ], [ -61.432213608693942, -12.677530896976116 ], [ -61.432213608693942, -12.677280897707066 ], [ -61.432463608172043, -12.677280897707066 ], [ -61.432463608172043, -12.676780899168964 ] ] ], [ [ [ -61.425713622263245, -12.673637334528474 ], [ -61.425713622263245, -12.673780907940355 ], [ -61.425963621741346, -12.673780907940355 ], [ -61.425963621741346, -12.673637709964671 ], [ -61.425713622263245, -12.673637334528474 ] ] ], [ [ [ -61.414350012664336, -12.67278091086415 ], [ -61.414463645748576, -12.672466326455304 ], [ -61.414463645748576, -12.672030913056998 ], [ -61.414620924259452, -12.672030913056998 ], [ -61.414713645226676, -12.67177422222742 ], [ -61.414713645226676, -12.671530914518897 ], [ -61.414801531989532, -12.671530914518897 ], [ -61.414963644704784, -12.671082117999516 ], [ -61.414963644704784, -12.670780916711744 ], [ -61.415072443584656, -12.670780916711744 ], [ -61.415213644182884, -12.670390013771632 ], [ -61.415213644182884, -12.670280918173642 ], [ -61.413963646792368, -12.670280918173642 ], [ -61.413963646792368, -12.670780916711744 ], [ -61.414213646270468, -12.670780916711744 ], [ -61.414213646270468, -12.672280912326048 ], [ -61.413963646792368, -12.672280912326048 ], [ -61.413963646792368, -12.67278091086415 ], [ -61.414350012664336, -12.67278091086415 ] ] ], [ [ [ -61.415463643660992, -12.666530929137879 ], [ -61.415713643139092, -12.666530929137879 ], [ -61.415713643139092, -12.666780928406929 ], [ -61.415463643660992, -12.666780928406929 ], [ -61.415463643660992, -12.667030927675981 ], [ -61.415213644182884, -12.667030927675981 ], [ -61.415213644182884, -12.668030924752184 ], [ -61.414713645226676, -12.668030924752184 ], [ -61.414713645226676, -12.668530923290286 ], [ -61.414213646270468, -12.668530923290286 ], [ -61.414213646270468, -12.668780922559337 ], [ -61.413713647314268, -12.668780922559337 ], [ -61.413713647314268, -12.669530920366491 ], [ -61.413963646792368, -12.669530920366491 ], [ -61.413963646792368, -12.66978091963554 ], [ -61.414463645748576, -12.66978091963554 ], [ -61.414463645748576, -12.669530920366491 ], [ -61.414713645226676, -12.669530920366491 ], [ -61.414713645226676, -12.66978091963554 ], [ -61.415213644182884, -12.66978091963554 ], [ -61.415213644182884, -12.67003091890459 ], [ -61.415343355179772, -12.67003091890459 ], [ -61.415463643660992, -12.669697909543727 ], [ -61.415463643660992, -12.669280921097439 ], [ -61.415614266774888, -12.669280921097439 ], [ -61.415713643139092, -12.669005805315843 ], [ -61.415713643139092, -12.668780922559337 ], [ -61.415794874504968, -12.668780922559337 ], [ -61.4159636426172, -12.668313701087939 ], [ -61.4159636426172, -12.668030924752184 ], [ -61.416065786100091, -12.668030924752184 ], [ -61.4162136420953, -12.667621596860055 ], [ -61.4162136420953, -12.667280926945033 ], [ -61.416336697695208, -12.667280926945033 ], [ -61.416463641573401, -12.666929492632171 ], [ -61.416463641573401, -12.666530929137879 ], [ -61.416607609290324, -12.666530929137879 ], [ -61.416697913155367, -12.666280929868829 ], [ -61.416463641573401, -12.666280929868829 ], [ -61.416463641573401, -12.665780931330726 ], [ -61.416878520885447, -12.665780931330726 ], [ -61.416963640529616, -12.665545284176362 ], [ -61.416963640529616, -12.665280932792626 ], [ -61.41705912861552, -12.665280932792626 ], [ -61.417213640007716, -12.664853179948478 ], [ -61.417213640007716, -12.664530934985473 ], [ -61.417330040210643, -12.664530934985473 ], [ -61.41742034407568, -12.664280935716421 ], [ -61.4162136420953, -12.664280935716421 ], [ -61.4162136420953, -12.664030936447372 ], [ -61.4159636426172, -12.664030936447372 ], [ -61.4159636426172, -12.664280935716421 ], [ -61.415713643139092, -12.664280935716421 ], [ -61.415713643139092, -12.664530934985473 ], [ -61.415463643660992, -12.664530934985473 ], [ -61.415463643660992, -12.666530929137879 ] ] ], [ [ [ -61.416963640529616, -12.658530952528253 ], [ -61.416713641051508, -12.658530952528253 ], [ -61.416713641051508, -12.658780951797304 ], [ -61.416963640529616, -12.658780951797304 ], [ -61.416963640529616, -12.658530952528253 ] ] ], [ [ [ -61.417713638963924, -12.656780957644896 ], [ -61.417713638963924, -12.656530958375846 ], [ -61.417213640007716, -12.656530958375846 ], [ -61.417213640007716, -12.656780957644896 ], [ -61.417713638963924, -12.656780957644896 ] ] ], [ [ [ -61.406963661405463, -12.6962754311828 ], [ -61.406963661405463, -12.696030842885879 ], [ -61.406713661927363, -12.696030842885879 ], [ -61.406713661927363, -12.696273957333821 ], [ -61.406963661405463, -12.6962754311828 ] ] ], [ [ [ -61.406463662449255, -12.696272483484844 ], [ -61.406463662449255, -12.696030842885879 ], [ -61.406213662971155, -12.696030842885879 ], [ -61.406213662971155, -12.696271009635865 ], [ -61.406463662449255, -12.696272483484844 ] ] ], [ [ [ -61.398463679149934, -12.696225320317554 ], [ -61.398963678106142, -12.69622826801551 ], [ -61.398963678106142, -12.696030842885879 ], [ -61.398463679149934, -12.696030842885879 ], [ -61.398463679149934, -12.696225320317554 ] ] ], [ [ [ -61.380463716726467, -12.695780843616827 ], [ -61.380213717248367, -12.695780843616827 ], [ -61.380213717248367, -12.696030842885879 ], [ -61.380463716726467, -12.696030842885879 ], [ -61.380463716726467, -12.695780843616827 ] ] ], [ [ [ -61.374963728208186, -12.695780843616827 ], [ -61.374713728730086, -12.695780843616827 ], [ -61.374713728730086, -12.696030842885879 ], [ -61.374963728208186, -12.696030842885879 ], [ -61.374963728208186, -12.695780843616827 ] ] ], [ [ [ -61.373213731861462, -12.696030842885879 ], [ -61.373213731861462, -12.695780843616827 ], [ -61.371963734470945, -12.695780843616827 ], [ -61.371963734470945, -12.696030842885879 ], [ -61.373213731861462, -12.696030842885879 ] ] ], [ [ [ -61.371713734992838, -12.695780843616827 ], [ -61.371463735514737, -12.695780843616827 ], [ -61.371463735514737, -12.696030842885879 ], [ -61.371713734992838, -12.696030842885879 ], [ -61.371713734992838, -12.695780843616827 ] ] ], [ [ [ -61.369213740211805, -12.695780843616827 ], [ -61.366213746474557, -12.695780843616827 ], [ -61.366213746474557, -12.696030842885879 ], [ -61.369213740211805, -12.696030842885879 ], [ -61.369213740211805, -12.695780843616827 ] ] ], [ [ [ -61.365463748040249, -12.696030772252488 ], [ -61.365463748040249, -12.695780843616827 ], [ -61.365213748562141, -12.695780843616827 ], [ -61.365213748562141, -12.696029298403511 ], [ -61.365463748040249, -12.696030772252488 ] ] ], [ [ [ -61.378713720379743, -12.695530844347777 ], [ -61.378213721423535, -12.695530844347777 ], [ -61.378213721423535, -12.695780843616827 ], [ -61.378713720379743, -12.695780843616827 ], [ -61.378713720379743, -12.695530844347777 ] ] ], [ [ [ -61.377963721945434, -12.695530844347777 ], [ -61.376963724033018, -12.695530844347777 ], [ -61.376963724033018, -12.695780843616827 ], [ -61.377963721945434, -12.695780843616827 ], [ -61.377963721945434, -12.695530844347777 ] ] ], [ [ [ -61.370463737602321, -12.695530844347777 ], [ -61.369963738646113, -12.695530844347777 ], [ -61.369963738646113, -12.695780843616827 ], [ -61.370463737602321, -12.695780843616827 ], [ -61.370463737602321, -12.695530844347777 ] ] ], [ [ [ -61.39671368280321, -12.655280962030591 ], [ -61.39671368280321, -12.65478096349249 ], [ -61.396463683325109, -12.65478096349249 ], [ -61.396463683325109, -12.655280962030591 ], [ -61.39671368280321, -12.655280962030591 ] ] ], [ [ [ -61.403463668712014, -12.653030968609134 ], [ -61.402963669755806, -12.653030968609134 ], [ -61.402963669755806, -12.653280967878185 ], [ -61.403463668712014, -12.653280967878185 ], [ -61.403463668712014, -12.653030968609134 ] ] ], [ [ [ -61.400713674452874, -12.65203097153293 ], [ -61.400713674452874, -12.652780969340084 ], [ -61.401213673409075, -12.652780969340084 ], [ -61.401213673409075, -12.652280970801982 ], [ -61.401463672887182, -12.652280970801982 ], [ -61.401463672887182, -12.652780969340084 ], [ -61.401713672365283, -12.652780969340084 ], [ -61.401713672365283, -12.653030968609134 ], [ -61.402213671321491, -12.653030968609134 ], [ -61.402213671321491, -12.652780969340084 ], [ -61.402713670277699, -12.652780969340084 ], [ -61.402713670277699, -12.652280970801982 ], [ -61.402963669755806, -12.652280970801982 ], [ -61.402963669755806, -12.65203097153293 ], [ -61.403213669233907, -12.65203097153293 ], [ -61.403213669233907, -12.651842061564214 ], [ -61.402844913241047, -12.651780972263881 ], [ -61.40196367184339, -12.651780972263881 ], [ -61.40196367184339, -12.651634982987913 ], [ -61.401335831811529, -12.651530972994829 ], [ -61.400963673930974, -12.651530972994829 ], [ -61.400963673930974, -12.651780972263881 ], [ -61.401213673409075, -12.651780972263881 ], [ -61.401213673409075, -12.65203097153293 ], [ -61.400713674452874, -12.65203097153293 ] ], [ [ -61.402213671321491, -12.65203097153293 ], [ -61.402213671321491, -12.652280970801982 ], [ -61.401713672365283, -12.652280970801982 ], [ -61.401713672365283, -12.65203097153293 ], [ -61.402213671321491, -12.65203097153293 ] ] ], [ [ [ -61.398713678628042, -12.651096578689529 ], [ -61.398463679149934, -12.651055162974268 ], [ -61.398463679149934, -12.651280973725779 ], [ -61.398713678628042, -12.651280973725779 ], [ -61.398713678628042, -12.651096578689529 ] ] ], [ [ [ -61.398213679671834, -12.651030974456727 ], [ -61.397213681759418, -12.651030974456727 ], [ -61.397213681759418, -12.651280973725779 ], [ -61.398213679671834, -12.651280973725779 ], [ -61.398213679671834, -12.651030974456727 ] ] ], [ [ [ -61.39671368280321, -12.650780975187676 ], [ -61.396463683325109, -12.650780975187676 ], [ -61.396463683325109, -12.651030974456727 ], [ -61.39671368280321, -12.651030974456727 ], [ -61.39671368280321, -12.650780975187676 ] ] ], [ [ [ -61.387463702113372, -12.649780978111473 ], [ -61.387213702635272, -12.649780978111473 ], [ -61.387213702635272, -12.650280976649576 ], [ -61.38771370159148, -12.650280976649576 ], [ -61.38771370159148, -12.650030977380524 ], [ -61.38796370106958, -12.650030977380524 ], [ -61.38796370106958, -12.650280976649576 ], [ -61.388213700547688, -12.650280976649576 ], [ -61.388213700547688, -12.650530975918626 ], [ -61.388713699503896, -12.650530975918626 ], [ -61.388713699503896, -12.650780975187676 ], [ -61.388463700025788, -12.650780975187676 ], [ -61.388463700025788, -12.651030974456727 ], [ -61.388963698981996, -12.651030974456727 ], [ -61.388963698981996, -12.650780975187676 ], [ -61.389213698460097, -12.650780975187676 ], [ -61.389213698460097, -12.651030974456727 ], [ -61.391963692719244, -12.651030974456727 ], [ -61.391963692719244, -12.651280973725779 ], [ -61.392963690631653, -12.651280973725779 ], [ -61.392963690631653, -12.651530972994829 ], [ -61.393213690109761, -12.651530972994829 ], [ -61.393213690109761, -12.651280973725779 ], [ -61.393463689587861, -12.651280973725779 ], [ -61.393463689587861, -12.651030974456727 ], [ -61.393213690109761, -12.651030974456727 ], [ -61.393213690109761, -12.650780975187676 ], [ -61.393463689587861, -12.650780975187676 ], [ -61.393463689587861, -12.650530975918626 ], [ -61.393713689065969, -12.650530975918626 ], [ -61.393713689065969, -12.650780975187676 ], [ -61.395213685934593, -12.650780975187676 ], [ -61.395213685934593, -12.650530975918626 ], [ -61.394463687500277, -12.650530975918626 ], [ -61.394463687500277, -12.650392511530105 ], [ -61.393790424663997, -12.650280976649576 ], [ -61.393213690109761, -12.650280976649576 ], [ -61.393213690109761, -12.650530975918626 ], [ -61.392963690631653, -12.650530975918626 ], [ -61.392963690631653, -12.650780975187676 ], [ -61.392713691153553, -12.650780975187676 ], [ -61.392713691153553, -12.651030974456727 ], [ -61.392213692197345, -12.651030974456727 ], [ -61.392213692197345, -12.650530975918626 ], [ -61.391963692719244, -12.650530975918626 ], [ -61.391963692719244, -12.650780975187676 ], [ -61.391713693241137, -12.650780975187676 ], [ -61.391713693241137, -12.650280976649576 ], [ -61.391463693763029, -12.650280976649576 ], [ -61.391463693763029, -12.649895522946982 ], [ -61.390772261804969, -12.649780978111473 ], [ -61.389963696894412, -12.649780978111473 ], [ -61.389963696894412, -12.650030977380524 ], [ -61.389713697416305, -12.650030977380524 ], [ -61.389713697416305, -12.649780978111473 ], [ -61.389463697938204, -12.649780978111473 ], [ -61.389463697938204, -12.649564197224901 ], [ -61.389263180375465, -12.649530978842423 ], [ -61.388463700025788, -12.649530978842423 ], [ -61.388463700025788, -12.64939853436386 ], [ -61.387754098945962, -12.649280979573373 ], [ -61.38771370159148, -12.649280979573373 ], [ -61.38771370159148, -12.649530978842423 ], [ -61.387463702113372, -12.649530978842423 ], [ -61.387463702113372, -12.649780978111473 ] ] ], [ [ [ -61.385713705766648, -12.650280976649576 ], [ -61.385463706288547, -12.650280976649576 ], [ -61.385463706288547, -12.650530975918626 ], [ -61.385713705766648, -12.650530975918626 ], [ -61.385713705766648, -12.650280976649576 ] ] ], [ [ [ -61.380713716204575, -12.649280979573373 ], [ -61.381463714638883, -12.649280979573373 ], [ -61.381463714638883, -12.649530978842423 ], [ -61.381963713595091, -12.649530978842423 ], [ -61.381963713595091, -12.649780978111473 ], [ -61.382213713073199, -12.649780978111473 ], [ -61.382213713073199, -12.650030977380524 ], [ -61.382463712551299, -12.650030977380524 ], [ -61.382463712551299, -12.649780978111473 ], [ -61.3827137120294, -12.649780978111473 ], [ -61.3827137120294, -12.650030977380524 ], [ -61.383213710985608, -12.650030977380524 ], [ -61.383213710985608, -12.650280976649576 ], [ -61.383463710463715, -12.650280976649576 ], [ -61.383463710463715, -12.650030977380524 ], [ -61.385463706288547, -12.650030977380524 ], [ -61.385463706288547, -12.649780978111473 ], [ -61.386463704200956, -12.649780978111473 ], [ -61.386463704200956, -12.649530978842423 ], [ -61.386713703679064, -12.649530978842423 ], [ -61.386713703679064, -12.649108624357039 ], [ -61.386245017516444, -12.649030980304321 ], [ -61.385463706288547, -12.649030980304321 ], [ -61.385463706288547, -12.648901545780738 ], [ -61.38521370681044, -12.648860130065477 ], [ -61.38521370681044, -12.649030980304321 ], [ -61.382963711507507, -12.649030980304321 ], [ -61.382963711507507, -12.648780981035269 ], [ -61.381963713595091, -12.648780981035269 ], [ -61.381963713595091, -12.648321725767094 ], [ -61.381717773227919, -12.648280982497168 ], [ -61.380963715682675, -12.648280982497168 ], [ -61.380963715682675, -12.648156062906054 ], [ -61.380463716726467, -12.648073231475532 ], [ -61.380463716726467, -12.648280982497168 ], [ -61.380213717248367, -12.648280982497168 ], [ -61.380213717248367, -12.649030980304321 ], [ -61.380713716204575, -12.649030980304321 ], [ -61.380713716204575, -12.649280979573373 ] ] ], [ [ [ -61.377213723511119, -12.647780983959066 ], [ -61.377963721945434, -12.647780983959066 ], [ -61.377963721945434, -12.647659074322931 ], [ -61.377190528939394, -12.647530984690016 ], [ -61.37646372507681, -12.647530984690016 ], [ -61.37646372507681, -12.648030983228118 ], [ -61.376713724554911, -12.648030983228118 ], [ -61.376713724554911, -12.648280982497168 ], [ -61.376963724033018, -12.648280982497168 ], [ -61.376963724033018, -12.648780981035269 ], [ -61.377963721945434, -12.648780981035269 ], [ -61.377963721945434, -12.649030980304321 ], [ -61.378713720379743, -12.649030980304321 ], [ -61.378713720379743, -12.648780981035269 ], [ -61.379463718814051, -12.648780981035269 ], [ -61.379463718814051, -12.648280982497168 ], [ -61.380213717248367, -12.648280982497168 ], [ -61.380213717248367, -12.648031815760273 ], [ -61.380208691798416, -12.648030983228118 ], [ -61.379213719335951, -12.648030983228118 ], [ -61.379213719335951, -12.647866152899232 ], [ -61.378699610368898, -12.647780983959066 ], [ -61.378463720901642, -12.647780983959066 ], [ -61.378463720901642, -12.648030983228118 ], [ -61.378713720379743, -12.648030983228118 ], [ -61.378713720379743, -12.648530981766219 ], [ -61.377713722467327, -12.648530981766219 ], [ -61.377713722467327, -12.648030983228118 ], [ -61.377213723511119, -12.648030983228118 ], [ -61.377213723511119, -12.647780983959066 ] ] ], [ [ [ -61.378463720901642, -12.648030983228118 ], [ -61.378213721423535, -12.648030983228118 ], [ -61.378213721423535, -12.648280982497168 ], [ -61.378463720901642, -12.648280982497168 ], [ -61.378463720901642, -12.648030983228118 ] ] ], [ [ [ -61.375848957115053, -12.638031012466083 ], [ -61.37586263, -12.63754165 ], [ -61.375323174127047, -12.637531013927983 ], [ -61.374463729251978, -12.637531013927983 ], [ -61.374463729251978, -12.638031012466083 ], [ -61.375848957115053, -12.638031012466083 ] ] ], [ [ [ -61.373463731339569, -12.637531013927983 ], [ -61.370713737080422, -12.637531013927983 ], [ -61.370713737080422, -12.637781013197033 ], [ -61.373463731339569, -12.637781013197033 ], [ -61.373463731339569, -12.637531013927983 ] ] ], [ [ [ -61.3622137548249, -12.582781174005849 ], [ -61.3622137548249, -12.582031176198697 ], [ -61.361963755346792, -12.582031176198697 ], [ -61.361963755346792, -12.582781174005849 ], [ -61.3622137548249, -12.582781174005849 ] ] ], [ [ [ -61.361963755346792, -12.577906374564142 ], [ -61.361963755346792, -12.578031187893883 ], [ -61.3622137548249, -12.578031187893883 ], [ -61.3622137548249, -12.577905784446607 ], [ -61.361963755346792, -12.577906374564142 ] ] ], [ [ [ -61.342213796576601, -12.691780855312015 ], [ -61.341963797098501, -12.691780855312015 ], [ -61.341963797098501, -12.692030854581065 ], [ -61.342213796576601, -12.692030854581065 ], [ -61.342213796576601, -12.691780855312015 ] ] ], [ [ [ -61.346463787704366, -12.690780858235811 ], [ -61.346463787704366, -12.690280859697708 ], [ -61.346213788226258, -12.690280859697708 ], [ -61.346213788226258, -12.690780858235811 ], [ -61.346463787704366, -12.690780858235811 ] ] ], [ [ [ -61.340963799186085, -12.690030860428658 ], [ -61.340713799707977, -12.690030860428658 ], [ -61.340713799707977, -12.690280859697708 ], [ -61.340963799186085, -12.690280859697708 ], [ -61.340963799186085, -12.690030860428658 ] ] ], [ [ [ -61.346713787182466, -12.68178088454998 ], [ -61.34546378979195, -12.68178088454998 ], [ -61.34546378979195, -12.682780881626185 ], [ -61.345213790313849, -12.682780881626185 ], [ -61.345213790313849, -12.682280883088083 ], [ -61.344463791879534, -12.682280883088083 ], [ -61.344463791879534, -12.682030883819031 ], [ -61.343713793445225, -12.682030883819031 ], [ -61.343713793445225, -12.682280883088083 ], [ -61.343213794489017, -12.682280883088083 ], [ -61.343213794489017, -12.682780881626185 ], [ -61.34296379501091, -12.682780881626185 ], [ -61.34296379501091, -12.683030880895235 ], [ -61.343463793967118, -12.683030880895235 ], [ -61.343463793967118, -12.683280880164286 ], [ -61.342713795532809, -12.683280880164286 ], [ -61.342713795532809, -12.682780881626185 ], [ -61.342213796576601, -12.682780881626185 ], [ -61.342213796576601, -12.682030883819031 ], [ -61.341963797098501, -12.682030883819031 ], [ -61.341963797098501, -12.682280883088083 ], [ -61.341713797620393, -12.682280883088083 ], [ -61.341713797620393, -12.683030880895235 ], [ -61.341463798142293, -12.683030880895235 ], [ -61.341463798142293, -12.682780881626185 ], [ -61.341213798664185, -12.682780881626185 ], [ -61.341213798664185, -12.682530882357133 ], [ -61.340463800229877, -12.682530882357133 ], [ -61.340463800229877, -12.682780881626185 ], [ -61.34031622481907, -12.682780881626185 ], [ -61.340295034404882, -12.684030877971438 ], [ -61.341463798142293, -12.684030877971438 ], [ -61.341463798142293, -12.684280877240489 ], [ -61.340290796322044, -12.684280877240489 ], [ -61.340273843990694, -12.685280874316692 ], [ -61.340463800229877, -12.685280874316692 ], [ -61.340463800229877, -12.685530873585744 ], [ -61.340713799707977, -12.685530873585744 ], [ -61.340713799707977, -12.686780869930997 ], [ -61.340463800229877, -12.686780869930997 ], [ -61.340463800229877, -12.686530870661947 ], [ -61.340252653576506, -12.686530870661947 ], [ -61.340244177410831, -12.687030869200049 ], [ -61.340963799186085, -12.687030869200049 ], [ -61.340963799186085, -12.687280868469099 ], [ -61.341713797620393, -12.687280868469099 ], [ -61.341713797620393, -12.68753086773815 ], [ -61.341463798142293, -12.68753086773815 ], [ -61.341463798142293, -12.6877808670072 ], [ -61.341213798664185, -12.6877808670072 ], [ -61.341213798664185, -12.688280865545302 ], [ -61.340963799186085, -12.688280865545302 ], [ -61.340963799186085, -12.688780864083405 ], [ -61.340713799707977, -12.688780864083405 ], [ -61.340713799707977, -12.689780861159608 ], [ -61.340963799186085, -12.689780861159608 ], [ -61.340963799186085, -12.690030860428658 ], [ -61.341213798664185, -12.690030860428658 ], [ -61.341213798664185, -12.69053085896676 ], [ -61.340963799186085, -12.69053085896676 ], [ -61.340963799186085, -12.690780858235811 ], [ -61.340713799707977, -12.690780858235811 ], [ -61.340713799707977, -12.691280856773913 ], [ -61.340963799186085, -12.691280856773913 ], [ -61.340963799186085, -12.691530856042963 ], [ -61.340713799707977, -12.691530856042963 ], [ -61.340713799707977, -12.691780855312015 ], [ -61.340463800229877, -12.691780855312015 ], [ -61.340463800229877, -12.691530856042963 ], [ -61.340213800751769, -12.691530856042963 ], [ -61.340213800751769, -12.695780843616827 ], [ -61.341713797620393, -12.695780843616827 ], [ -61.341713797620393, -12.695280845078726 ], [ -61.341213798664185, -12.695280845078726 ], [ -61.341213798664185, -12.694780846540624 ], [ -61.340963799186085, -12.694780846540624 ], [ -61.340963799186085, -12.694530847271572 ], [ -61.341213798664185, -12.694530847271572 ], [ -61.341213798664185, -12.694030848733473 ], [ -61.340713799707977, -12.694030848733473 ], [ -61.340713799707977, -12.693780849464421 ], [ -61.340463800229877, -12.693780849464421 ], [ -61.340463800229877, -12.693530850195369 ], [ -61.341213798664185, -12.693530850195369 ], [ -61.341213798664185, -12.693030851657269 ], [ -61.341463798142293, -12.693030851657269 ], [ -61.341463798142293, -12.692780852388218 ], [ -61.341963797098501, -12.692780852388218 ], [ -61.341963797098501, -12.692280853850116 ], [ -61.341713797620393, -12.692280853850116 ], [ -61.341713797620393, -12.691030857504861 ], [ -61.341963797098501, -12.691030857504861 ], [ -61.341963797098501, -12.691280856773913 ], [ -61.342213796576601, -12.691280856773913 ], [ -61.342213796576601, -12.691530856042963 ], [ -61.343213794489017, -12.691530856042963 ], [ -61.343213794489017, -12.691780855312015 ], [ -61.342713795532809, -12.691780855312015 ], [ -61.342713795532809, -12.692030854581065 ], [ -61.34296379501091, -12.692030854581065 ], [ -61.34296379501091, -12.693280850926319 ], [ -61.345213790313849, -12.693280850926319 ], [ -61.345213790313849, -12.693030851657269 ], [ -61.34546378979195, -12.693030851657269 ], [ -61.34546378979195, -12.692280853850116 ], [ -61.34571378927005, -12.692280853850116 ], [ -61.34571378927005, -12.692030854581065 ], [ -61.345963788748158, -12.692030854581065 ], [ -61.345963788748158, -12.691280856773913 ], [ -61.346213788226258, -12.691280856773913 ], [ -61.346213788226258, -12.690780858235811 ], [ -61.345963788748158, -12.690780858235811 ], [ -61.345963788748158, -12.690280859697708 ], [ -61.34571378927005, -12.690280859697708 ], [ -61.34571378927005, -12.689780861159608 ], [ -61.346463787704366, -12.689780861159608 ], [ -61.346463787704366, -12.690280859697708 ], [ -61.347963784572983, -12.690280859697708 ], [ -61.347963784572983, -12.689780861159608 ], [ -61.348463783529198, -12.689780861159608 ], [ -61.348463783529198, -12.689530861890557 ], [ -61.348713783007298, -12.689530861890557 ], [ -61.348713783007298, -12.688780864083405 ], [ -61.348963782485399, -12.688780864083405 ], [ -61.348963782485399, -12.688530864814354 ], [ -61.348713783007298, -12.688530864814354 ], [ -61.348713783007298, -12.688280865545302 ], [ -61.348963782485399, -12.688280865545302 ], [ -61.348963782485399, -12.687030869200049 ], [ -61.348713783007298, -12.687030869200049 ], [ -61.348713783007298, -12.686530870661947 ], [ -61.348963782485399, -12.686530870661947 ], [ -61.348963782485399, -12.683530879433336 ], [ -61.349213781963506, -12.683530879433336 ], [ -61.349213781963506, -12.683280880164286 ], [ -61.348963782485399, -12.683280880164286 ], [ -61.348963782485399, -12.683030880895235 ], [ -61.348713783007298, -12.683030880895235 ], [ -61.348713783007298, -12.682780881626185 ], [ -61.348463783529198, -12.682780881626185 ], [ -61.348463783529198, -12.683030880895235 ], [ -61.34821378405109, -12.683030880895235 ], [ -61.34821378405109, -12.683280880164286 ], [ -61.347713785094882, -12.683280880164286 ], [ -61.347713785094882, -12.683530879433336 ], [ -61.347213786138674, -12.683530879433336 ], [ -61.347213786138674, -12.683780878702388 ], [ -61.346963786660574, -12.683780878702388 ], [ -61.346963786660574, -12.682530882357133 ], [ -61.347213786138674, -12.682530882357133 ], [ -61.347213786138674, -12.682280883088083 ], [ -61.347713785094882, -12.682280883088083 ], [ -61.347713785094882, -12.682030883819031 ], [ -61.347963784572983, -12.682030883819031 ], [ -61.347963784572983, -12.68178088454998 ], [ -61.347213786138674, -12.68178088454998 ], [ -61.347213786138674, -12.68153088528093 ], [ -61.346713787182466, -12.68153088528093 ], [ -61.346713787182466, -12.68178088454998 ] ], [ [ -61.34571378927005, -12.682780881626185 ], [ -61.34571378927005, -12.683280880164286 ], [ -61.346213788226258, -12.683280880164286 ], [ -61.346213788226258, -12.683030880895235 ], [ -61.346463787704366, -12.683030880895235 ], [ -61.346463787704366, -12.683780878702388 ], [ -61.346213788226258, -12.683780878702388 ], [ -61.346213788226258, -12.684030877971438 ], [ -61.345963788748158, -12.684030877971438 ], [ -61.345963788748158, -12.683530879433336 ], [ -61.34546378979195, -12.683530879433336 ], [ -61.34546378979195, -12.683280880164286 ], [ -61.345213790313849, -12.683280880164286 ], [ -61.345213790313849, -12.683030880895235 ], [ -61.34546378979195, -12.683030880895235 ], [ -61.34546378979195, -12.682780881626185 ], [ -61.34571378927005, -12.682780881626185 ] ], [ [ -61.343463793967118, -12.682780881626185 ], [ -61.343713793445225, -12.682780881626185 ], [ -61.343713793445225, -12.683030880895235 ], [ -61.343463793967118, -12.683030880895235 ], [ -61.343463793967118, -12.682780881626185 ] ], [ [ -61.340463800229877, -12.684530876509539 ], [ -61.340963799186085, -12.684530876509539 ], [ -61.340963799186085, -12.685280874316692 ], [ -61.340463800229877, -12.685280874316692 ], [ -61.340463800229877, -12.684530876509539 ] ], [ [ -61.341213798664185, -12.690780858235811 ], [ -61.341213798664185, -12.691030857504861 ], [ -61.340963799186085, -12.691030857504861 ], [ -61.340963799186085, -12.690780858235811 ], [ -61.341213798664185, -12.690780858235811 ] ], [ [ -61.343213794489017, -12.691280856773913 ], [ -61.343463793967118, -12.691280856773913 ], [ -61.343463793967118, -12.691530856042963 ], [ -61.343213794489017, -12.691530856042963 ], [ -61.343213794489017, -12.691280856773913 ] ], [ [ -61.34546378979195, -12.691280856773913 ], [ -61.34546378979195, -12.691780855312015 ], [ -61.344463791879534, -12.691780855312015 ], [ -61.344463791879534, -12.691530856042963 ], [ -61.345213790313849, -12.691530856042963 ], [ -61.345213790313849, -12.690780858235811 ], [ -61.34571378927005, -12.690780858235811 ], [ -61.34571378927005, -12.691030857504861 ], [ -61.345963788748158, -12.691030857504861 ], [ -61.345963788748158, -12.691280856773913 ], [ -61.34546378979195, -12.691280856773913 ] ], [ [ -61.346963786660574, -12.682280883088083 ], [ -61.346963786660574, -12.682030883819031 ], [ -61.347213786138674, -12.682030883819031 ], [ -61.347213786138674, -12.682280883088083 ], [ -61.346963786660574, -12.682280883088083 ] ], [ [ -61.346463787704366, -12.682280883088083 ], [ -61.346463787704366, -12.682030883819031 ], [ -61.346713787182466, -12.682030883819031 ], [ -61.346713787182466, -12.682280883088083 ], [ -61.346463787704366, -12.682280883088083 ] ], [ [ -61.346463787704366, -12.682530882357133 ], [ -61.346713787182466, -12.682530882357133 ], [ -61.346713787182466, -12.682780881626185 ], [ -61.346213788226258, -12.682780881626185 ], [ -61.346213788226258, -12.682280883088083 ], [ -61.346463787704366, -12.682280883088083 ], [ -61.346463787704366, -12.682530882357133 ] ], [ [ -61.341213798664185, -12.683030880895235 ], [ -61.341213798664185, -12.683530879433336 ], [ -61.340963799186085, -12.683530879433336 ], [ -61.340963799186085, -12.683030880895235 ], [ -61.341213798664185, -12.683030880895235 ] ], [ [ -61.340713799707977, -12.683030880895235 ], [ -61.340713799707977, -12.683780878702388 ], [ -61.340463800229877, -12.683780878702388 ], [ -61.340463800229877, -12.683030880895235 ], [ -61.340713799707977, -12.683030880895235 ] ], [ [ -61.343713793445225, -12.683780878702388 ], [ -61.343713793445225, -12.684030877971438 ], [ -61.343213794489017, -12.684030877971438 ], [ -61.343213794489017, -12.683780878702388 ], [ -61.343713793445225, -12.683780878702388 ] ], [ [ -61.34296379501091, -12.683780878702388 ], [ -61.34296379501091, -12.684030877971438 ], [ -61.342713795532809, -12.684030877971438 ], [ -61.342713795532809, -12.683780878702388 ], [ -61.34296379501091, -12.683780878702388 ] ], [ [ -61.341963797098501, -12.683780878702388 ], [ -61.341963797098501, -12.684030877971438 ], [ -61.341713797620393, -12.684030877971438 ], [ -61.341713797620393, -12.683780878702388 ], [ -61.341963797098501, -12.683780878702388 ] ], [ [ -61.347963784572983, -12.684280877240489 ], [ -61.347963784572983, -12.684030877971438 ], [ -61.34821378405109, -12.684030877971438 ], [ -61.34821378405109, -12.684280877240489 ], [ -61.347963784572983, -12.684280877240489 ] ], [ [ -61.347963784572983, -12.684780875778591 ], [ -61.347713785094882, -12.684780875778591 ], [ -61.347713785094882, -12.685030875047641 ], [ -61.347463785616782, -12.685030875047641 ], [ -61.347463785616782, -12.684530876509539 ], [ -61.347713785094882, -12.684530876509539 ], [ -61.347713785094882, -12.684280877240489 ], [ -61.347963784572983, -12.684280877240489 ], [ -61.347963784572983, -12.684780875778591 ] ], [ [ -61.346713787182466, -12.684280877240489 ], [ -61.346713787182466, -12.685280874316692 ], [ -61.346463787704366, -12.685280874316692 ], [ -61.346463787704366, -12.684030877971438 ], [ -61.346963786660574, -12.684030877971438 ], [ -61.346963786660574, -12.684280877240489 ], [ -61.346713787182466, -12.684280877240489 ] ], [ [ -61.344213792401433, -12.684030877971438 ], [ -61.344213792401433, -12.684280877240489 ], [ -61.343963792923326, -12.684280877240489 ], [ -61.343963792923326, -12.684030877971438 ], [ -61.344213792401433, -12.684030877971438 ] ], [ [ -61.34546378979195, -12.684530876509539 ], [ -61.34546378979195, -12.684780875778591 ], [ -61.345213790313849, -12.684780875778591 ], [ -61.345213790313849, -12.684530876509539 ], [ -61.34546378979195, -12.684530876509539 ] ], [ [ -61.343463793967118, -12.684780875778591 ], [ -61.343463793967118, -12.685030875047641 ], [ -61.34296379501091, -12.685030875047641 ], [ -61.34296379501091, -12.684780875778591 ], [ -61.343463793967118, -12.684780875778591 ] ], [ [ -61.341963797098501, -12.685280874316692 ], [ -61.341963797098501, -12.684780875778591 ], [ -61.342213796576601, -12.684780875778591 ], [ -61.342213796576601, -12.685280874316692 ], [ -61.341963797098501, -12.685280874316692 ] ], [ [ -61.341963797098501, -12.685530873585744 ], [ -61.341713797620393, -12.685530873585744 ], [ -61.341713797620393, -12.685280874316692 ], [ -61.341963797098501, -12.685280874316692 ], [ -61.341963797098501, -12.685530873585744 ] ], [ [ -61.34546378979195, -12.686780869930997 ], [ -61.34546378979195, -12.686280871392896 ], [ -61.344213792401433, -12.686280871392896 ], [ -61.344213792401433, -12.686780869930997 ], [ -61.343963792923326, -12.686780869930997 ], [ -61.343963792923326, -12.686030872123844 ], [ -61.344213792401433, -12.686030872123844 ], [ -61.344213792401433, -12.685530873585744 ], [ -61.344463791879534, -12.685530873585744 ], [ -61.344463791879534, -12.685280874316692 ], [ -61.344713791357641, -12.685280874316692 ], [ -61.344713791357641, -12.685530873585744 ], [ -61.345213790313849, -12.685530873585744 ], [ -61.345213790313849, -12.685280874316692 ], [ -61.345963788748158, -12.685280874316692 ], [ -61.345963788748158, -12.685530873585744 ], [ -61.34546378979195, -12.685530873585744 ], [ -61.34546378979195, -12.686030872123844 ], [ -61.346213788226258, -12.686030872123844 ], [ -61.346213788226258, -12.686280871392896 ], [ -61.34571378927005, -12.686280871392896 ], [ -61.34571378927005, -12.686780869930997 ], [ -61.34546378979195, -12.686780869930997 ] ], [ [ -61.34821378405109, -12.685530873585744 ], [ -61.34821378405109, -12.685780872854794 ], [ -61.347963784572983, -12.685780872854794 ], [ -61.347963784572983, -12.685530873585744 ], [ -61.34821378405109, -12.685530873585744 ] ], [ [ -61.346463787704366, -12.686780869930997 ], [ -61.346713787182466, -12.686780869930997 ], [ -61.346713787182466, -12.686530870661947 ], [ -61.347213786138674, -12.686530870661947 ], [ -61.347213786138674, -12.686280871392896 ], [ -61.346963786660574, -12.686280871392896 ], [ -61.346963786660574, -12.685780872854794 ], [ -61.347213786138674, -12.685780872854794 ], [ -61.347213786138674, -12.686030872123844 ], [ -61.347463785616782, -12.686030872123844 ], [ -61.347463785616782, -12.686280871392896 ], [ -61.347713785094882, -12.686280871392896 ], [ -61.347713785094882, -12.686530870661947 ], [ -61.347963784572983, -12.686530870661947 ], [ -61.347963784572983, -12.688280865545302 ], [ -61.347463785616782, -12.688280865545302 ], [ -61.347463785616782, -12.688780864083405 ], [ -61.346963786660574, -12.688780864083405 ], [ -61.346963786660574, -12.688530864814354 ], [ -61.34571378927005, -12.688530864814354 ], [ -61.34571378927005, -12.688780864083405 ], [ -61.34546378979195, -12.688780864083405 ], [ -61.34546378979195, -12.688530864814354 ], [ -61.345213790313849, -12.688530864814354 ], [ -61.345213790313849, -12.6877808670072 ], [ -61.34571378927005, -12.6877808670072 ], [ -61.34571378927005, -12.68753086773815 ], [ -61.345963788748158, -12.68753086773815 ], [ -61.345963788748158, -12.687280868469099 ], [ -61.346213788226258, -12.687280868469099 ], [ -61.346213788226258, -12.687030869200049 ], [ -61.346463787704366, -12.687030869200049 ], [ -61.346463787704366, -12.686780869930997 ] ], [ [ -61.345213790313849, -12.688780864083405 ], [ -61.344963790835742, -12.688780864083405 ], [ -61.344963790835742, -12.688530864814354 ], [ -61.345213790313849, -12.688530864814354 ], [ -61.345213790313849, -12.688780864083405 ] ], [ [ -61.344963790835742, -12.6877808670072 ], [ -61.344963790835742, -12.68753086773815 ], [ -61.345213790313849, -12.68753086773815 ], [ -61.345213790313849, -12.6877808670072 ], [ -61.344963790835742, -12.6877808670072 ] ], [ [ -61.342713795532809, -12.686280871392896 ], [ -61.342713795532809, -12.685780872854794 ], [ -61.34296379501091, -12.685780872854794 ], [ -61.34296379501091, -12.686280871392896 ], [ -61.342713795532809, -12.686280871392896 ] ], [ [ -61.342713795532809, -12.686530870661947 ], [ -61.342213796576601, -12.686530870661947 ], [ -61.342213796576601, -12.686280871392896 ], [ -61.342713795532809, -12.686280871392896 ], [ -61.342713795532809, -12.686530870661947 ] ], [ [ -61.34296379501091, -12.686530870661947 ], [ -61.34296379501091, -12.686780869930997 ], [ -61.342713795532809, -12.686780869930997 ], [ -61.342713795532809, -12.686530870661947 ], [ -61.34296379501091, -12.686530870661947 ] ], [ [ -61.341963797098501, -12.686280871392896 ], [ -61.341963797098501, -12.685780872854794 ], [ -61.342213796576601, -12.685780872854794 ], [ -61.342213796576601, -12.686280871392896 ], [ -61.341963797098501, -12.686280871392896 ] ], [ [ -61.341463798142293, -12.686030872123844 ], [ -61.341463798142293, -12.686780869930997 ], [ -61.341213798664185, -12.686780869930997 ], [ -61.341213798664185, -12.686030872123844 ], [ -61.341463798142293, -12.686030872123844 ] ], [ [ -61.344463791879534, -12.687030869200049 ], [ -61.344463791879534, -12.687280868469099 ], [ -61.343963792923326, -12.687280868469099 ], [ -61.343963792923326, -12.687030869200049 ], [ -61.344463791879534, -12.687030869200049 ] ], [ [ -61.343463793967118, -12.687030869200049 ], [ -61.343463793967118, -12.687280868469099 ], [ -61.34296379501091, -12.687280868469099 ], [ -61.34296379501091, -12.687030869200049 ], [ -61.343463793967118, -12.687030869200049 ] ], [ [ -61.344213792401433, -12.6877808670072 ], [ -61.344213792401433, -12.688030866276252 ], [ -61.343963792923326, -12.688030866276252 ], [ -61.343963792923326, -12.6877808670072 ], [ -61.344213792401433, -12.6877808670072 ] ], [ [ -61.343213794489017, -12.688030866276252 ], [ -61.343213794489017, -12.688280865545302 ], [ -61.34296379501091, -12.688280865545302 ], [ -61.34296379501091, -12.688030866276252 ], [ -61.343213794489017, -12.688030866276252 ] ], [ [ -61.341963797098501, -12.688280865545302 ], [ -61.341713797620393, -12.688280865545302 ], [ -61.341713797620393, -12.688030866276252 ], [ -61.341963797098501, -12.688030866276252 ], [ -61.341963797098501, -12.688280865545302 ] ], [ [ -61.342213796576601, -12.688280865545302 ], [ -61.342213796576601, -12.688780864083405 ], [ -61.341963797098501, -12.688780864083405 ], [ -61.341963797098501, -12.688280865545302 ], [ -61.342213796576601, -12.688280865545302 ] ], [ [ -61.343213794489017, -12.689030863352455 ], [ -61.343213794489017, -12.688530864814354 ], [ -61.343463793967118, -12.688530864814354 ], [ -61.343463793967118, -12.688780864083405 ], [ -61.343713793445225, -12.688780864083405 ], [ -61.343713793445225, -12.689030863352455 ], [ -61.344463791879534, -12.689030863352455 ], [ -61.344463791879534, -12.689280862621505 ], [ -61.343463793967118, -12.689280862621505 ], [ -61.343463793967118, -12.689030863352455 ], [ -61.343213794489017, -12.689030863352455 ] ], [ [ -61.341463798142293, -12.688780864083405 ], [ -61.341463798142293, -12.689030863352455 ], [ -61.341213798664185, -12.689030863352455 ], [ -61.341213798664185, -12.688780864083405 ], [ -61.341463798142293, -12.688780864083405 ] ], [ [ -61.341713797620393, -12.689280862621505 ], [ -61.341713797620393, -12.689530861890557 ], [ -61.341213798664185, -12.689530861890557 ], [ -61.341213798664185, -12.689280862621505 ], [ -61.341713797620393, -12.689280862621505 ] ], [ [ -61.34546378979195, -12.689780861159608 ], [ -61.34546378979195, -12.69053085896676 ], [ -61.345213790313849, -12.69053085896676 ], [ -61.345213790313849, -12.689780861159608 ], [ -61.34546378979195, -12.689780861159608 ] ], [ [ -61.34296379501091, -12.690280859697708 ], [ -61.342713795532809, -12.690280859697708 ], [ -61.342713795532809, -12.689780861159608 ], [ -61.34296379501091, -12.689780861159608 ], [ -61.34296379501091, -12.690280859697708 ] ], [ [ -61.344463791879534, -12.690280859697708 ], [ -61.344463791879534, -12.69053085896676 ], [ -61.344713791357641, -12.69053085896676 ], [ -61.344713791357641, -12.691280856773913 ], [ -61.344463791879534, -12.691280856773913 ], [ -61.344463791879534, -12.691030857504861 ], [ -61.344213792401433, -12.691030857504861 ], [ -61.344213792401433, -12.69053085896676 ], [ -61.343963792923326, -12.69053085896676 ], [ -61.343963792923326, -12.690780858235811 ], [ -61.343463793967118, -12.690780858235811 ], [ -61.343463793967118, -12.69053085896676 ], [ -61.34296379501091, -12.69053085896676 ], [ -61.34296379501091, -12.690280859697708 ], [ -61.344463791879534, -12.690280859697708 ] ], [ [ -61.341963797098501, -12.689780861159608 ], [ -61.341963797098501, -12.690280859697708 ], [ -61.341713797620393, -12.690280859697708 ], [ -61.341713797620393, -12.689780861159608 ], [ -61.341963797098501, -12.689780861159608 ] ], [ [ -61.343963792923326, -12.691280856773913 ], [ -61.343963792923326, -12.691530856042963 ], [ -61.343713793445225, -12.691530856042963 ], [ -61.343713793445225, -12.691280856773913 ], [ -61.343963792923326, -12.691280856773913 ] ], [ [ -61.343963792923326, -12.692030854581065 ], [ -61.343963792923326, -12.692280853850116 ], [ -61.343713793445225, -12.692280853850116 ], [ -61.343713793445225, -12.692030854581065 ], [ -61.343963792923326, -12.692030854581065 ] ], [ [ -61.341213798664185, -12.692030854581065 ], [ -61.341213798664185, -12.692280853850116 ], [ -61.340963799186085, -12.692280853850116 ], [ -61.340963799186085, -12.692030854581065 ], [ -61.341213798664185, -12.692030854581065 ] ] ], [ [ [ -61.340713799707977, -12.677530896976116 ], [ -61.340963799186085, -12.677530896976116 ], [ -61.340963799186085, -12.677030898438016 ], [ -61.341213798664185, -12.677030898438016 ], [ -61.341213798664185, -12.676780899168964 ], [ -61.340963799186085, -12.676780899168964 ], [ -61.340963799186085, -12.676530899899912 ], [ -61.341213798664185, -12.676530899899912 ], [ -61.341213798664185, -12.676280900630863 ], [ -61.340963799186085, -12.676280900630863 ], [ -61.340963799186085, -12.676030901361811 ], [ -61.341213798664185, -12.676030901361811 ], [ -61.341213798664185, -12.674530905747506 ], [ -61.341463798142293, -12.674530905747506 ], [ -61.341463798142293, -12.674280906478455 ], [ -61.341213798664185, -12.674280906478455 ], [ -61.341213798664185, -12.673780907940355 ], [ -61.341463798142293, -12.673780907940355 ], [ -61.341463798142293, -12.671780913787947 ], [ -61.341213798664185, -12.671780913787947 ], [ -61.341213798664185, -12.671530914518897 ], [ -61.340506938546753, -12.671530914518897 ], [ -61.34047727196689, -12.673280909402251 ], [ -61.340713799707977, -12.673280909402251 ], [ -61.340713799707977, -12.673530908671303 ], [ -61.340473033884052, -12.673530908671303 ], [ -61.340463800229877, -12.674075590519907 ], [ -61.340463800229877, -12.678280894783269 ], [ -61.340713799707977, -12.678280894783269 ], [ -61.340713799707977, -12.678030895514219 ], [ -61.340963799186085, -12.678030895514219 ], [ -61.340963799186085, -12.677780896245167 ], [ -61.340713799707977, -12.677780896245167 ], [ -61.340713799707977, -12.677530896976116 ] ] ], [ [ [ -61.34051117662959, -12.671280915249845 ], [ -61.341213798664185, -12.671280915249845 ], [ -61.341213798664185, -12.669030921828387 ], [ -61.340549319375121, -12.669030921828387 ], [ -61.34051117662959, -12.671280915249845 ] ] ], [ [ [ -61.347963784572983, -12.659280950335406 ], [ -61.347713785094882, -12.659280950335406 ], [ -61.347713785094882, -12.659780948873507 ], [ -61.347963784572983, -12.659780948873507 ], [ -61.347963784572983, -12.659280950335406 ] ] ], [ [ [ -61.352213775700747, -12.637281014658932 ], [ -61.351963776222647, -12.637281014658932 ], [ -61.351963776222647, -12.637531013927983 ], [ -61.351713776744546, -12.637531013927983 ], [ -61.351713776744546, -12.637281014658932 ], [ -61.351463777266439, -12.637281014658932 ], [ -61.351463777266439, -12.637781013197033 ], [ -61.352213775700747, -12.637781013197033 ], [ -61.352213775700747, -12.637281014658932 ] ] ], [ [ [ -61.360463758478176, -12.624031053399237 ], [ -61.360713757956276, -12.624031053399237 ], [ -61.360713757956276, -12.624281052668287 ], [ -61.360963757434376, -12.624281052668287 ], [ -61.360963757434376, -12.624031053399237 ], [ -61.361213756912484, -12.624031053399237 ], [ -61.361213756912484, -12.624531051937339 ], [ -61.361463756390584, -12.624531051937339 ], [ -61.361463756390584, -12.624781051206389 ], [ -61.361713755868692, -12.624781051206389 ], [ -61.361713755868692, -12.625031050475441 ], [ -61.361963755346792, -12.625031050475441 ], [ -61.361963755346792, -12.622781057053983 ], [ -61.361213756912484, -12.622781057053983 ], [ -61.361213756912484, -12.623031056323033 ], [ -61.360963757434376, -12.623031056323033 ], [ -61.360963757434376, -12.623281055592084 ], [ -61.360713757956276, -12.623281055592084 ], [ -61.360713757956276, -12.623531054861136 ], [ -61.360463758478176, -12.623531054861136 ], [ -61.360463758478176, -12.624031053399237 ] ] ], [ [ [ -61.360213759000068, -12.622031059246829 ], [ -61.359963759521968, -12.622031059246829 ], [ -61.359963759521968, -12.622281058515881 ], [ -61.360213759000068, -12.622281058515881 ], [ -61.360213759000068, -12.622031059246829 ] ] ], [ [ [ -61.359213761087652, -12.622031059246829 ], [ -61.35946376056576, -12.622031059246829 ], [ -61.35946376056576, -12.622531057784933 ], [ -61.35971376004386, -12.622531057784933 ], [ -61.35971376004386, -12.62153106070873 ], [ -61.359213761087652, -12.62153106070873 ], [ -61.359213761087652, -12.622031059246829 ] ] ], [ [ [ -61.361963755346792, -12.62153106070873 ], [ -61.361963755346792, -12.621281061439678 ], [ -61.361463756390584, -12.621281061439678 ], [ -61.361463756390584, -12.62153106070873 ], [ -61.361963755346792, -12.62153106070873 ] ] ], [ [ [ -61.359213761087652, -12.621031062170626 ], [ -61.358963761609552, -12.621031062170626 ], [ -61.358963761609552, -12.621281061439678 ], [ -61.359213761087652, -12.621281061439678 ], [ -61.359213761087652, -12.621031062170626 ] ] ], [ [ [ -61.35971376004386, -12.622781057053983 ], [ -61.35971376004386, -12.623031056323033 ], [ -61.360213759000068, -12.623031056323033 ], [ -61.360213759000068, -12.623531054861136 ], [ -61.360463758478176, -12.623531054861136 ], [ -61.360463758478176, -12.623031056323033 ], [ -61.360713757956276, -12.623031056323033 ], [ -61.360713757956276, -12.622031059246829 ], [ -61.360963757434376, -12.622031059246829 ], [ -61.360963757434376, -12.622781057053983 ], [ -61.361213756912484, -12.622781057053983 ], [ -61.361213756912484, -12.622281058515881 ], [ -61.361713755868692, -12.622281058515881 ], [ -61.361713755868692, -12.622031059246829 ], [ -61.361963755346792, -12.622031059246829 ], [ -61.361963755346792, -12.62178105997778 ], [ -61.360963757434376, -12.62178105997778 ], [ -61.360963757434376, -12.62153106070873 ], [ -61.361213756912484, -12.62153106070873 ], [ -61.361213756912484, -12.621031062170626 ], [ -61.361463756390584, -12.621031062170626 ], [ -61.361463756390584, -12.620531063632525 ], [ -61.361963755346792, -12.620531063632525 ], [ -61.361963755346792, -12.619531066556322 ], [ -61.361713755868692, -12.619531066556322 ], [ -61.361713755868692, -12.61903106801822 ], [ -61.361963755346792, -12.61903106801822 ], [ -61.361963755346792, -12.616031076789611 ], [ -61.361713755868692, -12.616031076789611 ], [ -61.361713755868692, -12.616781074596762 ], [ -61.361463756390584, -12.616781074596762 ], [ -61.361463756390584, -12.617281073134864 ], [ -61.360713757956276, -12.617281073134864 ], [ -61.360713757956276, -12.617781071672965 ], [ -61.360963757434376, -12.617781071672965 ], [ -61.360963757434376, -12.618281070211069 ], [ -61.360713757956276, -12.618281070211069 ], [ -61.360713757956276, -12.618531069480118 ], [ -61.361463756390584, -12.618531069480118 ], [ -61.361463756390584, -12.618781068749168 ], [ -61.361213756912484, -12.618781068749168 ], [ -61.361213756912484, -12.619281067287272 ], [ -61.361463756390584, -12.619281067287272 ], [ -61.361463756390584, -12.619781065825373 ], [ -61.361213756912484, -12.619781065825373 ], [ -61.361213756912484, -12.620281064363475 ], [ -61.360713757956276, -12.620281064363475 ], [ -61.360713757956276, -12.620531063632525 ], [ -61.360463758478176, -12.620531063632525 ], [ -61.360463758478176, -12.620781062901576 ], [ -61.359963759521968, -12.620781062901576 ], [ -61.359963759521968, -12.621031062170626 ], [ -61.35971376004386, -12.621031062170626 ], [ -61.35971376004386, -12.621281061439678 ], [ -61.360213759000068, -12.621281061439678 ], [ -61.360213759000068, -12.62153106070873 ], [ -61.360463758478176, -12.62153106070873 ], [ -61.360463758478176, -12.622781057053983 ], [ -61.360213759000068, -12.622781057053983 ], [ -61.360213759000068, -12.622531057784933 ], [ -61.359963759521968, -12.622531057784933 ], [ -61.359963759521968, -12.622781057053983 ], [ -61.35971376004386, -12.622781057053983 ] ], [ [ -61.360213759000068, -12.621031062170626 ], [ -61.360463758478176, -12.621031062170626 ], [ -61.360463758478176, -12.621281061439678 ], [ -61.360213759000068, -12.621281061439678 ], [ -61.360213759000068, -12.621031062170626 ] ] ], [ [ [ -61.360963757434376, -12.619781065825373 ], [ -61.360963757434376, -12.619531066556322 ], [ -61.360713757956276, -12.619531066556322 ], [ -61.360713757956276, -12.619781065825373 ], [ -61.360963757434376, -12.619781065825373 ] ] ], [ [ [ -61.361213756912484, -12.619281067287272 ], [ -61.360963757434376, -12.619281067287272 ], [ -61.360963757434376, -12.619531066556322 ], [ -61.361213756912484, -12.619531066556322 ], [ -61.361213756912484, -12.619281067287272 ] ] ], [ [ [ -61.358963761609552, -12.620281064363475 ], [ -61.358963761609552, -12.620781062901576 ], [ -61.359213761087652, -12.620781062901576 ], [ -61.359213761087652, -12.621031062170626 ], [ -61.35946376056576, -12.621031062170626 ], [ -61.35946376056576, -12.620781062901576 ], [ -61.35971376004386, -12.620781062901576 ], [ -61.35971376004386, -12.620031065094423 ], [ -61.359963759521968, -12.620031065094423 ], [ -61.359963759521968, -12.619781065825373 ], [ -61.360213759000068, -12.619781065825373 ], [ -61.360213759000068, -12.619531066556322 ], [ -61.360713757956276, -12.619531066556322 ], [ -61.360713757956276, -12.619281067287272 ], [ -61.360463758478176, -12.619281067287272 ], [ -61.360463758478176, -12.618781068749168 ], [ -61.360713757956276, -12.618781068749168 ], [ -61.360713757956276, -12.618531069480118 ], [ -61.360463758478176, -12.618531069480118 ], [ -61.360463758478176, -12.618281070211069 ], [ -61.360713757956276, -12.618281070211069 ], [ -61.360713757956276, -12.618031070942017 ], [ -61.360463758478176, -12.618031070942017 ], [ -61.360463758478176, -12.617031073865814 ], [ -61.360713757956276, -12.617031073865814 ], [ -61.360713757956276, -12.616281076058661 ], [ -61.360213759000068, -12.616281076058661 ], [ -61.360213759000068, -12.615781077520559 ], [ -61.359213761087652, -12.615781077520559 ], [ -61.359213761087652, -12.615531078251509 ], [ -61.358963761609552, -12.615531078251509 ], [ -61.358963761609552, -12.615781077520559 ], [ -61.358713762131444, -12.615781077520559 ], [ -61.358713762131444, -12.616281076058661 ], [ -61.358463762653344, -12.616281076058661 ], [ -61.358463762653344, -12.617531072403915 ], [ -61.358713762131444, -12.617531072403915 ], [ -61.358713762131444, -12.617781071672965 ], [ -61.358963761609552, -12.617781071672965 ], [ -61.358963761609552, -12.618031070942017 ], [ -61.358713762131444, -12.618031070942017 ], [ -61.358713762131444, -12.618281070211069 ], [ -61.358963761609552, -12.618281070211069 ], [ -61.358963761609552, -12.619531066556322 ], [ -61.358713762131444, -12.619531066556322 ], [ -61.358713762131444, -12.620281064363475 ], [ -61.358963761609552, -12.620281064363475 ] ], [ [ -61.358963761609552, -12.617531072403915 ], [ -61.359213761087652, -12.617531072403915 ], [ -61.359213761087652, -12.617781071672965 ], [ -61.358963761609552, -12.617781071672965 ], [ -61.358963761609552, -12.617531072403915 ] ] ], [ [ [ -61.360963757434376, -12.615781077520559 ], [ -61.360963757434376, -12.616281076058661 ], [ -61.361213756912484, -12.616281076058661 ], [ -61.361213756912484, -12.616031076789611 ], [ -61.361713755868692, -12.616031076789611 ], [ -61.361713755868692, -12.615781077520559 ], [ -61.360963757434376, -12.615781077520559 ] ] ], [ [ [ -61.361713755868692, -12.584281169620153 ], [ -61.361463756390584, -12.584281169620153 ], [ -61.361463756390584, -12.584531168889205 ], [ -61.361713755868692, -12.584531168889205 ], [ -61.361713755868692, -12.584281169620153 ] ] ], [ [ [ -61.358713762131444, -12.584031170351103 ], [ -61.358463762653344, -12.584031170351103 ], [ -61.358463762653344, -12.584281169620153 ], [ -61.358713762131444, -12.584281169620153 ], [ -61.358713762131444, -12.584031170351103 ] ] ], [ [ [ -61.357963763697136, -12.583781171082052 ], [ -61.357713764219028, -12.583781171082052 ], [ -61.357713764219028, -12.584031170351103 ], [ -61.357963763697136, -12.584031170351103 ], [ -61.357963763697136, -12.583781171082052 ] ] ], [ [ [ -61.356713766306619, -12.58328117254395 ], [ -61.356463766828512, -12.58328117254395 ], [ -61.356463766828512, -12.583531171813 ], [ -61.356713766306619, -12.583531171813 ], [ -61.356713766306619, -12.58328117254395 ] ] ], [ [ [ -61.3622137548249, -12.5830311732749 ], [ -61.361963755346792, -12.5830311732749 ], [ -61.361963755346792, -12.58328117254395 ], [ -61.3622137548249, -12.58328117254395 ], [ -61.3622137548249, -12.5830311732749 ] ] ], [ [ [ -61.355463768916096, -12.582781174005849 ], [ -61.355213769437995, -12.582781174005849 ], [ -61.355213769437995, -12.5830311732749 ], [ -61.355463768916096, -12.5830311732749 ], [ -61.355463768916096, -12.582781174005849 ] ] ], [ [ [ -61.35946376056576, -12.578531186431984 ], [ -61.35946376056576, -12.578281187162933 ], [ -61.359213761087652, -12.578281187162933 ], [ -61.359213761087652, -12.578531186431984 ], [ -61.35946376056576, -12.578531186431984 ] ] ], [ [ [ -61.348463783529198, -12.578281187162933 ], [ -61.348963782485399, -12.578281187162933 ], [ -61.348963782485399, -12.578531186431984 ], [ -61.350213779875922, -12.578531186431984 ], [ -61.350213779875922, -12.578281187162933 ], [ -61.349713780919714, -12.578281187162933 ], [ -61.349713780919714, -12.578031187893883 ], [ -61.346963786660574, -12.578031187893883 ], [ -61.346963786660574, -12.578281187162933 ], [ -61.347213786138674, -12.578281187162933 ], [ -61.347213786138674, -12.578531186431984 ], [ -61.34821378405109, -12.578531186431984 ], [ -61.34821378405109, -12.578781185701036 ], [ -61.348463783529198, -12.578781185701036 ], [ -61.348463783529198, -12.578281187162933 ] ] ], [ [ [ -61.359213761087652, -12.578031187893883 ], [ -61.358713762131444, -12.578031187893883 ], [ -61.358713762131444, -12.578281187162933 ], [ -61.359213761087652, -12.578281187162933 ], [ -61.359213761087652, -12.578031187893883 ] ] ], [ [ [ -61.340713799707977, -12.691530856042963 ], [ -61.340713799707977, -12.691280856773913 ], [ -61.340463800229877, -12.691280856773913 ], [ -61.340463800229877, -12.691530856042963 ], [ -61.340713799707977, -12.691530856042963 ] ] ], [ [ [ -61.340713799707977, -12.689780861159608 ], [ -61.340463800229877, -12.689780861159608 ], [ -61.340463800229877, -12.690030860428658 ], [ -61.340713799707977, -12.690030860428658 ], [ -61.340713799707977, -12.689780861159608 ] ] ], [ [ [ -61.340713799707977, -12.679030892590422 ], [ -61.340463800229877, -12.679030892590422 ], [ -61.340463800229877, -12.679530891128524 ], [ -61.340713799707977, -12.679530891128524 ], [ -61.340713799707977, -12.679030892590422 ] ] ], [ [ [ -61.326713828934174, -12.668530923290286 ], [ -61.326713828934174, -12.666280929868829 ], [ -61.326463829456067, -12.666280929868829 ], [ -61.326463829456067, -12.668530923290286 ], [ -61.326713828934174, -12.668530923290286 ] ] ], [ [ [ -61.328713824758999, -12.664780934254523 ], [ -61.328463825280899, -12.664780934254523 ], [ -61.328463825280899, -12.664530934985473 ], [ -61.328213825802791, -12.664530934985473 ], [ -61.328213825802791, -12.664280935716421 ], [ -61.327963826324691, -12.664280935716421 ], [ -61.327963826324691, -12.664030936447372 ], [ -61.326963828412275, -12.664030936447372 ], [ -61.326963828412275, -12.66378093717832 ], [ -61.326463829456067, -12.66378093717832 ], [ -61.326463829456067, -12.666030930599778 ], [ -61.326713828934174, -12.666030930599778 ], [ -61.326713828934174, -12.665530932061676 ], [ -61.327213827890375, -12.665530932061676 ], [ -61.327213827890375, -12.665280932792626 ], [ -61.328713824758999, -12.665280932792626 ], [ -61.328713824758999, -12.664780934254523 ] ] ], [ [ [ -61.331213819540039, -12.66378093717832 ], [ -61.330213821627623, -12.66378093717832 ], [ -61.330213821627623, -12.664530934985473 ], [ -61.331213819540039, -12.664530934985473 ], [ -61.331213819540039, -12.66378093717832 ] ] ], [ [ [ -61.331213819540039, -12.66378093717832 ], [ -61.331713818496247, -12.66378093717832 ], [ -61.331713818496247, -12.664280935716421 ], [ -61.33146381901814, -12.664280935716421 ], [ -61.33146381901814, -12.664530934985473 ], [ -61.331213819540039, -12.664530934985473 ], [ -61.331213819540039, -12.664780934254523 ], [ -61.331963817974348, -12.664780934254523 ], [ -61.331963817974348, -12.664280935716421 ], [ -61.332213817452455, -12.664280935716421 ], [ -61.332213817452455, -12.663280938640218 ], [ -61.331963817974348, -12.663280938640218 ], [ -61.331963817974348, -12.662780940102117 ], [ -61.331713818496247, -12.662780940102117 ], [ -61.331713818496247, -12.66353093790927 ], [ -61.33146381901814, -12.66353093790927 ], [ -61.33146381901814, -12.663280938640218 ], [ -61.330963820061932, -12.663280938640218 ], [ -61.330963820061932, -12.66353093790927 ], [ -61.331213819540039, -12.66353093790927 ], [ -61.331213819540039, -12.66378093717832 ] ] ], [ [ [ -61.330963820061932, -12.663030939371168 ], [ -61.330713820583831, -12.663030939371168 ], [ -61.330713820583831, -12.663280938640218 ], [ -61.330963820061932, -12.663280938640218 ], [ -61.330963820061932, -12.663030939371168 ] ] ], [ [ [ -61.33146381901814, -12.662780940102117 ], [ -61.330963820061932, -12.662780940102117 ], [ -61.330963820061932, -12.663030939371168 ], [ -61.33146381901814, -12.663030939371168 ], [ -61.33146381901814, -12.662780940102117 ] ] ], [ [ [ -61.327713826846583, -12.662780940102117 ], [ -61.327213827890375, -12.662780940102117 ], [ -61.327213827890375, -12.663030939371168 ], [ -61.327963826324691, -12.663030939371168 ], [ -61.327963826324691, -12.663280938640218 ], [ -61.328213825802791, -12.663280938640218 ], [ -61.328213825802791, -12.66353093790927 ], [ -61.329213823715207, -12.66353093790927 ], [ -61.329213823715207, -12.663280938640218 ], [ -61.329713822671415, -12.663280938640218 ], [ -61.329713822671415, -12.663030939371168 ], [ -61.329463823193308, -12.663030939371168 ], [ -61.329463823193308, -12.662780940102117 ], [ -61.330213821627623, -12.662780940102117 ], [ -61.330213821627623, -12.663030939371168 ], [ -61.330463821105724, -12.663030939371168 ], [ -61.330463821105724, -12.662280941564015 ], [ -61.329463823193308, -12.662280941564015 ], [ -61.329463823193308, -12.662030942294965 ], [ -61.330213821627623, -12.662030942294965 ], [ -61.330213821627623, -12.661530943756862 ], [ -61.330713820583831, -12.661530943756862 ], [ -61.330713820583831, -12.661780943025914 ], [ -61.331213819540039, -12.661780943025914 ], [ -61.331213819540039, -12.661530943756862 ], [ -61.331713818496247, -12.661530943756862 ], [ -61.331713818496247, -12.662030942294965 ], [ -61.331963817974348, -12.662030942294965 ], [ -61.331963817974348, -12.661280944487812 ], [ -61.331713818496247, -12.661280944487812 ], [ -61.331713818496247, -12.661030945218762 ], [ -61.331213819540039, -12.661030945218762 ], [ -61.331213819540039, -12.66078094594971 ], [ -61.330713820583831, -12.66078094594971 ], [ -61.330713820583831, -12.660280947411609 ], [ -61.329463823193308, -12.660280947411609 ], [ -61.329463823193308, -12.659780948873507 ], [ -61.329213823715207, -12.659780948873507 ], [ -61.329213823715207, -12.660280947411609 ], [ -61.328963824237107, -12.660280947411609 ], [ -61.328963824237107, -12.659780948873507 ], [ -61.328463825280899, -12.659780948873507 ], [ -61.328463825280899, -12.66078094594971 ], [ -61.328213825802791, -12.66078094594971 ], [ -61.328213825802791, -12.660530946680659 ], [ -61.327713826846583, -12.660530946680659 ], [ -61.327713826846583, -12.660280947411609 ], [ -61.327963826324691, -12.660280947411609 ], [ -61.327963826324691, -12.659780948873507 ], [ -61.327713826846583, -12.659780948873507 ], [ -61.327713826846583, -12.659280950335406 ], [ -61.327463827368483, -12.659280950335406 ], [ -61.327463827368483, -12.659030951066354 ], [ -61.326713828934174, -12.659030951066354 ], [ -61.326713828934174, -12.658780951797304 ], [ -61.326463829456067, -12.658780951797304 ], [ -61.326463829456067, -12.663030939371168 ], [ -61.326713828934174, -12.663030939371168 ], [ -61.326713828934174, -12.662280941564015 ], [ -61.326963828412275, -12.662280941564015 ], [ -61.326963828412275, -12.662030942294965 ], [ -61.327713826846583, -12.662030942294965 ], [ -61.327713826846583, -12.662780940102117 ] ], [ [ -61.327213827890375, -12.659280950335406 ], [ -61.327213827890375, -12.660280947411609 ], [ -61.326963828412275, -12.660280947411609 ], [ -61.326963828412275, -12.659780948873507 ], [ -61.326713828934174, -12.659780948873507 ], [ -61.326713828934174, -12.659530949604456 ], [ -61.326963828412275, -12.659530949604456 ], [ -61.326963828412275, -12.659280950335406 ], [ -61.327213827890375, -12.659280950335406 ] ], [ [ -61.327713826846583, -12.661030945218762 ], [ -61.326963828412275, -12.661030945218762 ], [ -61.326963828412275, -12.66078094594971 ], [ -61.327963826324691, -12.66078094594971 ], [ -61.327963826324691, -12.661280944487812 ], [ -61.327713826846583, -12.661280944487812 ], [ -61.327713826846583, -12.661030945218762 ] ], [ [ -61.328213825802791, -12.661280944487812 ], [ -61.328213825802791, -12.661530943756862 ], [ -61.328463825280899, -12.661530943756862 ], [ -61.328463825280899, -12.661780943025914 ], [ -61.328213825802791, -12.661780943025914 ], [ -61.328213825802791, -12.662030942294965 ], [ -61.327963826324691, -12.662030942294965 ], [ -61.327963826324691, -12.661780943025914 ], [ -61.327713826846583, -12.661780943025914 ], [ -61.327713826846583, -12.661530943756862 ], [ -61.327963826324691, -12.661530943756862 ], [ -61.327963826324691, -12.661280944487812 ], [ -61.328213825802791, -12.661280944487812 ] ], [ [ -61.328713824758999, -12.661780943025914 ], [ -61.328713824758999, -12.662030942294965 ], [ -61.328463825280899, -12.662030942294965 ], [ -61.328463825280899, -12.661780943025914 ], [ -61.328713824758999, -12.661780943025914 ] ], [ [ -61.328213825802791, -12.662780940102117 ], [ -61.327963826324691, -12.662780940102117 ], [ -61.327963826324691, -12.662280941564015 ], [ -61.328213825802791, -12.662280941564015 ], [ -61.328213825802791, -12.662780940102117 ] ], [ [ -61.328463825280899, -12.662780940102117 ], [ -61.328463825280899, -12.663030939371168 ], [ -61.328213825802791, -12.663030939371168 ], [ -61.328213825802791, -12.662780940102117 ], [ -61.328463825280899, -12.662780940102117 ] ] ], [ [ [ -61.326713828934174, -12.647280985420965 ], [ -61.326713828934174, -12.647030986151915 ], [ -61.326463829456067, -12.647030986151915 ], [ -61.326463829456067, -12.647280985420965 ], [ -61.326713828934174, -12.647280985420965 ] ] ], [ [ [ -61.326713828934174, -12.646280988344762 ], [ -61.326463829456067, -12.646280988344762 ], [ -61.326463829456067, -12.646530987613811 ], [ -61.326713828934174, -12.646530987613811 ], [ -61.326713828934174, -12.646280988344762 ] ] ], [ [ [ -61.326713828934174, -12.643280997116152 ], [ -61.326463829456067, -12.643280997116152 ], [ -61.326463829456067, -12.643530996385202 ], [ -61.326713828934174, -12.643530996385202 ], [ -61.326713828934174, -12.643280997116152 ] ] ], [ [ [ -61.339213802839353, -12.638781010273236 ], [ -61.338963803361253, -12.638781010273236 ], [ -61.338963803361253, -12.639031009542286 ], [ -61.339213802839353, -12.639031009542286 ], [ -61.339213802839353, -12.638781010273236 ] ] ], [ [ [ -61.331963817974348, -12.62803104170405 ], [ -61.332713816408656, -12.62803104170405 ], [ -61.332713816408656, -12.627281043896899 ], [ -61.332213817452455, -12.627281043896899 ], [ -61.332213817452455, -12.626531046089745 ], [ -61.332713816408656, -12.626531046089745 ], [ -61.332713816408656, -12.626281046820694 ], [ -61.332213817452455, -12.626281046820694 ], [ -61.332213817452455, -12.625281049744491 ], [ -61.332138194231021, -12.625281049744491 ], [ -61.332137905281002, -12.625325117117001 ], [ -61.328463825280899, -12.62529543441684 ], [ -61.328463825280899, -12.626031047551644 ], [ -61.328713824758999, -12.626031047551644 ], [ -61.328713824758999, -12.626281046820694 ], [ -61.328463825280899, -12.626281046820694 ], [ -61.328463825280899, -12.626531046089745 ], [ -61.328213825802791, -12.626531046089745 ], [ -61.328213825802791, -12.626781045358797 ], [ -61.327963826324691, -12.626781045358797 ], [ -61.327963826324691, -12.627031044627847 ], [ -61.327463827368483, -12.627031044627847 ], [ -61.327463827368483, -12.626031047551644 ], [ -61.327213827890375, -12.626031047551644 ], [ -61.327213827890375, -12.625781048282594 ], [ -61.326963828412275, -12.625781048282594 ], [ -61.326963828412275, -12.625531049013542 ], [ -61.326463829456067, -12.625531049013542 ], [ -61.326463829456067, -12.626031047551644 ], [ -61.326713828934174, -12.626031047551644 ], [ -61.326713828934174, -12.626531046089745 ], [ -61.326463829456067, -12.626531046089745 ], [ -61.326463829456067, -12.626781045358797 ], [ -61.326713828934174, -12.626781045358797 ], [ -61.326713828934174, -12.627781042435 ], [ -61.326463829456067, -12.627781042435 ], [ -61.326463829456067, -12.628781039511203 ], [ -61.326963828412275, -12.628781039511203 ], [ -61.326963828412275, -12.629031038780253 ], [ -61.327963826324691, -12.629031038780253 ], [ -61.327963826324691, -12.628781039511203 ], [ -61.328463825280899, -12.628781039511203 ], [ -61.328463825280899, -12.628531040242152 ], [ -61.328713824758999, -12.628531040242152 ], [ -61.328713824758999, -12.628281040973102 ], [ -61.328463825280899, -12.628281040973102 ], [ -61.328463825280899, -12.62803104170405 ], [ -61.329213823715207, -12.62803104170405 ], [ -61.329213823715207, -12.628281040973102 ], [ -61.328963824237107, -12.628281040973102 ], [ -61.328963824237107, -12.628531040242152 ], [ -61.331213819540039, -12.628531040242152 ], [ -61.331213819540039, -12.628281040973102 ], [ -61.331963817974348, -12.628281040973102 ], [ -61.331963817974348, -12.62803104170405 ] ], [ [ -61.328213825802791, -12.62803104170405 ], [ -61.328213825802791, -12.627781042435 ], [ -61.328463825280899, -12.627781042435 ], [ -61.328463825280899, -12.62803104170405 ], [ -61.328213825802791, -12.62803104170405 ] ], [ [ -61.329713822671415, -12.625531049013542 ], [ -61.329713822671415, -12.625781048282594 ], [ -61.329463823193308, -12.625781048282594 ], [ -61.329463823193308, -12.625531049013542 ], [ -61.329713822671415, -12.625531049013542 ] ], [ [ -61.330463821105724, -12.627281043896899 ], [ -61.330463821105724, -12.626531046089745 ], [ -61.330213821627623, -12.626531046089745 ], [ -61.330213821627623, -12.626281046820694 ], [ -61.330463821105724, -12.626281046820694 ], [ -61.330463821105724, -12.626031047551644 ], [ -61.330713820583831, -12.626031047551644 ], [ -61.330713820583831, -12.625781048282594 ], [ -61.331213819540039, -12.625781048282594 ], [ -61.331213819540039, -12.626781045358797 ], [ -61.330963820061932, -12.626781045358797 ], [ -61.330963820061932, -12.627031044627847 ], [ -61.330713820583831, -12.627031044627847 ], [ -61.330713820583831, -12.627531043165948 ], [ -61.330213821627623, -12.627531043165948 ], [ -61.330213821627623, -12.627281043896899 ], [ -61.330463821105724, -12.627281043896899 ] ], [ [ -61.329463823193308, -12.626781045358797 ], [ -61.329463823193308, -12.627031044627847 ], [ -61.329213823715207, -12.627031044627847 ], [ -61.329213823715207, -12.626781045358797 ], [ -61.329463823193308, -12.626781045358797 ] ], [ [ -61.331963817974348, -12.627281043896899 ], [ -61.331963817974348, -12.627781042435 ], [ -61.331713818496247, -12.627781042435 ], [ -61.331713818496247, -12.627281043896899 ], [ -61.331963817974348, -12.627281043896899 ] ] ], [ [ [ -61.332713816408656, -12.622281058515881 ], [ -61.332213817452455, -12.622281058515881 ], [ -61.332213817452455, -12.623281055592084 ], [ -61.332713816408656, -12.623281055592084 ], [ -61.332713816408656, -12.622281058515881 ] ] ], [ [ [ -61.332713816408656, -12.620781062901576 ], [ -61.332213817452455, -12.620781062901576 ], [ -61.332213817452455, -12.62153106070873 ], [ -61.332713816408656, -12.62153106070873 ], [ -61.332713816408656, -12.620781062901576 ] ] ], [ [ [ -61.33230539739197, -12.599781124301305 ], [ -61.332300479651941, -12.600531122108459 ], [ -61.332713816408656, -12.600531122108459 ], [ -61.332713816408656, -12.599781124301305 ], [ -61.33230539739197, -12.599781124301305 ] ] ], [ [ [ -61.332463816930556, -12.59478113892029 ], [ -61.332338182325486, -12.59478113892029 ], [ -61.332307036638646, -12.599531125032254 ], [ -61.332713816408656, -12.599531125032254 ], [ -61.332713816408656, -12.599281125763204 ], [ -61.332963815886764, -12.599281125763204 ], [ -61.332963815886764, -12.598531127956051 ], [ -61.332713816408656, -12.598531127956051 ], [ -61.332713816408656, -12.588781156463069 ], [ -61.332463816930556, -12.588781156463069 ], [ -61.332463816930556, -12.59478113892029 ] ] ], [ [ [ -61.332963815886764, -12.5830311732749 ], [ -61.332713816408656, -12.5830311732749 ], [ -61.332713816408656, -12.58328117254395 ], [ -61.332463816930556, -12.58328117254395 ], [ -61.332463816930556, -12.586531163041611 ], [ -61.332713816408656, -12.586531163041611 ], [ -61.332713816408656, -12.583531171813 ], [ -61.332963815886764, -12.583531171813 ], [ -61.332963815886764, -12.5830311732749 ] ] ], [ [ [ -61.332713816408656, -12.581781176929645 ], [ -61.332463816930556, -12.581781176929645 ], [ -61.332463816930556, -12.582281175467747 ], [ -61.332713816408656, -12.582281175467747 ], [ -61.332713816408656, -12.581781176929645 ] ] ], [ [ [ -61.332963815886764, -12.579531183508188 ], [ -61.332963815886764, -12.579031184970086 ], [ -61.332713816408656, -12.579031184970086 ], [ -61.332713816408656, -12.578531186431984 ], [ -61.332963815886764, -12.578531186431984 ], [ -61.332963815886764, -12.578031187893883 ], [ -61.332472684856334, -12.578031187893883 ], [ -61.332463816930556, -12.578876075599684 ], [ -61.332463816930556, -12.581531177660594 ], [ -61.332713816408656, -12.581531177660594 ], [ -61.332713816408656, -12.580781179853442 ], [ -61.332963815886764, -12.580781179853442 ], [ -61.332963815886764, -12.580281181315341 ], [ -61.332713816408656, -12.580281181315341 ], [ -61.332713816408656, -12.579531183508188 ], [ -61.332963815886764, -12.579531183508188 ] ] ], [ [ [ -61.333463814842972, -12.578531186431984 ], [ -61.333213815364864, -12.578531186431984 ], [ -61.333213815364864, -12.578781185701036 ], [ -61.333463814842972, -12.578781185701036 ], [ -61.333463814842972, -12.578531186431984 ] ] ], [ [ [ -61.339963801273669, -12.578281187162933 ], [ -61.339713801795561, -12.578281187162933 ], [ -61.339713801795561, -12.578031187893883 ], [ -61.339213802839353, -12.578031187893883 ], [ -61.339213802839353, -12.578281187162933 ], [ -61.338963803361253, -12.578281187162933 ], [ -61.338963803361253, -12.578781185701036 ], [ -61.339713801795561, -12.578781185701036 ], [ -61.339713801795561, -12.578531186431984 ], [ -61.339963801273669, -12.578531186431984 ], [ -61.339963801273669, -12.578281187162933 ] ] ] ] } }
]
}
