{
"type": "FeatureCollection",
"name": "igarape_ribeirao",
"crs": { "type": "name", "properties": { "name": "urn:ogc:def:crs:OGC:1.3:CRS84" } },
"features": [
{ "type": "Feature", "properties": { "area_ha": 319.77 }, "geometry": { "type": "MultiPolygon", "coordinates": [ [ [ [ -65.153549915791146, -10.342663192181707 ], [ -65.153819410376371, -10.342663192181693 ], [ -65.153819410376371, -10.343202181352163 ], [ -65.154088904961611, -10.343202181352167 ], [ -65.154088904961611, -10.34347167593741 ], [ -65.153819410376371, -10.343471675937407 ], [ -65.153819410376371, -10.34401066510787 ], [ -65.154088904961611, -10.344010665107875 ], [ -65.154088904961611, -10.343741170522639 ], [ -65.154358399546851, -10.343741170522634 ], [ -65.154358399546851, -10.34320218135217 ], [ -65.154627894132091, -10.343202181352169 ], [ -65.154627894132091, -10.341046224670279 ], [ -65.154358399546851, -10.341046224670281 ], [ -65.154358399546851, -10.340507235499809 ], [ -65.154088904961611, -10.340507235499814 ], [ -65.154088904961611, -10.341046224670281 ], [ -65.153819410376371, -10.341046224670281 ], [ -65.153819410376371, -10.341585213840752 ], [ -65.153549915791146, -10.341585213840755 ], [ -65.153549915791146, -10.342663192181707 ] ] ], [ [ [ -65.157592334569685, -10.320834130777584 ], [ -65.157861829154911, -10.320834130777593 ], [ -65.157861829154911, -10.318947668680945 ], [ -65.157592334569685, -10.318947668680936 ], [ -65.157592334569685, -10.319217163266185 ], [ -65.157322839984445, -10.319217163266179 ], [ -65.157322839984445, -10.321642614533296 ], [ -65.157592334569685, -10.321642614533305 ], [ -65.157592334569685, -10.320834130777584 ] ] ], [ [ [ -65.162712731689155, -10.318678174095711 ], [ -65.163251720859634, -10.318678174095703 ], [ -65.163251720859634, -10.318408679510476 ], [ -65.163521215444874, -10.318408679510469 ], [ -65.163521215444874, -10.3186781740957 ], [ -65.163790710030099, -10.318678174095703 ], [ -65.163790710030099, -10.318408679510469 ], [ -65.164060204615339, -10.318408679510464 ], [ -65.164060204615339, -10.317869690339998 ], [ -65.162982226274394, -10.317869690340006 ], [ -65.162982226274394, -10.317600195754757 ], [ -65.162712731689155, -10.317600195754761 ], [ -65.162712731689155, -10.317330701169524 ], [ -65.16190424793345, -10.317330701169523 ], [ -65.16190424793345, -10.317600195754769 ], [ -65.162443237103929, -10.317600195754764 ], [ -65.162443237103929, -10.317869690340002 ], [ -65.162712731689155, -10.317869690339995 ], [ -65.162712731689155, -10.318678174095711 ] ] ], [ [ [ -65.157861829154911, -10.315713733658111 ], [ -65.157861829154911, -10.315444239072876 ], [ -65.157592334569685, -10.315444239072882 ], [ -65.157592334569685, -10.315713733658111 ], [ -65.157861829154911, -10.315713733658111 ] ] ], [ [ [ -65.157592334569685, -10.315444239072882 ], [ -65.157592334569685, -10.31355777697622 ], [ -65.157322839984445, -10.313557776976232 ], [ -65.157322839984445, -10.31544423907288 ], [ -65.157592334569685, -10.315444239072882 ] ] ], [ [ [ -65.157053345399206, -10.313557776976227 ], [ -65.157322839984445, -10.313557776976232 ], [ -65.157322839984445, -10.313018787805747 ], [ -65.157053345399206, -10.313018787805744 ], [ -65.157053345399206, -10.313557776976227 ] ] ], [ [ [ -65.157053345399206, -10.313018787805744 ], [ -65.157053345399206, -10.312749293220522 ], [ -65.156783850813966, -10.312749293220515 ], [ -65.156783850813966, -10.313018787805749 ], [ -65.157053345399206, -10.313018787805744 ] ] ], [ [ [ -65.153280421205906, -10.312210304050042 ], [ -65.153280421205906, -10.311671314879566 ], [ -65.153010926620667, -10.311671314879572 ], [ -65.153010926620667, -10.312210304050049 ], [ -65.153280421205906, -10.312210304050042 ] ] ], [ [ [ -65.16163475334821, -10.307089906930564 ], [ -65.16190424793345, -10.307089906930566 ], [ -65.16190424793345, -10.307359401515795 ], [ -65.162443237103929, -10.307359401515798 ], [ -65.162443237103929, -10.307089906930567 ], [ -65.162982226274394, -10.307089906930564 ], [ -65.162982226274394, -10.306820412345331 ], [ -65.163251720859634, -10.306820412345326 ], [ -65.163251720859634, -10.306550917760086 ], [ -65.163521215444874, -10.306550917760097 ], [ -65.163521215444874, -10.305742434004388 ], [ -65.163251720859634, -10.305742434004383 ], [ -65.163251720859634, -10.305472939419147 ], [ -65.162982226274394, -10.30547293941915 ], [ -65.162982226274394, -10.305203444833916 ], [ -65.162712731689155, -10.305203444833912 ], [ -65.162712731689155, -10.304933950248687 ], [ -65.162443237103929, -10.30493395024868 ], [ -65.162443237103929, -10.304664455663442 ], [ -65.162173742518689, -10.304664455663449 ], [ -65.162173742518689, -10.30412546649297 ], [ -65.16190424793345, -10.304125466492977 ], [ -65.16190424793345, -10.303586477322508 ], [ -65.16163475334821, -10.30358647732249 ], [ -65.16163475334821, -10.306011928589617 ], [ -65.161365258762984, -10.306011928589617 ], [ -65.161365258762984, -10.30682041234533 ], [ -65.16163475334821, -10.306820412345331 ], [ -65.16163475334821, -10.307089906930564 ] ] ], [ [ [ -65.159209302081095, -10.294154166839242 ], [ -65.159478796666335, -10.294154166839238 ], [ -65.159478796666335, -10.293615177668775 ], [ -65.15974829125156, -10.293615177668769 ], [ -65.15974829125156, -10.293345683083539 ], [ -65.159478796666335, -10.293345683083537 ], [ -65.159478796666335, -10.292806693913057 ], [ -65.159209302081095, -10.292806693913061 ], [ -65.159209302081095, -10.292537199327828 ], [ -65.158939807495855, -10.292537199327825 ], [ -65.158939807495855, -10.291998210157359 ], [ -65.15840081832539, -10.291998210157358 ], [ -65.15840081832539, -10.291728715572122 ], [ -65.15813132374015, -10.291728715572113 ], [ -65.15813132374015, -10.291998210157349 ], [ -65.157592334569685, -10.291998210157367 ], [ -65.157592334569685, -10.292267704742592 ], [ -65.157053345399206, -10.29226770474259 ], [ -65.157053345399206, -10.292537199327825 ], [ -65.157592334569685, -10.292537199327832 ], [ -65.157592334569685, -10.29280669391307 ], [ -65.157861829154911, -10.292806693913068 ], [ -65.157861829154911, -10.293076188498299 ], [ -65.157592334569685, -10.293076188498308 ], [ -65.157592334569685, -10.293615177668777 ], [ -65.157322839984445, -10.293615177668775 ], [ -65.157322839984445, -10.294423661424485 ], [ -65.157053345399206, -10.294423661424482 ], [ -65.157053345399206, -10.29523214518019 ], [ -65.156783850813966, -10.295232145180183 ], [ -65.156783850813966, -10.295501639765417 ], [ -65.15651435622874, -10.295501639765424 ], [ -65.15651435622874, -10.295771134350655 ], [ -65.155436377887796, -10.295771134350661 ], [ -65.155436377887796, -10.296040628935899 ], [ -65.155166883302556, -10.296040628935899 ], [ -65.155166883302556, -10.296579618106371 ], [ -65.154897388717316, -10.296579618106362 ], [ -65.154897388717316, -10.29765759644731 ], [ -65.154627894132091, -10.29765759644731 ], [ -65.154627894132091, -10.298196585617777 ], [ -65.154358399546851, -10.298196585617783 ], [ -65.154358399546851, -10.298466080203015 ], [ -65.154088904961611, -10.298466080203017 ], [ -65.154088904961611, -10.298735574788243 ], [ -65.153819410376371, -10.29873557478825 ], [ -65.153819410376371, -10.299005069373493 ], [ -65.153280421205906, -10.299005069373488 ], [ -65.153280421205906, -10.300083047714436 ], [ -65.153549915791146, -10.300083047714425 ], [ -65.153549915791146, -10.300622036884905 ], [ -65.153819410376371, -10.300622036884903 ], [ -65.153819410376371, -10.301161026055368 ], [ -65.154088904961611, -10.301161026055373 ], [ -65.154088904961611, -10.302239004396316 ], [ -65.154358399546851, -10.302239004396315 ], [ -65.154358399546851, -10.30250849898156 ], [ -65.154088904961611, -10.302508498981558 ], [ -65.154088904961611, -10.30277799356679 ], [ -65.153549915791146, -10.302777993566785 ], [ -65.153549915791146, -10.30250849898156 ], [ -65.153010926620667, -10.302508498981554 ], [ -65.153010926620667, -10.30223900439632 ], [ -65.151932948279722, -10.302239004396311 ], [ -65.151932948279722, -10.301969509811084 ], [ -65.151663453694496, -10.301969509811091 ], [ -65.151663453694496, -10.301700015225844 ], [ -65.151393959109257, -10.301700015225849 ], [ -65.151393959109257, -10.301430520640606 ], [ -65.151124464524017, -10.30143052064061 ], [ -65.151124464524017, -10.30089153147013 ], [ -65.151393959109257, -10.300891531470144 ], [ -65.151393959109257, -10.300622036884912 ], [ -65.151124464524017, -10.300622036884899 ], [ -65.151124464524017, -10.300083047714436 ], [ -65.150854969938777, -10.300083047714432 ], [ -65.150854969938777, -10.299813553129193 ], [ -65.150585475353552, -10.299813553129198 ], [ -65.150585475353552, -10.299544058543963 ], [ -65.150315980768312, -10.299544058543955 ], [ -65.150315980768312, -10.299274563958724 ], [ -65.149238002427367, -10.299274563958727 ], [ -65.149238002427367, -10.299005069373486 ], [ -65.148699013256902, -10.299005069373493 ], [ -65.148699013256902, -10.299544058543951 ], [ -65.148429518671662, -10.299544058543956 ], [ -65.148429518671662, -10.300083047714427 ], [ -65.148699013256902, -10.300083047714427 ], [ -65.148699013256902, -10.300622036884899 ], [ -65.148968507842127, -10.300622036884899 ], [ -65.148968507842127, -10.300891531470134 ], [ -65.148699013256902, -10.300891531470132 ], [ -65.148699013256902, -10.301430520640615 ], [ -65.148160024086422, -10.30143052064061 ], [ -65.148160024086422, -10.301700015225849 ], [ -65.147890529501183, -10.301700015225855 ], [ -65.147890529501183, -10.301430520640615 ], [ -65.147621034915957, -10.301430520640611 ], [ -65.147621034915957, -10.301700015225844 ], [ -65.147351540330718, -10.301700015225839 ], [ -65.147351540330718, -10.303047488152021 ], [ -65.146812551160238, -10.303047488152036 ], [ -65.146812551160238, -10.302508498981556 ], [ -65.146273561989773, -10.302508498981561 ], [ -65.146273561989773, -10.30196950981108 ], [ -65.146004067404533, -10.30196950981108 ], [ -65.146004067404533, -10.301700015225851 ], [ -65.146273561989773, -10.301700015225846 ], [ -65.146273561989773, -10.301430520640606 ], [ -65.146543056575013, -10.301430520640604 ], [ -65.146543056575013, -10.300352542299661 ], [ -65.146273561989773, -10.300352542299676 ], [ -65.146273561989773, -10.299813553129205 ], [ -65.146004067404533, -10.299813553129191 ], [ -65.146004067404533, -10.29954405854396 ], [ -65.145734572819308, -10.299544058543962 ], [ -65.145734572819308, -10.299005069373488 ], [ -65.146273561989773, -10.299005069373489 ], [ -65.146273561989773, -10.298735574788243 ], [ -65.146543056575013, -10.298735574788257 ], [ -65.146543056575013, -10.299005069373482 ], [ -65.146812551160238, -10.299005069373489 ], [ -65.146812551160238, -10.298466080203021 ], [ -65.147082045745478, -10.29846608020301 ], [ -65.147082045745478, -10.298196585617783 ], [ -65.146812551160238, -10.298196585617779 ], [ -65.146812551160238, -10.297657596447307 ], [ -65.146543056575013, -10.297657596447314 ], [ -65.146543056575013, -10.297388101862071 ], [ -65.146004067404533, -10.297388101862069 ], [ -65.146004067404533, -10.297118607276838 ], [ -65.144926089063588, -10.297118607276843 ], [ -65.144926089063588, -10.297388101862065 ], [ -65.145465078234068, -10.297388101862074 ], [ -65.145465078234068, -10.297657596447314 ], [ -65.145734572819308, -10.297657596447312 ], [ -65.145734572819308, -10.298196585617786 ], [ -65.145465078234068, -10.298196585617774 ], [ -65.145465078234068, -10.298466080203015 ], [ -65.145195583648828, -10.29846608020301 ], [ -65.145195583648828, -10.298735574788257 ], [ -65.144926089063588, -10.298735574788248 ], [ -65.144926089063588, -10.299813553129198 ], [ -65.145195583648828, -10.299813553129193 ], [ -65.145195583648828, -10.300352542299663 ], [ -65.145465078234068, -10.300352542299663 ], [ -65.145465078234068, -10.300622036884905 ], [ -65.145734572819308, -10.300622036884899 ], [ -65.145734572819308, -10.301161026055373 ], [ -65.146004067404533, -10.301161026055379 ], [ -65.146004067404533, -10.301430520640613 ], [ -65.145734572819308, -10.301430520640615 ], [ -65.145734572819308, -10.301700015225844 ], [ -65.145465078234068, -10.301700015225849 ], [ -65.145465078234068, -10.302777993566798 ], [ -65.145734572819308, -10.302777993566787 ], [ -65.145734572819308, -10.303316982737252 ], [ -65.146004067404533, -10.303316982737263 ], [ -65.146004067404533, -10.304394961078208 ], [ -65.146273561989773, -10.304394961078213 ], [ -65.146273561989773, -10.304664455663447 ], [ -65.146543056575013, -10.304664455663447 ], [ -65.146543056575013, -10.304933950248673 ], [ -65.146812551160238, -10.304933950248676 ], [ -65.146812551160238, -10.305203444833918 ], [ -65.147082045745478, -10.305203444833914 ], [ -65.147082045745478, -10.305472939419149 ], [ -65.147890529501183, -10.305472939419152 ], [ -65.147890529501183, -10.306011928589619 ], [ -65.148429518671662, -10.306011928589617 ], [ -65.148429518671662, -10.305742434004383 ], [ -65.148699013256902, -10.305742434004387 ], [ -65.148699013256902, -10.30547293941915 ], [ -65.150315980768312, -10.305472939419156 ], [ -65.150315980768312, -10.30628142317485 ], [ -65.150854969938777, -10.306281423174863 ], [ -65.150854969938777, -10.30655091776009 ], [ -65.151393959109257, -10.306550917760095 ], [ -65.151393959109257, -10.307089906930555 ], [ -65.151932948279722, -10.307089906930562 ], [ -65.151932948279722, -10.307359401515805 ], [ -65.152471937450201, -10.307359401515795 ], [ -65.152471937450201, -10.307628896101029 ], [ -65.152741432035427, -10.307628896101038 ], [ -65.152741432035427, -10.308706874441969 ], [ -65.152471937450201, -10.308706874441983 ], [ -65.152471937450201, -10.310054347368157 ], [ -65.152741432035427, -10.310054347368162 ], [ -65.152741432035427, -10.310323841953387 ], [ -65.153010926620667, -10.310323841953386 ], [ -65.153010926620667, -10.310593336538622 ], [ -65.153549915791146, -10.310593336538632 ], [ -65.153549915791146, -10.310862831123869 ], [ -65.154088904961611, -10.310862831123867 ], [ -65.154088904961611, -10.311132325709096 ], [ -65.154358399546851, -10.311132325709101 ], [ -65.154358399546851, -10.311401820294348 ], [ -65.154897388717316, -10.311401820294346 ], [ -65.154897388717316, -10.31167131487957 ], [ -65.155436377887796, -10.311671314879581 ], [ -65.155436377887796, -10.31194080946481 ], [ -65.155975367058261, -10.311940809464806 ], [ -65.155975367058261, -10.312210304050037 ], [ -65.156244861643501, -10.312210304050049 ], [ -65.156244861643501, -10.312479798635271 ], [ -65.15651435622874, -10.31247979863528 ], [ -65.15651435622874, -10.312749293220509 ], [ -65.156783850813966, -10.312749293220515 ], [ -65.156783850813966, -10.310862831123876 ], [ -65.15651435622874, -10.310862831123874 ], [ -65.15651435622874, -10.311132325709107 ], [ -65.156244861643501, -10.311132325709112 ], [ -65.156244861643501, -10.310593336538634 ], [ -65.155705872473021, -10.310593336538622 ], [ -65.155705872473021, -10.310054347368155 ], [ -65.155436377887796, -10.310054347368155 ], [ -65.155436377887796, -10.309245863612443 ], [ -65.155166883302556, -10.309245863612444 ], [ -65.155166883302556, -10.308706874441977 ], [ -65.154897388717316, -10.308706874441985 ], [ -65.154897388717316, -10.308167885271498 ], [ -65.154627894132091, -10.308167885271503 ], [ -65.154627894132091, -10.307628896101031 ], [ -65.154358399546851, -10.307628896101034 ], [ -65.154358399546851, -10.307359401515795 ], [ -65.154088904961611, -10.307359401515798 ], [ -65.154088904961611, -10.307089906930559 ], [ -65.153549915791146, -10.307089906930567 ], [ -65.153549915791146, -10.306820412345333 ], [ -65.153280421205906, -10.306820412345328 ], [ -65.153280421205906, -10.307089906930567 ], [ -65.153010926620667, -10.307089906930571 ], [ -65.153010926620667, -10.306820412345324 ], [ -65.152741432035427, -10.306820412345333 ], [ -65.152741432035427, -10.306550917760099 ], [ -65.152471937450201, -10.306550917760088 ], [ -65.152471937450201, -10.306281423174848 ], [ -65.152202442864962, -10.306281423174852 ], [ -65.152202442864962, -10.306011928589623 ], [ -65.151932948279722, -10.306011928589625 ], [ -65.151932948279722, -10.305742434004385 ], [ -65.151663453694496, -10.30574243400439 ], [ -65.151663453694496, -10.305472939419145 ], [ -65.151124464524017, -10.30547293941915 ], [ -65.151124464524017, -10.305203444833912 ], [ -65.150854969938777, -10.305203444833911 ], [ -65.150854969938777, -10.304933950248685 ], [ -65.150585475353552, -10.304933950248673 ], [ -65.150585475353552, -10.304664455663433 ], [ -65.150046486183072, -10.304664455663444 ], [ -65.150046486183072, -10.304394961078204 ], [ -65.149507497012607, -10.304394961078216 ], [ -65.149507497012607, -10.30385597190773 ], [ -65.149238002427367, -10.303855971907737 ], [ -65.149238002427367, -10.303586477322501 ], [ -65.148968507842127, -10.303586477322495 ], [ -65.148968507842127, -10.302508498981547 ], [ -65.149238002427367, -10.30250849898156 ], [ -65.149238002427367, -10.302239004396327 ], [ -65.149507497012607, -10.302239004396318 ], [ -65.149507497012607, -10.301969509811084 ], [ -65.150585475353552, -10.301969509811087 ], [ -65.150585475353552, -10.302239004396316 ], [ -65.150854969938777, -10.302239004396316 ], [ -65.150854969938777, -10.302508498981547 ], [ -65.151124464524017, -10.302508498981556 ], [ -65.151124464524017, -10.302777993566785 ], [ -65.151663453694496, -10.302777993566794 ], [ -65.151663453694496, -10.303047488152025 ], [ -65.152471937450201, -10.303047488152021 ], [ -65.152471937450201, -10.303316982737259 ], [ -65.153010926620667, -10.303316982737256 ], [ -65.153010926620667, -10.303586477322494 ], [ -65.153280421205906, -10.303586477322497 ], [ -65.153280421205906, -10.303316982737268 ], [ -65.153819410376371, -10.303316982737268 ], [ -65.153819410376371, -10.303047488152025 ], [ -65.154358399546851, -10.303047488152028 ], [ -65.154358399546851, -10.302777993566798 ], [ -65.155436377887796, -10.302777993566782 ], [ -65.155436377887796, -10.302239004396323 ], [ -65.155705872473021, -10.302239004396329 ], [ -65.155705872473021, -10.301969509811089 ], [ -65.155436377887796, -10.301969509811075 ], [ -65.155436377887796, -10.301700015225856 ], [ -65.155705872473021, -10.301700015225844 ], [ -65.155705872473021, -10.301430520640606 ], [ -65.155975367058261, -10.301430520640602 ], [ -65.155975367058261, -10.301161026055372 ], [ -65.156244861643501, -10.301161026055372 ], [ -65.156244861643501, -10.300622036884903 ], [ -65.15651435622874, -10.300622036884908 ], [ -65.15651435622874, -10.300083047714432 ], [ -65.156783850813966, -10.300083047714431 ], [ -65.156783850813966, -10.299544058543969 ], [ -65.157053345399206, -10.299544058543963 ], [ -65.157053345399206, -10.299274563958731 ], [ -65.157322839984445, -10.299274563958726 ], [ -65.157322839984445, -10.299005069373496 ], [ -65.157861829154911, -10.299005069373482 ], [ -65.157861829154911, -10.298735574788251 ], [ -65.15813132374015, -10.298735574788248 ], [ -65.15813132374015, -10.299005069373486 ], [ -65.158670312910616, -10.299005069373495 ], [ -65.158670312910616, -10.299274563958731 ], [ -65.158939807495855, -10.299274563958724 ], [ -65.158939807495855, -10.299005069373496 ], [ -65.159209302081095, -10.29900506937348 ], [ -65.159209302081095, -10.297388101862078 ], [ -65.158939807495855, -10.297388101862074 ], [ -65.158939807495855, -10.297657596447316 ], [ -65.158670312910616, -10.297657596447317 ], [ -65.158670312910616, -10.297927091032538 ], [ -65.15840081832539, -10.297927091032552 ], [ -65.15840081832539, -10.29819658561777 ], [ -65.157861829154911, -10.298196585617774 ], [ -65.157861829154911, -10.297927091032552 ], [ -65.15813132374015, -10.297927091032539 ], [ -65.15813132374015, -10.297388101862067 ], [ -65.157861829154911, -10.297388101862076 ], [ -65.157861829154911, -10.296040628935899 ], [ -65.15813132374015, -10.296040628935891 ], [ -65.15813132374015, -10.294962650594954 ], [ -65.158670312910616, -10.294962650594954 ], [ -65.158670312910616, -10.29442366142448 ], [ -65.159209302081095, -10.294423661424485 ], [ -65.159209302081095, -10.294154166839242 ] ], [ [ -65.157861829154911, -10.297657596447307 ], [ -65.157592334569685, -10.297657596447301 ], [ -65.157592334569685, -10.297388101862067 ], [ -65.157861829154911, -10.297388101862076 ], [ -65.157861829154911, -10.297657596447307 ] ] ], [ [ [ -65.151124464524017, -10.297388101862079 ], [ -65.151124464524017, -10.2976575964473 ], [ -65.151393959109257, -10.29765759644731 ], [ -65.151393959109257, -10.297927091032539 ], [ -65.151932948279722, -10.29792709103255 ], [ -65.151932948279722, -10.298196585617783 ], [ -65.152202442864962, -10.298196585617781 ], [ -65.152202442864962, -10.297927091032552 ], [ -65.152741432035427, -10.297927091032538 ], [ -65.152741432035427, -10.29765759644731 ], [ -65.153010926620667, -10.297657596447312 ], [ -65.153010926620667, -10.297118607276829 ], [ -65.153280421205906, -10.297118607276847 ], [ -65.153280421205906, -10.296310123521133 ], [ -65.153010926620667, -10.296310123521135 ], [ -65.153010926620667, -10.296040628935895 ], [ -65.152741432035427, -10.296040628935904 ], [ -65.152741432035427, -10.295771134350652 ], [ -65.151663453694496, -10.295771134350659 ], [ -65.151663453694496, -10.296310123521128 ], [ -65.151932948279722, -10.296310123521124 ], [ -65.151932948279722, -10.296849112691607 ], [ -65.151663453694496, -10.296849112691605 ], [ -65.151663453694496, -10.297388101862078 ], [ -65.151124464524017, -10.297388101862079 ] ] ], [ [ [ -65.152202442864962, -10.293076188498299 ], [ -65.151932948279722, -10.293076188498294 ], [ -65.151932948279722, -10.293345683083542 ], [ -65.151663453694496, -10.293345683083535 ], [ -65.151663453694496, -10.293615177668777 ], [ -65.151393959109257, -10.293615177668768 ], [ -65.151393959109257, -10.293884672254016 ], [ -65.152202442864962, -10.293884672254013 ], [ -65.152202442864962, -10.29415416683924 ], [ -65.152471937450201, -10.29415416683924 ], [ -65.152471937450201, -10.294423661424471 ], [ -65.152741432035427, -10.294423661424476 ], [ -65.152741432035427, -10.294693156009718 ], [ -65.153280421205906, -10.294693156009727 ], [ -65.153280421205906, -10.293884672254 ], [ -65.153549915791146, -10.293884672254004 ], [ -65.153549915791146, -10.29361517766878 ], [ -65.153819410376371, -10.29361517766878 ], [ -65.153819410376371, -10.293076188498304 ], [ -65.153549915791146, -10.293076188498295 ], [ -65.153549915791146, -10.292806693913063 ], [ -65.153280421205906, -10.292806693913061 ], [ -65.153280421205906, -10.292267704742599 ], [ -65.153010926620667, -10.292267704742587 ], [ -65.153010926620667, -10.292537199327825 ], [ -65.152471937450201, -10.292537199327835 ], [ -65.152471937450201, -10.292806693913061 ], [ -65.152202442864962, -10.292806693913066 ], [ -65.152202442864962, -10.293076188498299 ] ] ], [ [ [ -65.153280421205906, -10.292267704742599 ], [ -65.153819410376371, -10.292267704742601 ], [ -65.153819410376371, -10.291998210157361 ], [ -65.153280421205906, -10.291998210157352 ], [ -65.153280421205906, -10.292267704742599 ] ] ], [ [ [ -65.155436377887796, -10.291728715572118 ], [ -65.154897388717316, -10.291728715572113 ], [ -65.154897388717316, -10.291459220986889 ], [ -65.154627894132091, -10.291459220986885 ], [ -65.154627894132091, -10.291728715572123 ], [ -65.153819410376371, -10.291728715572123 ], [ -65.153819410376371, -10.291998210157361 ], [ -65.155436377887796, -10.291998210157365 ], [ -65.155436377887796, -10.291728715572118 ] ] ], [ [ [ -65.154897388717316, -10.287686296793586 ], [ -65.154897388717316, -10.28795579137882 ], [ -65.154627894132091, -10.28795579137882 ], [ -65.154627894132091, -10.288494780549293 ], [ -65.154358399546851, -10.288494780549296 ], [ -65.154358399546851, -10.289033769719763 ], [ -65.154897388717316, -10.289033769719753 ], [ -65.154897388717316, -10.289303264304994 ], [ -65.155705872473021, -10.289303264305005 ], [ -65.155705872473021, -10.289572758890237 ], [ -65.156244861643501, -10.289572758890234 ], [ -65.156244861643501, -10.289842253475474 ], [ -65.15651435622874, -10.289842253475465 ], [ -65.15651435622874, -10.289572758890245 ], [ -65.156783850813966, -10.289572758890232 ], [ -65.156783850813966, -10.28903376971976 ], [ -65.157053345399206, -10.28903376971976 ], [ -65.157053345399206, -10.288764275134533 ], [ -65.156783850813966, -10.288764275134518 ], [ -65.156783850813966, -10.287147307623119 ], [ -65.15651435622874, -10.287147307623114 ], [ -65.15651435622874, -10.286877813037872 ], [ -65.155975367058261, -10.286877813037879 ], [ -65.155975367058261, -10.287147307623112 ], [ -65.155436377887796, -10.28714730762311 ], [ -65.155436377887796, -10.28741680220835 ], [ -65.155166883302556, -10.287416802208355 ], [ -65.155166883302556, -10.287686296793584 ], [ -65.154897388717316, -10.287686296793586 ] ] ], [ [ [ -65.133068327313211, -10.308976369027205 ], [ -65.133068327313211, -10.308706874441974 ], [ -65.132798832727985, -10.308706874441985 ], [ -65.132798832727985, -10.308437379856748 ], [ -65.133068327313211, -10.308437379856745 ], [ -65.133068327313211, -10.308167885271509 ], [ -65.132529338142746, -10.308167885271514 ], [ -65.132529338142746, -10.308976369027217 ], [ -65.132798832727985, -10.308976369027212 ], [ -65.132798832727985, -10.309784852782919 ], [ -65.132529338142746, -10.30978485278292 ], [ -65.132529338142746, -10.309515358197681 ], [ -65.131990348972266, -10.309515358197686 ], [ -65.131990348972266, -10.309245863612448 ], [ -65.130103886875617, -10.309245863612448 ], [ -65.130103886875617, -10.309784852782913 ], [ -65.129834392290391, -10.309784852782927 ], [ -65.129834392290391, -10.310593336538625 ], [ -65.130103886875617, -10.310593336538631 ], [ -65.130103886875617, -10.311401820294336 ], [ -65.129834392290391, -10.311401820294346 ], [ -65.129834392290391, -10.311940809464813 ], [ -65.129295403119912, -10.31194080946481 ], [ -65.129295403119912, -10.312479798635282 ], [ -65.128756413949446, -10.312479798635284 ], [ -65.128756413949446, -10.312749293220515 ], [ -65.127139446438022, -10.312749293220515 ], [ -65.127139446438022, -10.312479798635275 ], [ -65.126869951852797, -10.312479798635286 ], [ -65.126869951852797, -10.313018787805746 ], [ -65.127139446438022, -10.313018787805749 ], [ -65.127139446438022, -10.313288282390991 ], [ -65.127408941023262, -10.31328828239098 ], [ -65.127408941023262, -10.313557776976227 ], [ -65.127678435608502, -10.313557776976221 ], [ -65.127678435608502, -10.314096766146688 ], [ -65.127947930193727, -10.314096766146701 ], [ -65.127947930193727, -10.314366260731928 ], [ -65.128217424778967, -10.314366260731935 ], [ -65.128217424778967, -10.314635755317171 ], [ -65.128486919364207, -10.314635755317166 ], [ -65.128486919364207, -10.314905249902404 ], [ -65.129295403119912, -10.314905249902408 ], [ -65.129295403119912, -10.314635755317175 ], [ -65.129564897705151, -10.31463575531717 ], [ -65.129564897705151, -10.314366260731939 ], [ -65.130103886875617, -10.314366260731942 ], [ -65.130103886875617, -10.314096766146701 ], [ -65.130912370631336, -10.314096766146706 ], [ -65.130912370631336, -10.313827271561465 ], [ -65.131720854387041, -10.313827271561456 ], [ -65.131720854387041, -10.313288282390983 ], [ -65.131990348972266, -10.313288282390992 ], [ -65.131990348972266, -10.312749293220522 ], [ -65.132259843557506, -10.31274929322052 ], [ -65.132259843557506, -10.312210304050042 ], [ -65.132529338142746, -10.312210304050042 ], [ -65.132529338142746, -10.311671314879568 ], [ -65.132259843557506, -10.311671314879575 ], [ -65.132259843557506, -10.310862831123861 ], [ -65.131990348972266, -10.310862831123874 ], [ -65.131990348972266, -10.310593336538632 ], [ -65.132798832727985, -10.310593336538629 ], [ -65.132798832727985, -10.310862831123874 ], [ -65.133068327313211, -10.310862831123858 ], [ -65.133068327313211, -10.311132325709098 ], [ -65.13360731648369, -10.311132325709094 ], [ -65.13360731648369, -10.311401820294344 ], [ -65.134685294824635, -10.31140182029433 ], [ -65.134685294824635, -10.31113232570911 ], [ -65.134954789409861, -10.311132325709094 ], [ -65.134954789409861, -10.311671314879566 ], [ -65.1352242839951, -10.311671314879581 ], [ -65.1352242839951, -10.311940809464808 ], [ -65.13549377858034, -10.311940809464808 ], [ -65.13549377858034, -10.312210304050051 ], [ -65.136302262336045, -10.312210304050039 ], [ -65.136302262336045, -10.312479798635277 ], [ -65.13711074609175, -10.312479798635284 ], [ -65.13711074609175, -10.312749293220518 ], [ -65.138188724432695, -10.312749293220511 ], [ -65.138188724432695, -10.312479798635277 ], [ -65.138458219017934, -10.312479798635275 ], [ -65.138458219017934, -10.311940809464803 ], [ -65.13711074609175, -10.311940809464817 ], [ -65.13711074609175, -10.31167131487957 ], [ -65.136571756921285, -10.311671314879563 ], [ -65.136571756921285, -10.311401820294341 ], [ -65.13576327316558, -10.311401820294343 ], [ -65.13576327316558, -10.310054347368153 ], [ -65.13549377858034, -10.310054347368165 ], [ -65.13549377858034, -10.308976369027215 ], [ -65.13576327316558, -10.308976369027208 ], [ -65.13576327316558, -10.308706874441985 ], [ -65.13549377858034, -10.308706874441981 ], [ -65.13549377858034, -10.308167885271503 ], [ -65.1352242839951, -10.308167885271512 ], [ -65.1352242839951, -10.307898390686267 ], [ -65.134954789409861, -10.307898390686276 ], [ -65.134954789409861, -10.307628896101033 ], [ -65.134685294824635, -10.307628896101029 ], [ -65.134685294824635, -10.307359401515795 ], [ -65.134415800239395, -10.307359401515795 ], [ -65.134415800239395, -10.307089906930555 ], [ -65.13360731648369, -10.307089906930564 ], [ -65.13360731648369, -10.307898390686264 ], [ -65.13387681106893, -10.307898390686276 ], [ -65.13387681106893, -10.30870687444197 ], [ -65.134146305654156, -10.308706874441981 ], [ -65.134146305654156, -10.308976369027215 ], [ -65.133068327313211, -10.308976369027205 ] ], [ [ -65.130912370631336, -10.313018787805747 ], [ -65.131451359801801, -10.313018787805749 ], [ -65.131451359801801, -10.313557776976229 ], [ -65.130912370631336, -10.313557776976221 ], [ -65.130912370631336, -10.313018787805747 ] ] ], [ [ [ -65.146812551160238, -10.30816788527151 ], [ -65.147082045745478, -10.308167885271507 ], [ -65.147082045745478, -10.308706874441981 ], [ -65.147351540330718, -10.308706874441988 ], [ -65.147351540330718, -10.308976369027215 ], [ -65.147082045745478, -10.308976369027205 ], [ -65.147082045745478, -10.30924586361245 ], [ -65.147351540330718, -10.309245863612448 ], [ -65.147351540330718, -10.310054347368165 ], [ -65.147082045745478, -10.310054347368155 ], [ -65.147082045745478, -10.310323841953398 ], [ -65.146543056575013, -10.310323841953387 ], [ -65.146543056575013, -10.310054347368155 ], [ -65.146004067404533, -10.310054347368158 ], [ -65.146004067404533, -10.309784852782927 ], [ -65.146273561989773, -10.309784852782924 ], [ -65.146273561989773, -10.309515358197684 ], [ -65.146004067404533, -10.309515358197677 ], [ -65.146004067404533, -10.308976369027208 ], [ -65.146543056575013, -10.308976369027221 ], [ -65.146543056575013, -10.307628896101034 ], [ -65.146273561989773, -10.307628896101042 ], [ -65.146273561989773, -10.308167885271514 ], [ -65.146004067404533, -10.308167885271503 ], [ -65.146004067404533, -10.308437379856736 ], [ -65.145734572819308, -10.308437379856747 ], [ -65.145734572819308, -10.308167885271512 ], [ -65.145465078234068, -10.308167885271507 ], [ -65.145465078234068, -10.307898390686276 ], [ -65.145195583648828, -10.307898390686265 ], [ -65.145195583648828, -10.307359401515802 ], [ -65.144926089063588, -10.307359401515795 ], [ -65.144926089063588, -10.307089906930562 ], [ -65.144656594478363, -10.30708990693056 ], [ -65.144656594478363, -10.306820412345319 ], [ -65.144117605307883, -10.30682041234533 ], [ -65.144117605307883, -10.307089906930564 ], [ -65.144387099893123, -10.307089906930569 ], [ -65.144387099893123, -10.307359401515804 ], [ -65.144656594478363, -10.307359401515804 ], [ -65.144656594478363, -10.307628896101034 ], [ -65.144926089063588, -10.307628896101024 ], [ -65.144926089063588, -10.308437379856739 ], [ -65.145195583648828, -10.308437379856739 ], [ -65.145195583648828, -10.31005434736816 ], [ -65.145465078234068, -10.310054347368162 ], [ -65.145465078234068, -10.310593336538631 ], [ -65.145734572819308, -10.31059333653862 ], [ -65.145734572819308, -10.310862831123861 ], [ -65.146273561989773, -10.310862831123858 ], [ -65.146273561989773, -10.311132325709098 ], [ -65.146543056575013, -10.311132325709107 ], [ -65.146543056575013, -10.311401820294332 ], [ -65.147082045745478, -10.311401820294344 ], [ -65.147082045745478, -10.311671314879568 ], [ -65.148968507842127, -10.311671314879566 ], [ -65.148968507842127, -10.311940809464812 ], [ -65.149238002427367, -10.311940809464812 ], [ -65.149238002427367, -10.31247979863528 ], [ -65.149776991597832, -10.31247979863528 ], [ -65.149776991597832, -10.311671314879568 ], [ -65.150046486183072, -10.31167131487957 ], [ -65.150046486183072, -10.31140182029433 ], [ -65.150585475353552, -10.31140182029433 ], [ -65.150585475353552, -10.310862831123869 ], [ -65.151124464524017, -10.310862831123861 ], [ -65.151124464524017, -10.310593336538632 ], [ -65.151393959109257, -10.310593336538629 ], [ -65.151393959109257, -10.310862831123865 ], [ -65.151932948279722, -10.310862831123861 ], [ -65.151932948279722, -10.311401820294337 ], [ -65.152202442864962, -10.311401820294341 ], [ -65.152202442864962, -10.311671314879575 ], [ -65.153010926620667, -10.311671314879572 ], [ -65.153010926620667, -10.311132325709099 ], [ -65.152741432035427, -10.31113232570911 ], [ -65.152741432035427, -10.310862831123861 ], [ -65.152471937450201, -10.310862831123865 ], [ -65.152471937450201, -10.310593336538636 ], [ -65.152202442864962, -10.310593336538631 ], [ -65.152202442864962, -10.310323841953402 ], [ -65.151932948279722, -10.310323841953396 ], [ -65.151932948279722, -10.310054347368165 ], [ -65.151663453694496, -10.310054347368157 ], [ -65.151663453694496, -10.309784852782924 ], [ -65.151393959109257, -10.309784852782924 ], [ -65.151393959109257, -10.309515358197693 ], [ -65.149776991597832, -10.309515358197693 ], [ -65.149776991597832, -10.309784852782919 ], [ -65.148968507842127, -10.309784852782926 ], [ -65.148968507842127, -10.309515358197693 ], [ -65.148429518671662, -10.309515358197691 ], [ -65.148429518671662, -10.309245863612443 ], [ -65.148160024086422, -10.309245863612448 ], [ -65.148160024086422, -10.308976369027221 ], [ -65.147890529501183, -10.30897636902721 ], [ -65.147890529501183, -10.308167885271516 ], [ -65.148160024086422, -10.308167885271502 ], [ -65.148160024086422, -10.307898390686278 ], [ -65.147890529501183, -10.307898390686276 ], [ -65.147890529501183, -10.307359401515793 ], [ -65.147621034915957, -10.3073594015158 ], [ -65.147621034915957, -10.307089906930567 ], [ -65.147351540330718, -10.307089906930551 ], [ -65.147351540330718, -10.306820412345335 ], [ -65.147082045745478, -10.306820412345331 ], [ -65.147082045745478, -10.307089906930562 ], [ -65.146543056575013, -10.307089906930555 ], [ -65.146543056575013, -10.307359401515798 ], [ -65.146812551160238, -10.307359401515807 ], [ -65.146812551160238, -10.30816788527151 ] ] ], [ [ [ -65.141961648625994, -10.307089906930566 ], [ -65.141961648625994, -10.307359401515789 ], [ -65.141692154040769, -10.307359401515802 ], [ -65.141692154040769, -10.307628896101029 ], [ -65.141422659455529, -10.30762889610104 ], [ -65.141422659455529, -10.308706874441986 ], [ -65.141692154040769, -10.308706874441976 ], [ -65.141692154040769, -10.309245863612446 ], [ -65.141153164870289, -10.30924586361245 ], [ -65.141153164870289, -10.309515358197689 ], [ -65.142231143211234, -10.309515358197695 ], [ -65.142231143211234, -10.309784852782924 ], [ -65.142500637796473, -10.309784852782927 ], [ -65.142500637796473, -10.31005434736816 ], [ -65.142770132381713, -10.310054347368164 ], [ -65.142770132381713, -10.31086283112386 ], [ -65.143039626966939, -10.310862831123865 ], [ -65.143039626966939, -10.311132325709108 ], [ -65.143578616137418, -10.311132325709112 ], [ -65.143578616137418, -10.310593336538634 ], [ -65.143309121552178, -10.310593336538636 ], [ -65.143309121552178, -10.308167885271512 ], [ -65.142770132381713, -10.3081678852715 ], [ -65.142770132381713, -10.308437379856741 ], [ -65.142500637796473, -10.308437379856743 ], [ -65.142500637796473, -10.307898390686274 ], [ -65.143039626966939, -10.307898390686274 ], [ -65.143039626966939, -10.307359401515798 ], [ -65.143578616137418, -10.307359401515802 ], [ -65.143578616137418, -10.306820412345331 ], [ -65.144117605307883, -10.30682041234533 ], [ -65.144117605307883, -10.306550917760097 ], [ -65.143578616137418, -10.306550917760092 ], [ -65.143578616137418, -10.306011928589623 ], [ -65.142770132381713, -10.306011928589628 ], [ -65.142770132381713, -10.306281423174852 ], [ -65.142500637796473, -10.306281423174854 ], [ -65.142500637796473, -10.306820412345321 ], [ -65.142231143211234, -10.306820412345322 ], [ -65.142231143211234, -10.307089906930571 ], [ -65.141961648625994, -10.307089906930566 ] ] ], [ [ [ -65.139536197358879, -10.305742434004387 ], [ -65.139536197358879, -10.306011928589623 ], [ -65.139266702773639, -10.306011928589619 ], [ -65.139266702773639, -10.30628142317485 ], [ -65.1389972081884, -10.306281423174847 ], [ -65.1389972081884, -10.306550917760099 ], [ -65.138727713603174, -10.3065509177601 ], [ -65.138727713603174, -10.306820412345326 ], [ -65.138458219017934, -10.306820412345321 ], [ -65.138458219017934, -10.307089906930564 ], [ -65.138188724432695, -10.307089906930559 ], [ -65.138188724432695, -10.307359401515798 ], [ -65.137919229847455, -10.307359401515797 ], [ -65.137919229847455, -10.307898390686269 ], [ -65.138188724432695, -10.307898390686272 ], [ -65.138188724432695, -10.308706874441976 ], [ -65.138458219017934, -10.308706874441985 ], [ -65.138458219017934, -10.308976369027221 ], [ -65.137919229847455, -10.308976369027215 ], [ -65.137919229847455, -10.309245863612453 ], [ -65.13738024067699, -10.309245863612443 ], [ -65.13738024067699, -10.309515358197691 ], [ -65.136841251506524, -10.309515358197679 ], [ -65.136841251506524, -10.310054347368153 ], [ -65.13738024067699, -10.310054347368165 ], [ -65.13738024067699, -10.310323841953387 ], [ -65.137649735262229, -10.310323841953386 ], [ -65.137649735262229, -10.310054347368157 ], [ -65.137919229847455, -10.310054347368153 ], [ -65.137919229847455, -10.3103238419534 ], [ -65.138188724432695, -10.310323841953389 ], [ -65.138188724432695, -10.310054347368149 ], [ -65.138458219017934, -10.310054347368151 ], [ -65.138458219017934, -10.309784852782919 ], [ -65.138727713603174, -10.309784852782922 ], [ -65.138727713603174, -10.309515358197693 ], [ -65.138458219017934, -10.309515358197688 ], [ -65.138458219017934, -10.309245863612455 ], [ -65.1389972081884, -10.309245863612448 ], [ -65.1389972081884, -10.308706874441981 ], [ -65.139805691944119, -10.308706874441981 ], [ -65.139805691944119, -10.308437379856741 ], [ -65.140075186529344, -10.308437379856739 ], [ -65.140075186529344, -10.308167885271512 ], [ -65.139805691944119, -10.308167885271498 ], [ -65.139805691944119, -10.307898390686274 ], [ -65.140075186529344, -10.307898390686264 ], [ -65.140075186529344, -10.306820412345322 ], [ -65.140344681114584, -10.306820412345321 ], [ -65.140344681114584, -10.306550917760095 ], [ -65.141422659455529, -10.306550917760088 ], [ -65.141422659455529, -10.306281423174864 ], [ -65.141692154040769, -10.306281423174859 ], [ -65.141692154040769, -10.306011928589619 ], [ -65.141961648625994, -10.306011928589625 ], [ -65.141961648625994, -10.305742434004387 ], [ -65.142231143211234, -10.305742434004387 ], [ -65.142231143211234, -10.305472939419147 ], [ -65.141692154040769, -10.305472939419156 ], [ -65.141692154040769, -10.305203444833921 ], [ -65.141422659455529, -10.30520344483392 ], [ -65.141422659455529, -10.304933950248671 ], [ -65.141153164870289, -10.304933950248676 ], [ -65.141153164870289, -10.30520344483392 ], [ -65.140614175699824, -10.305203444833916 ], [ -65.140614175699824, -10.305472939419145 ], [ -65.139805691944119, -10.305472939419143 ], [ -65.139805691944119, -10.305742434004381 ], [ -65.139536197358879, -10.305742434004387 ] ] ], [ [ [ -65.13549377858034, -10.300622036884905 ], [ -65.134954789409861, -10.300622036884899 ], [ -65.134954789409861, -10.300891531470135 ], [ -65.134415800239395, -10.300891531470143 ], [ -65.134415800239395, -10.301161026055381 ], [ -65.13387681106893, -10.301161026055375 ], [ -65.13387681106893, -10.300891531470141 ], [ -65.133068327313211, -10.300891531470135 ], [ -65.133068327313211, -10.302239004396311 ], [ -65.132798832727985, -10.302239004396315 ], [ -65.132798832727985, -10.302508498981558 ], [ -65.132529338142746, -10.302508498981561 ], [ -65.132529338142746, -10.303047488152027 ], [ -65.133068327313211, -10.303047488152021 ], [ -65.133068327313211, -10.302777993566789 ], [ -65.13360731648369, -10.302777993566782 ], [ -65.13360731648369, -10.302508498981556 ], [ -65.13387681106893, -10.302508498981547 ], [ -65.13387681106893, -10.302239004396323 ], [ -65.134146305654156, -10.302239004396322 ], [ -65.134146305654156, -10.301969509811089 ], [ -65.134685294824635, -10.301969509811091 ], [ -65.134685294824635, -10.301700015225844 ], [ -65.1352242839951, -10.301700015225844 ], [ -65.1352242839951, -10.301430520640608 ], [ -65.136032767750805, -10.301430520640606 ], [ -65.136032767750805, -10.302777993566787 ], [ -65.136302262336045, -10.302777993566787 ], [ -65.136302262336045, -10.303047488152036 ], [ -65.136032767750805, -10.303047488152023 ], [ -65.136032767750805, -10.303316982737257 ], [ -65.134954789409861, -10.303316982737259 ], [ -65.134954789409861, -10.303586477322504 ], [ -65.134685294824635, -10.303586477322506 ], [ -65.134685294824635, -10.30385597190773 ], [ -65.134146305654156, -10.303855971907735 ], [ -65.134146305654156, -10.30466445566344 ], [ -65.134415800239395, -10.304664455663453 ], [ -65.134415800239395, -10.305472939419159 ], [ -65.134954789409861, -10.305472939419156 ], [ -65.134954789409861, -10.306011928589617 ], [ -65.13576327316558, -10.306011928589625 ], [ -65.13576327316558, -10.306281423174859 ], [ -65.136571756921285, -10.306281423174859 ], [ -65.136571756921285, -10.3065509177601 ], [ -65.13738024067699, -10.306550917760092 ], [ -65.13738024067699, -10.305472939419156 ], [ -65.13711074609175, -10.305472939419156 ], [ -65.13711074609175, -10.305203444833907 ], [ -65.136571756921285, -10.305203444833914 ], [ -65.136571756921285, -10.304933950248683 ], [ -65.136302262336045, -10.304933950248676 ], [ -65.136302262336045, -10.304664455663431 ], [ -65.136571756921285, -10.304664455663433 ], [ -65.136571756921285, -10.304394961078202 ], [ -65.136841251506524, -10.3043949610782 ], [ -65.136841251506524, -10.304125466492966 ], [ -65.13711074609175, -10.30412546649297 ], [ -65.13711074609175, -10.303586477322504 ], [ -65.137649735262229, -10.303586477322494 ], [ -65.137649735262229, -10.303316982737252 ], [ -65.138188724432695, -10.303316982737263 ], [ -65.138188724432695, -10.303047488152023 ], [ -65.138458219017934, -10.303047488152034 ], [ -65.138458219017934, -10.302777993566789 ], [ -65.138727713603174, -10.302777993566783 ], [ -65.138727713603174, -10.302239004396313 ], [ -65.138458219017934, -10.302239004396327 ], [ -65.138458219017934, -10.301969509811087 ], [ -65.138188724432695, -10.301969509811078 ], [ -65.138188724432695, -10.30170001522584 ], [ -65.137649735262229, -10.301700015225849 ], [ -65.137649735262229, -10.301430520640611 ], [ -65.13738024067699, -10.301430520640615 ], [ -65.13738024067699, -10.301161026055379 ], [ -65.13711074609175, -10.301161026055382 ], [ -65.13711074609175, -10.300891531470135 ], [ -65.136841251506524, -10.300891531470137 ], [ -65.136841251506524, -10.300622036884903 ], [ -65.136302262336045, -10.300622036884905 ], [ -65.136302262336045, -10.300352542299674 ], [ -65.136032767750805, -10.300352542299676 ], [ -65.136032767750805, -10.300622036884912 ], [ -65.13576327316558, -10.300622036884899 ], [ -65.13576327316558, -10.300352542299663 ], [ -65.13549377858034, -10.300352542299674 ], [ -65.13549377858034, -10.300622036884905 ] ] ], [ [ [ -65.132529338142746, -10.303316982737261 ], [ -65.132529338142746, -10.303047488152027 ], [ -65.132259843557506, -10.303047488152025 ], [ -65.132259843557506, -10.303316982737257 ], [ -65.132529338142746, -10.303316982737261 ] ] ], [ [ [ -65.133068327313211, -10.300891531470135 ], [ -65.133068327313211, -10.300352542299663 ], [ -65.132529338142746, -10.30035254229967 ], [ -65.132529338142746, -10.300891531470135 ], [ -65.133068327313211, -10.300891531470135 ] ] ], [ [ [ -65.13576327316558, -10.300083047714427 ], [ -65.136032767750805, -10.300083047714438 ], [ -65.136032767750805, -10.299813553129201 ], [ -65.136571756921285, -10.299813553129189 ], [ -65.136571756921285, -10.299544058543955 ], [ -65.136302262336045, -10.299544058543967 ], [ -65.136302262336045, -10.299274563958722 ], [ -65.136571756921285, -10.299274563958722 ], [ -65.136571756921285, -10.299005069373493 ], [ -65.136032767750805, -10.29900506937348 ], [ -65.136032767750805, -10.298735574788246 ], [ -65.13549377858034, -10.298735574788253 ], [ -65.13549377858034, -10.299274563958729 ], [ -65.1352242839951, -10.299274563958718 ], [ -65.1352242839951, -10.299544058543955 ], [ -65.13576327316558, -10.299544058543969 ], [ -65.13576327316558, -10.300083047714427 ] ] ], [ [ [ -65.133337821898451, -10.298466080203022 ], [ -65.133068327313211, -10.298466080203012 ], [ -65.133068327313211, -10.298735574788244 ], [ -65.132798832727985, -10.29873557478825 ], [ -65.132798832727985, -10.299005069373484 ], [ -65.132529338142746, -10.299005069373484 ], [ -65.132529338142746, -10.29927456395872 ], [ -65.132259843557506, -10.299274563958717 ], [ -65.132259843557506, -10.299544058543962 ], [ -65.133068327313211, -10.299544058543951 ], [ -65.133068327313211, -10.299274563958727 ], [ -65.13360731648369, -10.299274563958733 ], [ -65.13360731648369, -10.299005069373484 ], [ -65.13387681106893, -10.299005069373488 ], [ -65.13387681106893, -10.298466080203008 ], [ -65.134415800239395, -10.298466080203024 ], [ -65.134415800239395, -10.298196585617781 ], [ -65.13549377858034, -10.298196585617774 ], [ -65.13549377858034, -10.297927091032543 ], [ -65.134146305654156, -10.297927091032548 ], [ -65.134146305654156, -10.297657596447303 ], [ -65.13387681106893, -10.297657596447307 ], [ -65.13387681106893, -10.297927091032545 ], [ -65.13360731648369, -10.297927091032552 ], [ -65.13360731648369, -10.298196585617779 ], [ -65.133337821898451, -10.298196585617774 ], [ -65.133337821898451, -10.298466080203022 ] ] ], [ [ [ -65.144926089063588, -10.296849112691593 ], [ -65.144387099893123, -10.296849112691605 ], [ -65.144387099893123, -10.296579618106364 ], [ -65.144117605307883, -10.296579618106362 ], [ -65.144117605307883, -10.296849112691596 ], [ -65.143578616137418, -10.296849112691598 ], [ -65.143578616137418, -10.297118607276838 ], [ -65.144926089063588, -10.297118607276843 ], [ -65.144926089063588, -10.296849112691593 ] ] ], [ [ [ -65.136032767750805, -10.297657596447303 ], [ -65.136032767750805, -10.295771134350652 ], [ -65.13576327316558, -10.295771134350659 ], [ -65.13576327316558, -10.296040628935899 ], [ -65.13549377858034, -10.296040628935884 ], [ -65.13549377858034, -10.297927091032543 ], [ -65.13576327316558, -10.297927091032546 ], [ -65.13576327316558, -10.297657596447314 ], [ -65.136032767750805, -10.297657596447303 ] ] ], [ [ [ -65.151663453694496, -10.295771134350659 ], [ -65.151663453694496, -10.295501639765424 ], [ -65.151393959109257, -10.295501639765421 ], [ -65.151393959109257, -10.29577113435065 ], [ -65.151663453694496, -10.295771134350659 ] ] ], [ [ [ -65.141422659455529, -10.288225285964053 ], [ -65.141153164870289, -10.288225285964055 ], [ -65.141153164870289, -10.288494780549284 ], [ -65.140883670285049, -10.288494780549286 ], [ -65.140883670285049, -10.289303264305005 ], [ -65.141422659455529, -10.289303264304998 ], [ -65.141422659455529, -10.289572758890236 ], [ -65.141692154040769, -10.28957275889023 ], [ -65.141692154040769, -10.290111748060697 ], [ -65.141961648625994, -10.290111748060704 ], [ -65.141961648625994, -10.290920231816413 ], [ -65.141692154040769, -10.290920231816411 ], [ -65.141692154040769, -10.29172871557212 ], [ -65.141961648625994, -10.291728715572122 ], [ -65.141961648625994, -10.291998210157354 ], [ -65.143039626966939, -10.291998210157361 ], [ -65.143039626966939, -10.292267704742597 ], [ -65.143309121552178, -10.292267704742596 ], [ -65.143309121552178, -10.292806693913064 ], [ -65.143039626966939, -10.292806693913063 ], [ -65.143039626966939, -10.293076188498304 ], [ -65.142770132381713, -10.293076188498308 ], [ -65.142770132381713, -10.29334568308354 ], [ -65.142231143211234, -10.293345683083547 ], [ -65.142231143211234, -10.293884672254009 ], [ -65.143039626966939, -10.293884672254006 ], [ -65.143039626966939, -10.294154166839245 ], [ -65.144656594478363, -10.294154166839245 ], [ -65.144656594478363, -10.293884672254004 ], [ -65.144926089063588, -10.293884672254016 ], [ -65.144926089063588, -10.293615177668773 ], [ -65.145195583648828, -10.293615177668773 ], [ -65.145195583648828, -10.29280669391307 ], [ -65.144926089063588, -10.292806693913068 ], [ -65.144926089063588, -10.292537199327821 ], [ -65.145465078234068, -10.292537199327825 ], [ -65.145465078234068, -10.292267704742597 ], [ -65.146543056575013, -10.292267704742589 ], [ -65.146543056575013, -10.291998210157358 ], [ -65.146812551160238, -10.291998210157352 ], [ -65.146812551160238, -10.291728715572113 ], [ -65.146543056575013, -10.291728715572107 ], [ -65.146543056575013, -10.291189726401653 ], [ -65.146273561989773, -10.291189726401647 ], [ -65.146273561989773, -10.290920231816418 ], [ -65.146543056575013, -10.290920231816415 ], [ -65.146543056575013, -10.29065073723117 ], [ -65.146273561989773, -10.29065073723118 ], [ -65.146273561989773, -10.289842253475465 ], [ -65.146004067404533, -10.28984225347547 ], [ -65.146004067404533, -10.289303264305 ], [ -65.145734572819308, -10.289303264304994 ], [ -65.145734572819308, -10.288764275134517 ], [ -65.145465078234068, -10.288764275134522 ], [ -65.145465078234068, -10.288494780549291 ], [ -65.142770132381713, -10.288494780549296 ], [ -65.142770132381713, -10.28822528596405 ], [ -65.142500637796473, -10.28822528596405 ], [ -65.142500637796473, -10.287686296793588 ], [ -65.142231143211234, -10.287686296793586 ], [ -65.142231143211234, -10.287416802208343 ], [ -65.141961648625994, -10.287416802208352 ], [ -65.141961648625994, -10.287686296793581 ], [ -65.141692154040769, -10.28768629679359 ], [ -65.141692154040769, -10.287955791378826 ], [ -65.141422659455529, -10.287955791378819 ], [ -65.141422659455529, -10.288225285964053 ] ] ], [ [ [ -65.136302262336045, -10.286877813037881 ], [ -65.136302262336045, -10.287147307623105 ], [ -65.13576327316558, -10.287147307623108 ], [ -65.13576327316558, -10.287686296793584 ], [ -65.13549377858034, -10.287686296793575 ], [ -65.13549377858034, -10.289842253475468 ], [ -65.1352242839951, -10.289842253475481 ], [ -65.1352242839951, -10.29038124264595 ], [ -65.134954789409861, -10.290381242645944 ], [ -65.134954789409861, -10.291189726401647 ], [ -65.134685294824635, -10.291189726401655 ], [ -65.134685294824635, -10.291998210157356 ], [ -65.134954789409861, -10.291998210157365 ], [ -65.134954789409861, -10.292267704742589 ], [ -65.136032767750805, -10.292267704742597 ], [ -65.136032767750805, -10.292806693913057 ], [ -65.136841251506524, -10.292806693913066 ], [ -65.136841251506524, -10.293345683083544 ], [ -65.13711074609175, -10.293345683083533 ], [ -65.13711074609175, -10.293615177668775 ], [ -65.13738024067699, -10.293615177668766 ], [ -65.13738024067699, -10.293884672254009 ], [ -65.137919229847455, -10.293884672254006 ], [ -65.137919229847455, -10.293615177668773 ], [ -65.138188724432695, -10.293615177668775 ], [ -65.138188724432695, -10.293076188498308 ], [ -65.138727713603174, -10.293076188498301 ], [ -65.138727713603174, -10.293345683083542 ], [ -65.1389972081884, -10.293345683083535 ], [ -65.1389972081884, -10.293615177668764 ], [ -65.139536197358879, -10.293615177668778 ], [ -65.139536197358879, -10.293884672254013 ], [ -65.140075186529344, -10.293884672254004 ], [ -65.140075186529344, -10.294154166839244 ], [ -65.140344681114584, -10.294154166839238 ], [ -65.140344681114584, -10.294423661424474 ], [ -65.140614175699824, -10.294423661424482 ], [ -65.140614175699824, -10.293615177668762 ], [ -65.140883670285049, -10.293615177668777 ], [ -65.140883670285049, -10.293076188498308 ], [ -65.140344681114584, -10.293076188498295 ], [ -65.140344681114584, -10.292537199327834 ], [ -65.139805691944119, -10.292537199327828 ], [ -65.139805691944119, -10.291998210157361 ], [ -65.139536197358879, -10.291998210157361 ], [ -65.139536197358879, -10.291728715572123 ], [ -65.139266702773639, -10.291728715572122 ], [ -65.139266702773639, -10.291459220986882 ], [ -65.139536197358879, -10.291459220986878 ], [ -65.139536197358879, -10.291189726401649 ], [ -65.139266702773639, -10.291189726401646 ], [ -65.139266702773639, -10.290920231816411 ], [ -65.139536197358879, -10.290920231816418 ], [ -65.139536197358879, -10.290650737231172 ], [ -65.139266702773639, -10.290650737231172 ], [ -65.139266702773639, -10.290381242645937 ], [ -65.140614175699824, -10.290381242645939 ], [ -65.140614175699824, -10.290111748060708 ], [ -65.140075186529344, -10.290111748060699 ], [ -65.140075186529344, -10.289842253475461 ], [ -65.140344681114584, -10.289842253475477 ], [ -65.140344681114584, -10.289572758890239 ], [ -65.140075186529344, -10.28957275889023 ], [ -65.140075186529344, -10.289033769719758 ], [ -65.139805691944119, -10.289033769719758 ], [ -65.139805691944119, -10.287416802208345 ], [ -65.140075186529344, -10.287416802208341 ], [ -65.140075186529344, -10.287147307623103 ], [ -65.139805691944119, -10.287147307623117 ], [ -65.139805691944119, -10.286877813037881 ], [ -65.139266702773639, -10.286877813037883 ], [ -65.139266702773639, -10.286608318452636 ], [ -65.138458219017934, -10.286608318452632 ], [ -65.138458219017934, -10.286338823867395 ], [ -65.137649735262229, -10.286338823867396 ], [ -65.137649735262229, -10.286069329282174 ], [ -65.13711074609175, -10.286069329282178 ], [ -65.13711074609175, -10.285799834696935 ], [ -65.136841251506524, -10.285799834696927 ], [ -65.136841251506524, -10.286069329282169 ], [ -65.136302262336045, -10.286069329282165 ], [ -65.136302262336045, -10.286608318452643 ], [ -65.136032767750805, -10.286608318452647 ], [ -65.136032767750805, -10.286877813037878 ], [ -65.136302262336045, -10.286877813037881 ] ] ], [ [ [ -65.142500637796473, -10.28741680220835 ], [ -65.142500637796473, -10.287147307623108 ], [ -65.142231143211234, -10.287147307623107 ], [ -65.142231143211234, -10.287416802208343 ], [ -65.142500637796473, -10.28741680220835 ] ] ], [ [ [ -65.087254247823125, -10.337003805891751 ], [ -65.086984753237886, -10.337003805891746 ], [ -65.086984753237886, -10.337273300476971 ], [ -65.087254247823125, -10.337273300476973 ], [ -65.087254247823125, -10.337542795062225 ], [ -65.087523742408351, -10.337542795062223 ], [ -65.087523742408351, -10.337812289647456 ], [ -65.088871215334535, -10.337812289647449 ], [ -65.088871215334535, -10.338081784232696 ], [ -65.089140709919775, -10.338081784232683 ], [ -65.089140709919775, -10.338351278817919 ], [ -65.08994919367548, -10.338351278817919 ], [ -65.08994919367548, -10.33700380589174 ], [ -65.08967969909024, -10.337003805891744 ], [ -65.08967969909024, -10.336464816721266 ], [ -65.089410204505, -10.336464816721271 ], [ -65.089410204505, -10.336195322136028 ], [ -65.08806273157883, -10.336195322136033 ], [ -65.08806273157883, -10.336464816721282 ], [ -65.087523742408351, -10.336464816721266 ], [ -65.087523742408351, -10.336734311306511 ], [ -65.087254247823125, -10.3367343113065 ], [ -65.087254247823125, -10.337003805891751 ] ] ], [ [ [ -65.118515619710479, -10.321642614533303 ], [ -65.118515619710479, -10.321373119948055 ], [ -65.118246125125239, -10.32137311994807 ], [ -65.118246125125239, -10.321642614533308 ], [ -65.118515619710479, -10.321642614533303 ] ] ], [ [ [ -65.119054608880944, -10.319756152436657 ], [ -65.119054608880944, -10.321373119948056 ], [ -65.118785114295733, -10.321373119948072 ], [ -65.118785114295733, -10.321642614533303 ], [ -65.118515619710479, -10.321642614533303 ], [ -65.118515619710479, -10.321912109118529 ], [ -65.118785114295733, -10.321912109118536 ], [ -65.118785114295733, -10.322451098289013 ], [ -65.119324103466184, -10.322451098289005 ], [ -65.119324103466184, -10.322720592874239 ], [ -65.119863092636677, -10.322720592874235 ], [ -65.119863092636677, -10.322451098289005 ], [ -65.120132587221889, -10.322451098289006 ], [ -65.120132587221889, -10.321912109118527 ], [ -65.119863092636677, -10.321912109118541 ], [ -65.119863092636677, -10.32137311994806 ], [ -65.119593598051424, -10.321373119948065 ], [ -65.119593598051424, -10.320295141607122 ], [ -65.119863092636677, -10.320295141607117 ], [ -65.119863092636677, -10.320025647021888 ], [ -65.120132587221889, -10.320025647021877 ], [ -65.120132587221889, -10.319756152436639 ], [ -65.120671576392368, -10.319756152436648 ], [ -65.120671576392368, -10.319217163266172 ], [ -65.120132587221889, -10.31921716326617 ], [ -65.120132587221889, -10.318678174095705 ], [ -65.120402081807129, -10.318678174095705 ], [ -65.120402081807129, -10.318408679510473 ], [ -65.119863092636677, -10.318408679510471 ], [ -65.119863092636677, -10.318678174095714 ], [ -65.117437641369534, -10.318678174095703 ], [ -65.117437641369534, -10.318947668680945 ], [ -65.119324103466184, -10.318947668680932 ], [ -65.119324103466184, -10.319756152436648 ], [ -65.119054608880944, -10.319756152436657 ] ] ], [ [ [ -65.113664717176235, -10.317869690340004 ], [ -65.113125728005755, -10.31786969034 ], [ -65.113125728005755, -10.318139184925229 ], [ -65.11285623342053, -10.318139184925233 ], [ -65.11285623342053, -10.319217163266181 ], [ -65.113125728005755, -10.319217163266181 ], [ -65.113125728005755, -10.32002564702189 ], [ -65.11285623342053, -10.320025647021886 ], [ -65.11285623342053, -10.320295141607129 ], [ -65.11258673883529, -10.320295141607117 ], [ -65.11258673883529, -10.321642614533292 ], [ -65.112317244250065, -10.321642614533307 ], [ -65.112317244250065, -10.322181603703779 ], [ -65.111508760494345, -10.322181603703775 ], [ -65.111508760494345, -10.322451098289005 ], [ -65.11096977132388, -10.32245109828901 ], [ -65.11096977132388, -10.322720592874241 ], [ -65.110430782153401, -10.322720592874239 ], [ -65.110430782153401, -10.322990087459482 ], [ -65.109622298397696, -10.322990087459472 ], [ -65.109622298397696, -10.323259582044715 ], [ -65.108005330886286, -10.323259582044724 ], [ -65.108005330886286, -10.323798571215182 ], [ -65.109622298397696, -10.32379857121518 ], [ -65.109622298397696, -10.323529076629951 ], [ -65.110161287568175, -10.323529076629949 ], [ -65.110161287568175, -10.32325958204471 ], [ -65.110430782153401, -10.323259582044715 ], [ -65.110430782153401, -10.323529076629946 ], [ -65.11070027673864, -10.323529076629951 ], [ -65.11070027673864, -10.323259582044717 ], [ -65.11096977132388, -10.323259582044717 ], [ -65.11096977132388, -10.323529076629951 ], [ -65.11123926590912, -10.32352907662996 ], [ -65.11123926590912, -10.323259582044718 ], [ -65.111508760494345, -10.323259582044713 ], [ -65.111508760494345, -10.32352907662996 ], [ -65.112317244250065, -10.323529076629944 ], [ -65.112317244250065, -10.323798571215191 ], [ -65.113125728005755, -10.323798571215193 ], [ -65.113125728005755, -10.323529076629949 ], [ -65.113934211761475, -10.323529076629944 ], [ -65.113934211761475, -10.323259582044724 ], [ -65.1142037063467, -10.323259582044718 ], [ -65.1142037063467, -10.32299008745948 ], [ -65.114473200931954, -10.322990087459484 ], [ -65.114473200931954, -10.322181603703763 ], [ -65.11474269551718, -10.322181603703777 ], [ -65.11474269551718, -10.32191210911853 ], [ -65.115820673858124, -10.32191210911853 ], [ -65.115820673858124, -10.322181603703765 ], [ -65.116629157613843, -10.322181603703775 ], [ -65.116629157613843, -10.321912109118536 ], [ -65.117437641369534, -10.321912109118538 ], [ -65.117437641369534, -10.321642614533305 ], [ -65.117976630540014, -10.321642614533307 ], [ -65.117976630540014, -10.321373119948067 ], [ -65.118246125125239, -10.32137311994807 ], [ -65.118246125125239, -10.321103625362829 ], [ -65.117976630540014, -10.321103625362822 ], [ -65.117976630540014, -10.320834130777595 ], [ -65.117707135954788, -10.320834130777591 ], [ -65.117707135954788, -10.32056463619235 ], [ -65.116359663028589, -10.32056463619235 ], [ -65.116359663028589, -10.320834130777586 ], [ -65.115820673858124, -10.320834130777587 ], [ -65.115820673858124, -10.321103625362831 ], [ -65.115281684687645, -10.321103625362831 ], [ -65.115281684687645, -10.32137311994807 ], [ -65.115012190102419, -10.321373119948065 ], [ -65.115012190102419, -10.321103625362831 ], [ -65.114473200931954, -10.321103625362834 ], [ -65.114473200931954, -10.320025647021888 ], [ -65.11474269551718, -10.320025647021886 ], [ -65.11474269551718, -10.319217163266176 ], [ -65.114473200931954, -10.319217163266181 ], [ -65.114473200931954, -10.318947668680938 ], [ -65.1142037063467, -10.318947668680945 ], [ -65.1142037063467, -10.318678174095709 ], [ -65.113934211761475, -10.318678174095711 ], [ -65.113934211761475, -10.31813918492524 ], [ -65.1142037063467, -10.318139184925231 ], [ -65.1142037063467, -10.317869690340004 ], [ -65.11474269551718, -10.31786969034 ], [ -65.11474269551718, -10.317600195754768 ], [ -65.115551179272899, -10.317600195754769 ], [ -65.115551179272899, -10.317330701169523 ], [ -65.115012190102419, -10.317330701169528 ], [ -65.115012190102419, -10.317061206584297 ], [ -65.11474269551718, -10.317061206584297 ], [ -65.11474269551718, -10.317330701169533 ], [ -65.1142037063467, -10.317330701169528 ], [ -65.1142037063467, -10.317600195754761 ], [ -65.113664717176235, -10.317600195754769 ], [ -65.113664717176235, -10.317869690340004 ] ] ], [ [ [ -65.116898652199069, -10.318678174095702 ], [ -65.117168146784294, -10.318678174095718 ], [ -65.117168146784294, -10.318408679510469 ], [ -65.116898652199069, -10.318408679510471 ], [ -65.116898652199069, -10.318678174095702 ] ] ], [ [ [ -65.120402081807129, -10.318408679510473 ], [ -65.120941070977622, -10.318408679510474 ], [ -65.120941070977622, -10.318139184925228 ], [ -65.120402081807129, -10.318139184925242 ], [ -65.120402081807129, -10.318408679510473 ] ] ], [ [ [ -65.116898652199069, -10.318408679510471 ], [ -65.116898652199069, -10.318139184925242 ], [ -65.116629157613843, -10.318139184925244 ], [ -65.116629157613843, -10.318408679510467 ], [ -65.116898652199069, -10.318408679510471 ] ] ], [ [ [ -65.122558038489018, -10.318139184925242 ], [ -65.122558038489018, -10.31786969034 ], [ -65.122288543903778, -10.317869690340004 ], [ -65.122288543903778, -10.318139184925236 ], [ -65.122558038489018, -10.318139184925242 ] ] ], [ [ [ -65.11609016844335, -10.318139184925229 ], [ -65.116629157613843, -10.318139184925244 ], [ -65.116629157613843, -10.31786969034 ], [ -65.11609016844335, -10.317869690339997 ], [ -65.11609016844335, -10.318139184925229 ] ] ], [ [ [ -65.11609016844335, -10.317869690339997 ], [ -65.11609016844335, -10.317600195754768 ], [ -65.115551179272899, -10.317600195754769 ], [ -65.115551179272899, -10.317869690340002 ], [ -65.11609016844335, -10.317869690339997 ] ] ], [ [ [ -65.121749554733313, -10.317600195754769 ], [ -65.121749554733313, -10.317330701169535 ], [ -65.121210565562833, -10.317330701169531 ], [ -65.121210565562833, -10.317600195754769 ], [ -65.121749554733313, -10.317600195754769 ] ] ], [ [ [ -65.121749554733313, -10.317330701169535 ], [ -65.122288543903778, -10.317330701169524 ], [ -65.122288543903778, -10.317061206584299 ], [ -65.121749554733313, -10.317061206584299 ], [ -65.121749554733313, -10.317330701169535 ] ] ], [ [ [ -65.124175006000428, -10.314635755317161 ], [ -65.124175006000428, -10.315174744487647 ], [ -65.123905511415202, -10.315174744487653 ], [ -65.123905511415202, -10.315444239072875 ], [ -65.123636016829963, -10.315444239072875 ], [ -65.123636016829963, -10.315983228243349 ], [ -65.123366522244723, -10.315983228243338 ], [ -65.123366522244723, -10.316252722828583 ], [ -65.122827533074258, -10.316252722828583 ], [ -65.122827533074258, -10.316522217413819 ], [ -65.122558038489018, -10.316522217413816 ], [ -65.122558038489018, -10.316791711999056 ], [ -65.122288543903778, -10.316791711999057 ], [ -65.122288543903778, -10.317061206584299 ], [ -65.122558038489018, -10.317061206584301 ], [ -65.122558038489018, -10.31786969034 ], [ -65.122827533074258, -10.31786969034 ], [ -65.122827533074258, -10.317600195754764 ], [ -65.123097027659483, -10.317600195754773 ], [ -65.123097027659483, -10.31733070116953 ], [ -65.123366522244723, -10.317330701169523 ], [ -65.123366522244723, -10.317061206584292 ], [ -65.123636016829963, -10.317061206584299 ], [ -65.123636016829963, -10.316791711999061 ], [ -65.124444500585668, -10.316791711999054 ], [ -65.124444500585668, -10.317061206584288 ], [ -65.124713995170907, -10.317061206584293 ], [ -65.124713995170907, -10.317330701169528 ], [ -65.124983489756147, -10.317330701169523 ], [ -65.124983489756147, -10.317600195754764 ], [ -65.125252984341373, -10.317600195754769 ], [ -65.125252984341373, -10.317869690339998 ], [ -65.125522478926612, -10.31786969034 ], [ -65.125522478926612, -10.318139184925228 ], [ -65.125791973511852, -10.318139184925236 ], [ -65.125791973511852, -10.318408679510473 ], [ -65.126061468097078, -10.318408679510473 ], [ -65.126061468097078, -10.318678174095714 ], [ -65.126330962682317, -10.318678174095714 ], [ -65.126330962682317, -10.318408679510476 ], [ -65.126869951852797, -10.318408679510467 ], [ -65.126869951852797, -10.318139184925233 ], [ -65.127139446438022, -10.318139184925238 ], [ -65.127139446438022, -10.317600195754764 ], [ -65.127408941023262, -10.317600195754757 ], [ -65.127408941023262, -10.317330701169524 ], [ -65.127139446438022, -10.317330701169523 ], [ -65.127139446438022, -10.316791711999052 ], [ -65.126869951852797, -10.316791711999059 ], [ -65.126869951852797, -10.316252722828583 ], [ -65.126600457267557, -10.316252722828576 ], [ -65.126600457267557, -10.31571373365812 ], [ -65.126330962682317, -10.31571373365812 ], [ -65.126330962682317, -10.31517474448764 ], [ -65.126061468097078, -10.315174744487653 ], [ -65.126061468097078, -10.314635755317166 ], [ -65.125791973511852, -10.314635755317175 ], [ -65.125791973511852, -10.315444239072878 ], [ -65.125522478926612, -10.315444239072878 ], [ -65.125522478926612, -10.315713733658111 ], [ -65.125252984341373, -10.315713733658116 ], [ -65.125252984341373, -10.315983228243345 ], [ -65.124983489756147, -10.315983228243347 ], [ -65.124983489756147, -10.316252722828583 ], [ -65.124175006000428, -10.316252722828583 ], [ -65.124175006000428, -10.31652221741381 ], [ -65.123905511415202, -10.316522217413812 ], [ -65.123905511415202, -10.315983228243351 ], [ -65.124175006000428, -10.315983228243342 ], [ -65.124175006000428, -10.315713733658123 ], [ -65.124444500585668, -10.315713733658121 ], [ -65.124444500585668, -10.315444239072876 ], [ -65.124713995170907, -10.315444239072876 ], [ -65.124713995170907, -10.313557776976225 ], [ -65.125252984341373, -10.313557776976225 ], [ -65.125252984341373, -10.313018787805744 ], [ -65.124983489756147, -10.313018787805751 ], [ -65.124983489756147, -10.312749293220515 ], [ -65.124444500585668, -10.31274929322052 ], [ -65.124444500585668, -10.313018787805747 ], [ -65.124175006000428, -10.313018787805754 ], [ -65.124175006000428, -10.313827271561458 ], [ -65.124444500585668, -10.313827271561456 ], [ -65.124444500585668, -10.31463575531717 ], [ -65.124175006000428, -10.314635755317161 ] ] ], [ [ [ -65.125522478926612, -10.313827271561458 ], [ -65.125522478926612, -10.313557776976218 ], [ -65.125252984341373, -10.313557776976225 ], [ -65.125252984341373, -10.313827271561458 ], [ -65.125522478926612, -10.313827271561458 ] ] ] ] } }
]
}
