{
"type": "FeatureCollection",
"name": "karipuna",
"crs": { "type": "name", "properties": { "name": "urn:ogc:def:crs:OGC:1.3:CRS84" } },
"features": [
{ "type": "Feature", "properties": { "area_ha": 283.14 }, "geometry": { "type": "MultiPolygon", "coordinates": [ [ [ [ -64.637198290479233, -10.273672578361312 ], [ -64.637198290479233, -10.273403083776079 ], [ -64.636120312138303, -10.273403083776078 ], [ -64.636120312138303, -10.273672578361321 ], [ -64.637198290479233, -10.273672578361312 ] ] ], [ [ [ -64.679778434946499, -10.269091170412304 ], [ -64.679778434946499, -10.268821675827072 ], [ -64.679508940361274, -10.268821675827073 ], [ -64.679508940361274, -10.268282686656596 ], [ -64.679239445776034, -10.268282686656606 ], [ -64.679239445776034, -10.268013192071365 ], [ -64.678969951190794, -10.268013192071361 ], [ -64.678969951190794, -10.268552181241839 ], [ -64.678700456605569, -10.268552181241837 ], [ -64.678700456605569, -10.269630159582773 ], [ -64.678430962020329, -10.269630159582789 ], [ -64.678430962020329, -10.270169148753247 ], [ -64.678161467435089, -10.270169148753258 ], [ -64.678161467435089, -10.271516621679426 ], [ -64.677891972849849, -10.271516621679437 ], [ -64.677891972834715, -10.272243034546257 ], [ -64.67870045660095, -10.272189193411988 ], [ -64.678700456605569, -10.272055610849906 ], [ -64.678969951190794, -10.272055610849897 ], [ -64.678969951190794, -10.271516621679437 ], [ -64.679239445776034, -10.271516621679423 ], [ -64.679239445776034, -10.270977632508952 ], [ -64.679508940361274, -10.270977632508963 ], [ -64.679508940361274, -10.269091170412317 ], [ -64.679778434946499, -10.269091170412304 ] ] ], [ [ [ -64.704032947617733, -10.230283950138354 ], [ -64.704571936788199, -10.230283950138345 ], [ -64.704571936788199, -10.230014455553116 ], [ -64.704841431373438, -10.230014455553111 ], [ -64.704841431373438, -10.229744960967867 ], [ -64.705110925958678, -10.229744960967883 ], [ -64.705110925958678, -10.228936477212169 ], [ -64.705380420543918, -10.228936477212175 ], [ -64.705380420543918, -10.226241531359802 ], [ -64.704841431373438, -10.226241531359808 ], [ -64.704841431373438, -10.225972036774571 ], [ -64.704032947617733, -10.225972036774575 ], [ -64.704032947617733, -10.225702542189335 ], [ -64.703493958447254, -10.22570254218933 ], [ -64.703493958447254, -10.225433047604096 ], [ -64.703224463862028, -10.225433047604103 ], [ -64.703224463862028, -10.227319509700759 ], [ -64.703493958447254, -10.227319509700754 ], [ -64.703493958447254, -10.227858498871234 ], [ -64.703763453032494, -10.227858498871221 ], [ -64.703763453032494, -10.230014455553109 ], [ -64.704032947617733, -10.230014455553105 ], [ -64.704032947617733, -10.230283950138354 ] ] ], [ [ [ -64.659835835639058, -10.146201639544767 ], [ -64.659835835639058, -10.146471134129998 ], [ -64.660105330224283, -10.146471134129996 ], [ -64.660105330224283, -10.146740628715232 ], [ -64.660374824809523, -10.146740628715232 ], [ -64.660374824809523, -10.147010123300465 ], [ -64.660913813979988, -10.14701012330047 ], [ -64.660913813979988, -10.147279617885699 ], [ -64.661023608429048, -10.147279617912426 ], [ -64.661183308524301, -10.14689989285379 ], [ -64.661183308565228, -10.146471134129996 ], [ -64.661363630191033, -10.146471134154504 ], [ -64.661452803147398, -10.146259103355913 ], [ -64.661452803150468, -10.146201639544758 ], [ -64.660913813979988, -10.146201639544755 ], [ -64.660913813979988, -10.145932144959517 ], [ -64.659835835639058, -10.145932144959531 ], [ -64.659835835639058, -10.145123661203817 ], [ -64.659566341053818, -10.145123661203806 ], [ -64.659566341053818, -10.146201639544746 ], [ -64.659835835639058, -10.146201639544767 ] ] ], [ [ [ -64.659835835639058, -10.144584672033332 ], [ -64.659835835639058, -10.145123661203817 ], [ -64.660105330224283, -10.145123661203812 ], [ -64.660105330224283, -10.144854166618581 ], [ -64.660374824809523, -10.144854166618588 ], [ -64.660374824809523, -10.144584672033341 ], [ -64.660913813979988, -10.144584672033346 ], [ -64.660913813979988, -10.144854166618572 ], [ -64.661009767901106, -10.144854166643956 ], [ -64.6611833085624, -10.144636459513828 ], [ -64.661183308565228, -10.144584672033343 ], [ -64.661224589812207, -10.144584672047698 ], [ -64.661452803112866, -10.144298377350182 ], [ -64.661452803130501, -10.143890507375904 ], [ -64.661365467855788, -10.143776188301883 ], [ -64.661183308565228, -10.143776188277631 ], [ -64.661183308547223, -10.143537747226267 ], [ -64.660953702549662, -10.143237199121128 ], [ -64.660913813979988, -10.143237199107165 ], [ -64.660913813977146, -10.143184985963721 ], [ -64.660886432566997, -10.143149144359001 ], [ -64.66091381397959, -10.142973809096029 ], [ -64.660913813979988, -10.142967704521936 ], [ -64.660644319394763, -10.142967704521936 ], [ -64.660644319394763, -10.143506693692405 ], [ -64.660374824809523, -10.143506693692395 ], [ -64.660374824809523, -10.144045682862879 ], [ -64.660105330224283, -10.144045682862867 ], [ -64.660105330224283, -10.144584672033348 ], [ -64.659835835639058, -10.144584672033332 ] ] ], [ [ [ -64.652020492667205, -10.071551639434427 ], [ -64.652559481837685, -10.07155163943443 ], [ -64.652559481837685, -10.071282144849198 ], [ -64.652828976422938, -10.071282144849196 ], [ -64.652828976422938, -10.071551639434436 ], [ -64.65309847100815, -10.071551639434428 ], [ -64.65309847100815, -10.07128214484919 ], [ -64.653637460178629, -10.071282144849189 ], [ -64.653637460178629, -10.071012650263958 ], [ -64.6512120089115, -10.071012650263951 ], [ -64.6512120089115, -10.071282144849194 ], [ -64.650673019741049, -10.071282144849196 ], [ -64.650673019741049, -10.07155163943443 ], [ -64.650134030570555, -10.071551639434432 ], [ -64.650134030570555, -10.071821134019663 ], [ -64.652020492667205, -10.071821134019652 ], [ -64.652020492667205, -10.071551639434427 ] ] ], [ [ [ -64.653906954763883, -10.070743155678718 ], [ -64.653637460178629, -10.070743155678715 ], [ -64.653637460178629, -10.071012650263958 ], [ -64.653906954763883, -10.071012650263958 ], [ -64.653906954763883, -10.070743155678718 ] ] ], [ [ [ -64.658218868127634, -10.068587198996827 ], [ -64.658218868127634, -10.068317704411593 ], [ -64.657949373542394, -10.0683177044116 ], [ -64.657949373542394, -10.068587198996839 ], [ -64.658218868127634, -10.068587198996827 ] ] ], [ [ [ -64.656601900616224, -10.068587198996839 ], [ -64.657140889786689, -10.068587198996831 ], [ -64.657140889786689, -10.068317704411603 ], [ -64.657410384371929, -10.068317704411594 ], [ -64.657410384371929, -10.068587198996831 ], [ -64.657679878957168, -10.068587198996836 ], [ -64.657679878957168, -10.068317704411593 ], [ -64.657949373542394, -10.0683177044116 ], [ -64.657949373542394, -10.068048209826349 ], [ -64.657410384371929, -10.068048209826365 ], [ -64.657410384371929, -10.067778715241131 ], [ -64.656601900616224, -10.067778715241124 ], [ -64.656601900616224, -10.068048209826364 ], [ -64.656332406030984, -10.068048209826367 ], [ -64.656332406030984, -10.068317704411589 ], [ -64.656062911445744, -10.068317704411589 ], [ -64.656062911445744, -10.069126188167298 ], [ -64.656601900616224, -10.069126188167299 ], [ -64.656601900616224, -10.068587198996839 ] ] ], [ [ [ -64.658488362712873, -10.068048209826364 ], [ -64.658218868127634, -10.068048209826371 ], [ -64.658218868127634, -10.068317704411593 ], [ -64.658488362712873, -10.068317704411593 ], [ -64.658488362712873, -10.068048209826364 ] ] ], [ [ [ -64.644474644280606, -10.034900375842346 ], [ -64.643935655110141, -10.03490037584235 ], [ -64.643935655110141, -10.035169870427579 ], [ -64.644474644280606, -10.035169870427588 ], [ -64.644474644280606, -10.034900375842346 ] ] ], [ [ [ -64.640432225502067, -10.034900375842355 ], [ -64.640701720087307, -10.034900375842346 ], [ -64.640701720087307, -10.03543936501282 ], [ -64.640971214672547, -10.035439365012827 ], [ -64.640971214672547, -10.035978354183284 ], [ -64.641240709257772, -10.035978354183296 ], [ -64.641240709257772, -10.036247848768516 ], [ -64.641510203843012, -10.036247848768527 ], [ -64.641510203843012, -10.036517343353756 ], [ -64.642049193013492, -10.036517343353758 ], [ -64.642049193013492, -10.036247848768523 ], [ -64.642588182183957, -10.03624784876852 ], [ -64.642588182183957, -10.035978354183294 ], [ -64.643127171354436, -10.035978354183282 ], [ -64.643127171354436, -10.035708859598044 ], [ -64.643396665939662, -10.035708859598046 ], [ -64.643396665939662, -10.035439365012826 ], [ -64.643935655110141, -10.035439365012822 ], [ -64.643935655110141, -10.035169870427579 ], [ -64.643666160524901, -10.035169870427584 ], [ -64.643666160524901, -10.034900375842348 ], [ -64.643127171354436, -10.034900375842355 ], [ -64.643127171354436, -10.034630881257115 ], [ -64.642857676769196, -10.034630881257121 ], [ -64.642857676769196, -10.034361386671874 ], [ -64.642588182183957, -10.034361386671868 ], [ -64.642588182183957, -10.034091892086636 ], [ -64.642049193013492, -10.034091892086641 ], [ -64.642049193013492, -10.033822397501398 ], [ -64.640701720087307, -10.033822397501412 ], [ -64.640701720087307, -10.033552902916171 ], [ -64.640162730916828, -10.033552902916171 ], [ -64.640162730916828, -10.03328340833094 ], [ -64.639893236331602, -10.033283408330927 ], [ -64.639893236327225, -10.03312694852719 ], [ -64.639656739317303, -10.033013913757467 ], [ -64.639623741746362, -10.033013913745698 ], [ -64.639623741746362, -10.033552902916165 ], [ -64.639893236331602, -10.033552902916176 ], [ -64.639893236331602, -10.034091892086636 ], [ -64.640162730916828, -10.034091892086639 ], [ -64.640162730916828, -10.034630881257112 ], [ -64.640432225502067, -10.034630881257113 ], [ -64.640432225502067, -10.034900375842355 ] ] ], [ [ [ -64.588958759722018, -10.034361386671883 ], [ -64.589228254307258, -10.034361386671879 ], [ -64.589228254307258, -10.03490037584235 ], [ -64.589497748892498, -10.034900375842346 ], [ -64.589497748892498, -10.035169870427589 ], [ -64.589767243477723, -10.035169870427586 ], [ -64.589767243477723, -10.035439365012824 ], [ -64.590036738062963, -10.035439365012822 ], [ -64.590036738062963, -10.03570885959806 ], [ -64.590306232648203, -10.035708859598055 ], [ -64.590306232648203, -10.035978354183287 ], [ -64.590575727233443, -10.035978354183294 ], [ -64.590575727233443, -10.036247848768518 ], [ -64.591114716403908, -10.03624784876853 ], [ -64.591114716403908, -10.036517343353765 ], [ -64.591653705574373, -10.036517343353772 ], [ -64.591653705574373, -10.036786837939003 ], [ -64.592192694744853, -10.036786837938996 ], [ -64.592192694744853, -10.036517343353758 ], [ -64.592731683915318, -10.036517343353763 ], [ -64.592731683915318, -10.036247848768523 ], [ -64.593270673085797, -10.036247848768532 ], [ -64.593270673085797, -10.035978354183298 ], [ -64.593540167671037, -10.035978354183289 ], [ -64.593540167671037, -10.035708859598046 ], [ -64.593809662256263, -10.035708859598049 ], [ -64.593809662256263, -10.035439365012822 ], [ -64.594079156841502, -10.035439365012829 ], [ -64.594079156841502, -10.035169870427586 ], [ -64.594348651426742, -10.035169870427582 ], [ -64.594348651426742, -10.034900375842351 ], [ -64.594887640597207, -10.034900375842358 ], [ -64.594887640597207, -10.034630881257113 ], [ -64.595426629767687, -10.034630881257113 ], [ -64.595426629767687, -10.03436138667187 ], [ -64.593540167671037, -10.034361386671877 ], [ -64.593540167671037, -10.034630881257108 ], [ -64.593270673085797, -10.034630881257119 ], [ -64.593270673085797, -10.034900375842346 ], [ -64.592192694744853, -10.034900375842339 ], [ -64.592192694744853, -10.034630881257113 ], [ -64.591923200159613, -10.034630881257112 ], [ -64.591923200159613, -10.034361386671875 ], [ -64.591653705574373, -10.034361386671884 ], [ -64.591653705574373, -10.033822397501405 ], [ -64.591923200159613, -10.033822397501408 ], [ -64.591923200159613, -10.033552902916174 ], [ -64.593540167671037, -10.033552902916176 ], [ -64.593540167671037, -10.033283408330943 ], [ -64.591653705574373, -10.033283408330934 ], [ -64.591653705574373, -10.033013913745691 ], [ -64.591114716403908, -10.033013913745696 ], [ -64.591114716403908, -10.032744419160453 ], [ -64.591384210989148, -10.032744419160458 ], [ -64.591384210989148, -10.032474924575233 ], [ -64.59105679772567, -10.032474924812741 ], [ -64.590575727229378, -10.032574300823573 ], [ -64.590575727233443, -10.032744419160457 ], [ -64.590306232648203, -10.032744419160466 ], [ -64.590306232648203, -10.033013913745705 ], [ -64.590036738062963, -10.033013913745693 ], [ -64.590036738062963, -10.032744419160458 ], [ -64.589752190023447, -10.032744419385271 ], [ -64.589651067806997, -10.032765308111998 ], [ -64.589561739326982, -10.032744419399325 ], [ -64.589228254307258, -10.03274441916046 ], [ -64.589228254307258, -10.033013913745707 ], [ -64.589497748892498, -10.0330139137457 ], [ -64.589497748892498, -10.03328340833094 ], [ -64.589228254307258, -10.033283408330943 ], [ -64.589228254307258, -10.033552902916176 ], [ -64.588958759722018, -10.033552902916171 ], [ -64.588958759722018, -10.034361386671883 ] ] ], [ [ [ -64.593809662256263, -10.0330139137457 ], [ -64.593540167671037, -10.033013913745702 ], [ -64.593540167671037, -10.033283408330943 ], [ -64.594079156841502, -10.033283408330931 ], [ -64.594079156841502, -10.032744419160469 ], [ -64.593809662256263, -10.032744419160457 ], [ -64.593809662256263, -10.0330139137457 ] ] ], [ [ [ -64.561470312027964, -9.974533588749512 ], [ -64.561470312027964, -9.974803083334754 ], [ -64.561200817442725, -9.974803083334754 ], [ -64.561200817442725, -9.975611567090462 ], [ -64.561470312027964, -9.975611567090464 ], [ -64.561470312027964, -9.976150556260922 ], [ -64.561739806613204, -9.976150556260926 ], [ -64.561739806613204, -9.976420050846167 ], [ -64.562278795783669, -9.976420050846166 ], [ -64.562278795783669, -9.976689545431405 ], [ -64.562817784954149, -9.976689545431404 ], [ -64.562817784954149, -9.976420050846176 ], [ -64.563087279539374, -9.976420050846173 ], [ -64.563087279539374, -9.976150556260924 ], [ -64.562817784954149, -9.97615055626094 ], [ -64.562817784954149, -9.975611567090462 ], [ -64.562548290368909, -9.975611567090459 ], [ -64.562548290368909, -9.975072577919997 ], [ -64.562278795783669, -9.975072577919992 ], [ -64.562278795783669, -9.973725104993811 ], [ -64.56200930119843, -9.973725104993811 ], [ -64.56200930119843, -9.973455610408584 ], [ -64.561739806613204, -9.973455610408584 ], [ -64.561739806613204, -9.973725104993811 ], [ -64.561470312027964, -9.973725104993811 ], [ -64.561470312027964, -9.974264094164273 ], [ -64.561200817442725, -9.974264094164271 ], [ -64.561200817442725, -9.974533588749519 ], [ -64.561470312027964, -9.974533588749512 ] ] ], [ [ [ -64.566590709147448, -9.953782505686364 ], [ -64.566791397387618, -9.95378250570702 ], [ -64.566860203729405, -9.953713642855709 ], [ -64.566860203732688, -9.953513011101123 ], [ -64.566590709147448, -9.953513011101126 ], [ -64.566590709147448, -9.953782505686364 ] ] ], [ [ [ -64.566860203732688, -9.953513011101123 ], [ -64.567060670601549, -9.953513011121821 ], [ -64.567129698314631, -9.95344392656477 ], [ -64.567129698317913, -9.953243516515892 ], [ -64.566860203732688, -9.953243516515876 ], [ -64.566860203732688, -9.953513011101123 ] ] ], [ [ [ -64.567129698317913, -9.953243516515892 ], [ -64.567337376869588, -9.953243516535087 ], [ -64.567399192900226, -9.95318474324516 ], [ -64.567399192903153, -9.952974021930654 ], [ -64.567129698317913, -9.952974021930642 ], [ -64.567129698317913, -9.953243516515892 ] ] ], [ [ [ -64.567938182073618, -9.952435032760171 ], [ -64.568088847169307, -9.952435032786973 ], [ -64.56820767665495, -9.95225888838644 ], [ -64.568207676658858, -9.952165538174951 ], [ -64.567938182073618, -9.95216553817494 ], [ -64.567938182073618, -9.952435032760171 ] ] ], [ [ [ -64.568270651950058, -9.952165538194398 ], [ -64.568362901417999, -9.952028793905003 ], [ -64.568417568795013, -9.951896043608425 ], [ -64.568207676658858, -9.951896043589707 ], [ -64.568207676658858, -9.952165538174951 ], [ -64.568270651950058, -9.952165538194398 ] ] ], [ [ [ -64.564973741636024, -9.944080700617864 ], [ -64.564704247050798, -9.944080700617864 ], [ -64.564704247050798, -9.944889184373574 ], [ -64.564973741636024, -9.944889184373579 ], [ -64.564973741636024, -9.945697668129286 ], [ -64.565782225391743, -9.945697668129277 ], [ -64.565782225391743, -9.945428173544041 ], [ -64.566321214562208, -9.945428173544041 ], [ -64.566321214562208, -9.945158678958801 ], [ -64.566590709147448, -9.945158678958814 ], [ -64.566590709147448, -9.944889184373572 ], [ -64.56758838359471, -9.944889184493373 ], [ -64.567527456877698, -9.944619689815422 ], [ -64.567399192903153, -9.944619689788343 ], [ -64.567399192903153, -9.944350195203095 ], [ -64.567129698317913, -9.944350195203102 ], [ -64.567129698317913, -9.944080700617864 ], [ -64.566590709147448, -9.944080700617864 ], [ -64.566590709147448, -9.943811206032629 ], [ -64.564973741636024, -9.943811206032624 ], [ -64.564973741636024, -9.944080700617864 ] ] ], [ [ [ -64.561739806613204, -9.942194238521214 ], [ -64.561739806613204, -9.942733227691688 ], [ -64.562278795783669, -9.942733227691686 ], [ -64.562278795783669, -9.943002722276914 ], [ -64.562817784954149, -9.943002722276928 ], [ -64.562817784954149, -9.943272216862164 ], [ -64.562548290368909, -9.943272216862153 ], [ -64.562548290368909, -9.943541711447388 ], [ -64.563356774124614, -9.943541711447388 ], [ -64.563356774124614, -9.943272216862162 ], [ -64.563626268709854, -9.943272216862152 ], [ -64.563626268709854, -9.943002722276926 ], [ -64.563895763295093, -9.943002722276914 ], [ -64.563895763295093, -9.942733227691694 ], [ -64.564165257880319, -9.942733227691678 ], [ -64.564165257880319, -9.942194238521219 ], [ -64.563895763295093, -9.942194238521212 ], [ -64.563895763295093, -9.941924743935981 ], [ -64.563087279539374, -9.941924743935974 ], [ -64.563087279539374, -9.942194238521223 ], [ -64.562817784954149, -9.942194238521214 ], [ -64.562817784954149, -9.942463733106454 ], [ -64.56200930119843, -9.942463733106452 ], [ -64.56200930119843, -9.942194238521221 ], [ -64.561739806613204, -9.942194238521214 ] ] ], [ [ [ -64.544222658572863, -9.902039545321065 ], [ -64.544492153158103, -9.90203954532107 ], [ -64.544492153158103, -9.902309039906305 ], [ -64.544761647743343, -9.902309039906305 ], [ -64.544761647743343, -9.902039545321076 ], [ -64.545300636913808, -9.902039545321079 ], [ -64.545300636913808, -9.901770050735839 ], [ -64.545839626084287, -9.901770050735825 ], [ -64.545839626084287, -9.901500556150602 ], [ -64.546378615254753, -9.901500556150603 ], [ -64.546378615254753, -9.901231061565362 ], [ -64.546917604425232, -9.901231061565353 ], [ -64.546917604425232, -9.9006920723949 ], [ -64.544761647743343, -9.900692072394889 ], [ -64.544761647743343, -9.900961566980133 ], [ -64.544222658572863, -9.900961566980126 ], [ -64.544222658572863, -9.901231061565371 ], [ -64.543953163987638, -9.901231061565356 ], [ -64.543953163987638, -9.901770050735836 ], [ -64.544222658572863, -9.901770050735841 ], [ -64.544222658572863, -9.902039545321065 ] ] ], [ [ [ -64.55823637700513, -9.896649653616352 ], [ -64.557966882419905, -9.896649653616352 ], [ -64.557966882419905, -9.896919148201594 ], [ -64.557427893249425, -9.896919148201595 ], [ -64.557427893249425, -9.897188642786832 ], [ -64.557158398664185, -9.897188642786828 ], [ -64.557158398664185, -9.897458137372052 ], [ -64.55661940949372, -9.89745813737207 ], [ -64.55661940949372, -9.897727631957297 ], [ -64.556349914908481, -9.897727631957297 ], [ -64.556349914908481, -9.89799712654253 ], [ -64.555541431152776, -9.897997126542542 ], [ -64.555541431152776, -9.898266621127766 ], [ -64.55500244198231, -9.898266621127776 ], [ -64.55500244198231, -9.89907510488348 ], [ -64.555810925738015, -9.899075104883476 ], [ -64.555810925738015, -9.898805610298242 ], [ -64.556349914908481, -9.898805610298236 ], [ -64.556349914908481, -9.898536115713007 ], [ -64.55661940949372, -9.898536115713013 ], [ -64.55661940949372, -9.898266621127769 ], [ -64.55688890407896, -9.898266621127766 ], [ -64.55688890407896, -9.897997126542533 ], [ -64.557158398664185, -9.897997126542545 ], [ -64.557158398664185, -9.89772763195729 ], [ -64.557427893249425, -9.897727631957297 ], [ -64.557427893249425, -9.897458137372064 ], [ -64.557966882419905, -9.897458137372059 ], [ -64.557966882419905, -9.897188642786821 ], [ -64.55850587159037, -9.897188642786823 ], [ -64.55850587159037, -9.896919148201595 ], [ -64.559044860760835, -9.896919148201597 ], [ -64.559044860760835, -9.896649653616361 ], [ -64.559583849931315, -9.896649653616354 ], [ -64.559583849931315, -9.896380159031127 ], [ -64.56012283910178, -9.896380159031127 ], [ -64.56012283910178, -9.895571675275409 ], [ -64.559314355346075, -9.895571675275404 ], [ -64.559314355346075, -9.895841169860647 ], [ -64.55877536617561, -9.895841169860642 ], [ -64.55877536617561, -9.896110664445882 ], [ -64.55850587159037, -9.896110664445885 ], [ -64.55850587159037, -9.896380159031125 ], [ -64.55823637700513, -9.896380159031116 ], [ -64.55823637700513, -9.896649653616352 ] ] ], [ [ [ -64.563895763295093, -9.851374563296737 ], [ -64.564165257880319, -9.85137456329673 ], [ -64.564165257880319, -9.850835574126267 ], [ -64.564434752465559, -9.850835574126249 ], [ -64.564434752465559, -9.850566079541025 ], [ -64.564165257880319, -9.85056607954102 ], [ -64.564165257880319, -9.850296584955796 ], [ -64.564434752465559, -9.850296584955789 ], [ -64.564434752465559, -9.850027090370553 ], [ -64.564973741636024, -9.850027090370558 ], [ -64.564973741636024, -9.849757595785313 ], [ -64.564165257880319, -9.849757595785322 ], [ -64.564165257880319, -9.85002709037056 ], [ -64.563895763295093, -9.850027090370553 ], [ -64.563895763295093, -9.850296584955785 ], [ -64.563626268709854, -9.850296584955784 ], [ -64.563626268709854, -9.851644057881977 ], [ -64.563895763295093, -9.851644057881972 ], [ -64.563895763295093, -9.851374563296737 ] ] ], [ [ [ -64.548804066521882, -9.835474382767819 ], [ -64.548534571936642, -9.835474382767819 ], [ -64.548534571936642, -9.83574387735305 ], [ -64.548804066521882, -9.83574387735305 ], [ -64.548804066521882, -9.835474382767819 ] ] ], [ [ [ -64.548265077351402, -9.834396404426871 ], [ -64.547995582766177, -9.834396404426871 ], [ -64.547995582766177, -9.834665899012109 ], [ -64.548265077351402, -9.834665899012103 ], [ -64.548265077351402, -9.835474382767813 ], [ -64.548534571936642, -9.835474382767819 ], [ -64.548534571936642, -9.834935393597346 ], [ -64.548804066521882, -9.834935393597346 ], [ -64.548804066521882, -9.834396404426871 ], [ -64.549073561107122, -9.834396404426869 ], [ -64.549073561107122, -9.834126909841631 ], [ -64.548804066521882, -9.83412690984164 ], [ -64.548804066521882, -9.833857415256411 ], [ -64.548534571936642, -9.833857415256389 ], [ -64.548534571936642, -9.833587920671166 ], [ -64.548265077351402, -9.833587920671162 ], [ -64.548265077351402, -9.833318426085928 ], [ -64.547995582766177, -9.833318426085935 ], [ -64.547995582766177, -9.833048931500702 ], [ -64.547456593595697, -9.833048931500684 ], [ -64.547456593595697, -9.833587920671158 ], [ -64.547187099010458, -9.833587920671155 ], [ -64.547187099010458, -9.833857415256402 ], [ -64.547456593595697, -9.833857415256396 ], [ -64.547456593595697, -9.834126909841642 ], [ -64.548265077351402, -9.834126909841629 ], [ -64.548265077351402, -9.834396404426871 ] ] ], [ [ [ -64.551499012374236, -9.833587920671157 ], [ -64.550960023203771, -9.833587920671162 ], [ -64.550960023203771, -9.833857415256393 ], [ -64.551499012374236, -9.833857415256396 ], [ -64.551499012374236, -9.833587920671157 ] ] ], [ [ [ -64.552846485300421, -9.833587920671166 ], [ -64.552846485300421, -9.833318426085931 ], [ -64.553654969056126, -9.833318426085922 ], [ -64.553654969056126, -9.833048931500681 ], [ -64.553385474470886, -9.8330489315007 ], [ -64.553385474470886, -9.832779436915462 ], [ -64.552307496129941, -9.832779436915455 ], [ -64.552307496129941, -9.833048931500697 ], [ -64.551768506959476, -9.833048931500688 ], [ -64.551768506959476, -9.833318426085926 ], [ -64.551499012374236, -9.833318426085937 ], [ -64.551499012374236, -9.833587920671157 ], [ -64.552846485300421, -9.833587920671166 ] ] ], [ [ [ -64.524549553850647, -10.26801319207136 ], [ -64.524280059265422, -10.268013192071365 ], [ -64.524280059265422, -10.268821675827073 ], [ -64.524549553850647, -10.268821675827066 ], [ -64.524549553850647, -10.26909117041231 ], [ -64.525358037606367, -10.269091170412308 ], [ -64.525358037606367, -10.268821675827079 ], [ -64.525897026776846, -10.268821675827068 ], [ -64.525897026776846, -10.268552181241844 ], [ -64.526166521362072, -10.268552181241839 ], [ -64.526166521362072, -10.268282686656601 ], [ -64.526436015947297, -10.268282686656603 ], [ -64.526436015947297, -10.267474202900898 ], [ -64.526166521362072, -10.267474202900893 ], [ -64.526166521362072, -10.267204708315651 ], [ -64.525897026776846, -10.267204708315658 ], [ -64.525897026776846, -10.266665719145188 ], [ -64.525358037606367, -10.266665719145184 ], [ -64.525358037606367, -10.266396224559953 ], [ -64.524819048435901, -10.266396224559955 ], [ -64.524819048435901, -10.266665719145195 ], [ -64.524549553850647, -10.266665719145184 ], [ -64.524549553850647, -10.266935213730426 ], [ -64.524819048435901, -10.266935213730424 ], [ -64.524819048435901, -10.267474202900905 ], [ -64.524549553850647, -10.267474202900896 ], [ -64.524549553850647, -10.26801319207136 ] ] ], [ [ [ -64.525358037606367, -9.910124382878141 ], [ -64.525627532191592, -9.910124382878148 ], [ -64.525627532191592, -9.910932866633855 ], [ -64.525897026776846, -9.91093286663385 ], [ -64.525897026776846, -9.91120236121909 ], [ -64.526436015947297, -9.911202361219088 ], [ -64.526436015947297, -9.910932866633852 ], [ -64.526705510532537, -9.910932866633857 ], [ -64.526705510532537, -9.910393877463378 ], [ -64.526436015947297, -9.910393877463383 ], [ -64.526436015947297, -9.90931589912244 ], [ -64.526166521362072, -9.909315899122438 ], [ -64.526166521362072, -9.909854888292912 ], [ -64.525627532191592, -9.909854888292909 ], [ -64.525627532191592, -9.909585393707667 ], [ -64.525088543021127, -9.90958539370768 ], [ -64.525088543021127, -9.909854888292912 ], [ -64.525358037606367, -9.909854888292914 ], [ -64.525358037606367, -9.910124382878141 ] ] ], [ [ [ -64.512422297515045, -9.888025826888807 ], [ -64.512152802929805, -9.8880258268888 ], [ -64.512152802929805, -9.888564816059269 ], [ -64.511883308344565, -9.888564816059283 ], [ -64.511883308344565, -9.888834310644516 ], [ -64.511613813759325, -9.888834310644519 ], [ -64.511613813759325, -9.889373299814988 ], [ -64.512422297515045, -9.889373299814981 ], [ -64.512422297515045, -9.889642794400222 ], [ -64.51296128668551, -9.889642794400229 ], [ -64.51296128668551, -9.889103805229759 ], [ -64.51323078127075, -9.889103805229748 ], [ -64.51323078127075, -9.888295321474041 ], [ -64.513500275855975, -9.888295321474049 ], [ -64.513500275855975, -9.886947848547861 ], [ -64.51323078127075, -9.886947848547857 ], [ -64.51323078127075, -9.887217343133099 ], [ -64.51296128668551, -9.887217343133111 ], [ -64.51296128668551, -9.88748683771834 ], [ -64.51269179210027, -9.887486837718342 ], [ -64.51269179210027, -9.887756332303578 ], [ -64.512422297515045, -9.887756332303573 ], [ -64.512422297515045, -9.888025826888807 ] ] ], [ [ [ -64.517003705464049, -9.873742613871306 ], [ -64.517273200049289, -9.873742613871308 ], [ -64.517273200049289, -9.874012108456544 ], [ -64.517542694634514, -9.874012108456542 ], [ -64.517542694634514, -9.874281603041785 ], [ -64.517812189219754, -9.874281603041783 ], [ -64.517812189219754, -9.874012108456544 ], [ -64.518081683804994, -9.874012108456538 ], [ -64.518081683804994, -9.87347311928607 ], [ -64.518351178390233, -9.87347311928608 ], [ -64.518351178390233, -9.872125646359889 ], [ -64.518620672975459, -9.872125646359891 ], [ -64.518620672975459, -9.87131716260418 ], [ -64.518351178390233, -9.871317162604184 ], [ -64.518351178390233, -9.871586657189413 ], [ -64.517003705464049, -9.87158665718942 ], [ -64.517003705464049, -9.872125646359885 ], [ -64.517273200049289, -9.872125646359901 ], [ -64.517273200049289, -9.873473119286077 ], [ -64.517003705464049, -9.873473119286079 ], [ -64.517003705464049, -9.873742613871306 ] ] ], [ [ [ -64.517003705464049, -9.871317162604187 ], [ -64.516734210878809, -9.871317162604178 ], [ -64.516734210878809, -9.871586657189422 ], [ -64.517003705464049, -9.87158665718942 ], [ -64.517003705464049, -9.871317162604187 ] ] ], [ [ [ -64.536137821015799, -9.868083227581362 ], [ -64.53586832643056, -9.86808322758136 ], [ -64.53586832643056, -9.868622216751831 ], [ -64.536137821015799, -9.868622216751815 ], [ -64.536137821015799, -9.868352722166581 ], [ -64.536946304771504, -9.868352722166584 ], [ -64.536946304771504, -9.868083227581355 ], [ -64.537215799356744, -9.868083227581348 ], [ -64.537215799356744, -9.867813732996119 ], [ -64.53748529394197, -9.867813732996119 ], [ -64.53748529394197, -9.867544238410876 ], [ -64.537754788527209, -9.867544238410877 ], [ -64.537754788527209, -9.867274743825647 ], [ -64.538024283112449, -9.867274743825648 ], [ -64.538024283112449, -9.867005249240416 ], [ -64.538293777697675, -9.867005249240405 ], [ -64.538293777697675, -9.866735754655181 ], [ -64.537754788527209, -9.866735754655179 ], [ -64.537754788527209, -9.867005249240401 ], [ -64.536946304771504, -9.867005249240414 ], [ -64.536946304771504, -9.867274743825652 ], [ -64.536407315601025, -9.867274743825652 ], [ -64.536407315601025, -9.867544238410884 ], [ -64.536137821015799, -9.867544238410879 ], [ -64.536137821015799, -9.868083227581362 ] ] ], [ [ [ -64.538563272282914, -9.866735754655172 ], [ -64.538563272282914, -9.866466260069943 ], [ -64.538293777697675, -9.866466260069942 ], [ -64.538293777697675, -9.866735754655181 ], [ -64.538563272282914, -9.866735754655172 ] ] ], [ [ [ -64.51107482458886, -9.854339003734328 ], [ -64.51080533000362, -9.854339003734317 ], [ -64.51080533000362, -9.854608498319559 ], [ -64.51107482458886, -9.854608498319557 ], [ -64.51107482458886, -9.854339003734328 ] ] ], [ [ [ -64.510535835418381, -9.854339003734328 ], [ -64.51080533000362, -9.854339003734317 ], [ -64.51080533000362, -9.854069509149092 ], [ -64.510535835418381, -9.854069509149083 ], [ -64.510535835418381, -9.85380001456385 ], [ -64.510266340833155, -9.853800014563854 ], [ -64.510266340833155, -9.853530519978621 ], [ -64.509996846247915, -9.853530519978612 ], [ -64.509996846247915, -9.853261025393387 ], [ -64.509727351662676, -9.853261025393378 ], [ -64.509727351662676, -9.852991530808147 ], [ -64.50918836249221, -9.85299153080814 ], [ -64.50918836249221, -9.853261025393381 ], [ -64.50945785707745, -9.853261025393387 ], [ -64.50945785707745, -9.854339003734331 ], [ -64.509727351662676, -9.854339003734319 ], [ -64.509727351662676, -9.854608498319553 ], [ -64.510535835418381, -9.854608498319553 ], [ -64.510535835418381, -9.854339003734328 ] ] ], [ [ [ -64.520237640486883, -9.851644057881963 ], [ -64.519968145901643, -9.85164405788197 ], [ -64.519968145901643, -9.852183047052431 ], [ -64.520237640486883, -9.852183047052442 ], [ -64.520237640486883, -9.851644057881963 ] ] ], [ [ [ -64.519698651316403, -9.851374563296734 ], [ -64.519429156731178, -9.851374563296728 ], [ -64.519429156731178, -9.851644057881968 ], [ -64.519968145901643, -9.85164405788197 ], [ -64.519968145901643, -9.851105068711497 ], [ -64.519698651316403, -9.851105068711503 ], [ -64.519698651316403, -9.851374563296734 ] ] ], [ [ [ -64.518081683804994, -9.851105068711497 ], [ -64.518351178390233, -9.851105068711487 ], [ -64.518351178390233, -9.851374563296742 ], [ -64.518620672975459, -9.851374563296734 ], [ -64.518620672975459, -9.851105068711496 ], [ -64.519698651316403, -9.851105068711503 ], [ -64.519698651316403, -9.850027090370556 ], [ -64.519429156731178, -9.850027090370553 ], [ -64.519429156731178, -9.850835574126261 ], [ -64.518620672975459, -9.850835574126261 ], [ -64.518620672975459, -9.850566079541029 ], [ -64.518351178390233, -9.850566079541021 ], [ -64.518351178390233, -9.850835574126251 ], [ -64.518081683804994, -9.850835574126267 ], [ -64.518081683804994, -9.851105068711497 ] ] ], [ [ [ -64.51107482458886, -9.849757595785317 ], [ -64.5113443191741, -9.849757595785322 ], [ -64.5113443191741, -9.850835574126263 ], [ -64.51107482458886, -9.850835574126256 ], [ -64.51107482458886, -9.851105068711496 ], [ -64.511883308344565, -9.851105068711499 ], [ -64.511883308344565, -9.850835574126261 ], [ -64.512152802929805, -9.850835574126263 ], [ -64.512152802929805, -9.85002709037056 ], [ -64.511883308344565, -9.85002709037056 ], [ -64.511883308344565, -9.84841012285913 ], [ -64.5113443191741, -9.848410122859145 ], [ -64.5113443191741, -9.848140628273894 ], [ -64.51080533000362, -9.848140628273903 ], [ -64.51080533000362, -9.84841012285913 ], [ -64.510535835418381, -9.848410122859129 ], [ -64.510535835418381, -9.848949112029603 ], [ -64.51080533000362, -9.848949112029608 ], [ -64.51080533000362, -9.849488101200089 ], [ -64.51107482458886, -9.849488101200071 ], [ -64.51107482458886, -9.849757595785317 ] ] ], [ [ [ -64.519159662145938, -9.844906693251069 ], [ -64.519159662145938, -9.845176187836302 ], [ -64.518890167560699, -9.845176187836302 ], [ -64.518890167560699, -9.845445682421552 ], [ -64.517812189219754, -9.845445682421547 ], [ -64.517812189219754, -9.845715177006785 ], [ -64.517273200049289, -9.845715177006774 ], [ -64.517273200049289, -9.845984671592015 ], [ -64.517003705464049, -9.845984671592021 ], [ -64.517003705464049, -9.84652366076249 ], [ -64.516734210878809, -9.84652366076249 ], [ -64.516734210878809, -9.847332144518198 ], [ -64.517003705464049, -9.847332144518191 ], [ -64.517003705464049, -9.847601639103436 ], [ -64.518351178390233, -9.847601639103427 ], [ -64.518351178390233, -9.84787113368867 ], [ -64.518620672975459, -9.847871133688672 ], [ -64.518620672975459, -9.847601639103434 ], [ -64.519159662145938, -9.847601639103425 ], [ -64.519159662145938, -9.847332144518191 ], [ -64.519429156731178, -9.847332144518198 ], [ -64.519429156731178, -9.846523660762477 ], [ -64.519159662145938, -9.846523660762479 ], [ -64.519159662145938, -9.84598467159201 ], [ -64.518890167560699, -9.845984671592015 ], [ -64.518890167560699, -9.845715177006774 ], [ -64.519429156731178, -9.845715177006783 ], [ -64.519429156731178, -9.845176187836309 ], [ -64.520507135072123, -9.84517618783631 ], [ -64.520507135072123, -9.844906693251065 ], [ -64.520237640486883, -9.844906693251071 ], [ -64.520237640486883, -9.8435592203249 ], [ -64.519968145901643, -9.843559220324885 ], [ -64.519968145901643, -9.844367704080604 ], [ -64.519698651316403, -9.844367704080588 ], [ -64.519698651316403, -9.844637198665836 ], [ -64.519429156731178, -9.844637198665838 ], [ -64.519429156731178, -9.84490669325108 ], [ -64.519159662145938, -9.844906693251069 ] ] ], [ [ [ -64.522663091754012, -9.8443677040806 ], [ -64.522932586339238, -9.844367704080595 ], [ -64.522932586339238, -9.843559220324892 ], [ -64.522663091754012, -9.843559220324899 ], [ -64.522663091754012, -9.843289725739655 ], [ -64.522393597168758, -9.843289725739652 ], [ -64.522393597168758, -9.843020231154412 ], [ -64.521585113413067, -9.843020231154417 ], [ -64.521585113413067, -9.843289725739654 ], [ -64.521854607998293, -9.843289725739661 ], [ -64.521854607998293, -9.843559220324895 ], [ -64.522393597168758, -9.843559220324883 ], [ -64.522393597168758, -9.843828714910135 ], [ -64.522663091754012, -9.843828714910135 ], [ -64.522663091754012, -9.8443677040806 ] ] ], [ [ [ -64.519968145901643, -9.843020231154412 ], [ -64.519698651316403, -9.843020231154412 ], [ -64.519698651316403, -9.843559220324895 ], [ -64.519968145901643, -9.843559220324885 ], [ -64.519968145901643, -9.843020231154412 ] ] ], [ [ [ -64.521585113413067, -9.842750736569188 ], [ -64.521315618827828, -9.842750736569181 ], [ -64.521315618827828, -9.843020231154426 ], [ -64.521585113413067, -9.843020231154417 ], [ -64.521585113413067, -9.842750736569188 ] ] ], [ [ [ -64.519698651316403, -9.842481241983952 ], [ -64.519429156731178, -9.84248124198395 ], [ -64.519429156731178, -9.843020231154412 ], [ -64.519698651316403, -9.843020231154412 ], [ -64.519698651316403, -9.842481241983952 ] ] ], [ [ [ -64.521315618827828, -9.842481241983943 ], [ -64.521046124242588, -9.84248124198395 ], [ -64.521046124242588, -9.84275073656918 ], [ -64.521315618827828, -9.842750736569181 ], [ -64.521315618827828, -9.842481241983943 ] ] ], [ [ [ -64.521046124242588, -9.841942252813473 ], [ -64.520776629657348, -9.841942252813482 ], [ -64.520776629657348, -9.842481241983954 ], [ -64.521046124242588, -9.84248124198395 ], [ -64.521046124242588, -9.841942252813473 ] ] ], [ [ [ -64.514039265026454, -9.841942252813473 ], [ -64.514847748782159, -9.841942252813467 ], [ -64.514847748782159, -9.84167275822824 ], [ -64.515386737952639, -9.841672758228245 ], [ -64.515386737952639, -9.841403263643008 ], [ -64.515656232537864, -9.841403263643006 ], [ -64.515656232537864, -9.840594779887295 ], [ -64.515925727123104, -9.840594779887292 ], [ -64.515925727123104, -9.840325285302065 ], [ -64.515117243367399, -9.840325285302054 ], [ -64.515117243367399, -9.840864274472542 ], [ -64.514847748782159, -9.840864274472537 ], [ -64.514847748782159, -9.841133769057768 ], [ -64.514308759611694, -9.841133769057768 ], [ -64.514308759611694, -9.841672758228231 ], [ -64.514039265026454, -9.841672758228233 ], [ -64.514039265026454, -9.841942252813473 ] ] ], [ [ [ -64.528052983458736, -9.840325285302066 ], [ -64.526975005117791, -9.840325285302054 ], [ -64.526975005117791, -9.840594779887297 ], [ -64.528052983458736, -9.84059477988729 ], [ -64.528052983458736, -9.840325285302066 ] ] ], [ [ [ -64.519159662145938, -9.842481241983942 ], [ -64.519429156731178, -9.84248124198395 ], [ -64.519429156731178, -9.838977812375884 ], [ -64.519159662145938, -9.838977812375884 ], [ -64.519159662145938, -9.838708317790648 ], [ -64.518890167560699, -9.838708317790651 ], [ -64.518890167560699, -9.838438823205419 ], [ -64.518351178390233, -9.838438823205406 ], [ -64.518351178390233, -9.83870831779064 ], [ -64.518620672975459, -9.838708317790649 ], [ -64.518620672975459, -9.839516801546358 ], [ -64.518890167560699, -9.839516801546361 ], [ -64.518890167560699, -9.84059477988729 ], [ -64.519159662145938, -9.84059477988729 ], [ -64.519159662145938, -9.842481241983942 ] ] ], [ [ [ -64.528322478043947, -9.840055790716827 ], [ -64.528052983458736, -9.840055790716834 ], [ -64.528052983458736, -9.840325285302066 ], [ -64.528591972629187, -9.840325285302058 ], [ -64.528591972629187, -9.839786296131589 ], [ -64.528322478043947, -9.839786296131592 ], [ -64.528322478043947, -9.840055790716827 ] ] ], [ [ [ -64.528861467214426, -9.83924730696112 ], [ -64.528591972629187, -9.839247306961123 ], [ -64.528591972629187, -9.839786296131589 ], [ -64.528861467214426, -9.839786296131582 ], [ -64.528861467214426, -9.83924730696112 ] ] ], [ [ [ -64.529400456384892, -9.838438823205417 ], [ -64.52913096179968, -9.838438823205401 ], [ -64.52913096179968, -9.838169328620181 ], [ -64.528322478043947, -9.838169328620179 ], [ -64.528322478043947, -9.838438823205403 ], [ -64.528861467214426, -9.83843882320541 ], [ -64.528861467214426, -9.83924730696112 ], [ -64.52913096179968, -9.839247306961123 ], [ -64.52913096179968, -9.838708317790649 ], [ -64.529400456384892, -9.838708317790651 ], [ -64.529400456384892, -9.838438823205417 ] ] ], [ [ [ -64.525897026776846, -9.836552361108755 ], [ -64.526166521362072, -9.836552361108764 ], [ -64.526166521362072, -9.837091350279231 ], [ -64.526705510532537, -9.837091350279239 ], [ -64.526705510532537, -9.836821855693994 ], [ -64.527513994288242, -9.836821855693994 ], [ -64.527513994288242, -9.836552361108762 ], [ -64.527783488873482, -9.836552361108764 ], [ -64.527783488873482, -9.836282866523524 ], [ -64.527244499703016, -9.836282866523518 ], [ -64.527244499703016, -9.836013371938284 ], [ -64.526975005117791, -9.836013371938293 ], [ -64.526975005117791, -9.835743877353053 ], [ -64.526705510532537, -9.835743877353044 ], [ -64.526705510532537, -9.835474382767815 ], [ -64.526436015947297, -9.835474382767815 ], [ -64.526436015947297, -9.83574387735305 ], [ -64.525897026776846, -9.835743877353048 ], [ -64.525897026776846, -9.836013371938289 ], [ -64.526166521362072, -9.836013371938288 ], [ -64.526166521362072, -9.836282866523529 ], [ -64.525897026776846, -9.836282866523526 ], [ -64.525897026776846, -9.836552361108755 ] ] ], [ [ [ -64.538024283112449, -9.832509942330212 ], [ -64.537754788527209, -9.832509942330224 ], [ -64.537754788527209, -9.832779436915462 ], [ -64.53748529394197, -9.832779436915459 ], [ -64.53748529394197, -9.833048931500702 ], [ -64.537215799356744, -9.833048931500686 ], [ -64.537215799356744, -9.833318426085926 ], [ -64.536676810186265, -9.833318426085928 ], [ -64.536676810186265, -9.833587920671169 ], [ -64.536407315601025, -9.833587920671166 ], [ -64.536407315601025, -9.833857415256402 ], [ -64.53586832643056, -9.833857415256398 ], [ -64.53586832643056, -9.834126909841633 ], [ -64.53559883184532, -9.834126909841633 ], [ -64.53559883184532, -9.8338574152564 ], [ -64.53532933726008, -9.8338574152564 ], [ -64.53532933726008, -9.834126909841627 ], [ -64.535059842674855, -9.834126909841633 ], [ -64.535059842674855, -9.8338574152564 ], [ -64.534790348089615, -9.833857415256405 ], [ -64.534790348089615, -9.834126909841633 ], [ -64.53398186433391, -9.834126909841647 ], [ -64.53398186433391, -9.834396404426865 ], [ -64.534251358919136, -9.834396404426879 ], [ -64.534251358919136, -9.834935393597345 ], [ -64.536137821015799, -9.834935393597339 ], [ -64.536137821015799, -9.835204888182577 ], [ -64.536407315601025, -9.835204888182581 ], [ -64.536407315601025, -9.834935393597352 ], [ -64.536676810186265, -9.834935393597341 ], [ -64.536676810186265, -9.834665899012109 ], [ -64.537754788527209, -9.8346658990121 ], [ -64.537754788527209, -9.834935393597346 ], [ -64.538024283112449, -9.834935393597341 ], [ -64.538024283112449, -9.834665899012105 ], [ -64.538293777697675, -9.834665899012109 ], [ -64.538293777697675, -9.833587920671173 ], [ -64.538563272282914, -9.833587920671162 ], [ -64.538563272282914, -9.833048931500699 ], [ -64.538832766868154, -9.833048931500693 ], [ -64.538832766868154, -9.832509942330223 ], [ -64.539102261453394, -9.832509942330217 ], [ -64.539102261453394, -9.831970953159743 ], [ -64.539371756038619, -9.831970953159745 ], [ -64.539371756038619, -9.831701458574507 ], [ -64.539102261453394, -9.831701458574514 ], [ -64.539102261453394, -9.831162469404042 ], [ -64.538832766868154, -9.831162469404047 ], [ -64.538832766868154, -9.831431963989273 ], [ -64.538563272282914, -9.831431963989274 ], [ -64.538563272282914, -9.831970953159756 ], [ -64.538293777697675, -9.831970953159752 ], [ -64.538293777697675, -9.832240447744979 ], [ -64.538024283112449, -9.832240447744983 ], [ -64.538024283112449, -9.832509942330212 ] ] ], [ [ [ -64.543683669402398, -9.832509942330228 ], [ -64.543683669402398, -9.832240447744983 ], [ -64.543414174817158, -9.832240447744981 ], [ -64.543414174817158, -9.829276007307383 ], [ -64.543144680231933, -9.829276007307387 ], [ -64.543144680231933, -9.832509942330219 ], [ -64.543414174817158, -9.832509942330219 ], [ -64.543414174817158, -9.832779436915459 ], [ -64.544222658572863, -9.832779436915452 ], [ -64.544222658572863, -9.832509942330217 ], [ -64.543683669402398, -9.832509942330228 ] ] ], [ [ [ -64.4865508173324, -10.024120592432906 ], [ -64.486011828161921, -10.024120592432922 ], [ -64.486011828161921, -10.024390087018157 ], [ -64.485472838991456, -10.024390087018142 ], [ -64.485472838991456, -10.024659581603391 ], [ -64.484933849820976, -10.024659581603393 ], [ -64.484933849820976, -10.024929076188627 ], [ -64.484394860650511, -10.024929076188617 ], [ -64.484394860650511, -10.025198570773851 ], [ -64.483855871480031, -10.025198570773863 ], [ -64.483855871480031, -10.025468065359089 ], [ -64.483586376894806, -10.025468065359089 ], [ -64.483586376894806, -10.02573755994433 ], [ -64.483047387724326, -10.025737559944329 ], [ -64.483047387724326, -10.026276549114796 ], [ -64.482508398553861, -10.026276549114794 ], [ -64.482508398553861, -10.026546043700032 ], [ -64.481969409383382, -10.026546043700037 ], [ -64.481969409383382, -10.026815538285272 ], [ -64.481430420212916, -10.02681553828527 ], [ -64.481430420212916, -10.027085032870508 ], [ -64.480621936457212, -10.027085032870509 ], [ -64.480621936457212, -10.027354527455742 ], [ -64.480082947286732, -10.027354527455739 ], [ -64.480082947286732, -10.027624022040973 ], [ -64.479543958116267, -10.027624022040991 ], [ -64.479543958116267, -10.028163011211459 ], [ -64.480352441871972, -10.028163011211445 ], [ -64.480352441871972, -10.027893516626216 ], [ -64.480891431042437, -10.027893516626225 ], [ -64.480891431042437, -10.027624022040984 ], [ -64.481430420212916, -10.027624022040989 ], [ -64.481430420212916, -10.027354527455747 ], [ -64.481969409383382, -10.027354527455742 ], [ -64.481969409383382, -10.027085032870506 ], [ -64.482508398553861, -10.027085032870515 ], [ -64.482508398553861, -10.026815538285272 ], [ -64.483047387724326, -10.026815538285277 ], [ -64.483047387724326, -10.026546043700034 ], [ -64.483586376894806, -10.026546043700041 ], [ -64.483586376894806, -10.026276549114806 ], [ -64.484125366065271, -10.026276549114797 ], [ -64.484125366065271, -10.026007054529556 ], [ -64.484664355235751, -10.026007054529572 ], [ -64.484664355235751, -10.025737559944334 ], [ -64.485203344406216, -10.025737559944334 ], [ -64.485203344406216, -10.025468065359089 ], [ -64.485742333576695, -10.025468065359085 ], [ -64.485742333576695, -10.025198570773856 ], [ -64.486281322747161, -10.025198570773858 ], [ -64.486281322747161, -10.024929076188618 ], [ -64.4865508173324, -10.024929076188611 ], [ -64.4865508173324, -10.024659581603395 ], [ -64.487089806502865, -10.024659581603382 ], [ -64.487089806502865, -10.024390087018151 ], [ -64.487359301088105, -10.024390087018155 ], [ -64.487359301088105, -10.024120592432917 ], [ -64.48789829025857, -10.024120592432919 ], [ -64.48789829025857, -10.023851097847681 ], [ -64.48843727942905, -10.023851097847672 ], [ -64.48843727942905, -10.02358160326245 ], [ -64.488976268599515, -10.023581603262443 ], [ -64.488976268599515, -10.023042614091979 ], [ -64.48870677401429, -10.023042614091972 ], [ -64.48870677401429, -10.023312108677201 ], [ -64.48816778484381, -10.023312108677212 ], [ -64.48816778484381, -10.02358160326245 ], [ -64.487628795673345, -10.023581603262441 ], [ -64.487628795673345, -10.023851097847682 ], [ -64.4865508173324, -10.023851097847668 ], [ -64.4865508173324, -10.024120592432906 ] ] ], [ [ [ -64.494366160304239, -9.919017704190928 ], [ -64.494635654889478, -9.919017704190939 ], [ -64.494635654889478, -9.917670231264747 ], [ -64.494096665718999, -9.917670231264749 ], [ -64.494096665718999, -9.91874820960569 ], [ -64.493827171133759, -9.918748209605685 ], [ -64.493827171133759, -9.919287198776171 ], [ -64.494096665718999, -9.919287198776164 ], [ -64.494096665718999, -9.919556693361409 ], [ -64.494366160304239, -9.919556693361397 ], [ -64.494366160304239, -9.919017704190928 ] ] ], [ [ [ -64.48870677401429, -9.912280339560027 ], [ -64.48843727942905, -9.912280339560025 ], [ -64.48843727942905, -9.912549834145272 ], [ -64.48789829025857, -9.912549834145269 ], [ -64.48789829025857, -9.912819328730505 ], [ -64.48870677401429, -9.912819328730508 ], [ -64.48870677401429, -9.913088823315748 ], [ -64.48978475235522, -9.913088823315748 ], [ -64.48978475235522, -9.912819328730498 ], [ -64.4903237415257, -9.912819328730508 ], [ -64.4903237415257, -9.913088823315737 ], [ -64.490593236110939, -9.913088823315745 ], [ -64.490593236110939, -9.913897307071444 ], [ -64.49005424694046, -9.913897307071453 ], [ -64.49005424694046, -9.91416680165668 ], [ -64.48978475235522, -9.914166801656689 ], [ -64.48978475235522, -9.913897307071442 ], [ -64.489515257769995, -9.913897307071444 ], [ -64.489515257769995, -9.914436296241925 ], [ -64.48978475235522, -9.914436296241922 ], [ -64.48978475235522, -9.914705790827162 ], [ -64.4903237415257, -9.914705790827162 ], [ -64.4903237415257, -9.914436296241922 ], [ -64.490593236110939, -9.914436296241929 ], [ -64.490593236110939, -9.91416680165668 ], [ -64.491132225281405, -9.914166801656677 ], [ -64.491132225281405, -9.914436296241925 ], [ -64.491401719866644, -9.914436296241927 ], [ -64.491401719866644, -9.912549834145265 ], [ -64.491132225281405, -9.912549834145272 ], [ -64.491132225281405, -9.911471855804331 ], [ -64.490862730696165, -9.91147185580432 ], [ -64.490862730696165, -9.911202361219093 ], [ -64.490593236110939, -9.91120236121909 ], [ -64.490593236110939, -9.91147185580432 ], [ -64.489245763184755, -9.911471855804322 ], [ -64.489245763184755, -9.911741350389564 ], [ -64.488976268599515, -9.911741350389564 ], [ -64.488976268599515, -9.912010844974791 ], [ -64.48870677401429, -9.912010844974803 ], [ -64.48870677401429, -9.912280339560027 ] ] ], [ [ [ -64.500834030349893, -9.907429437025799 ], [ -64.500564535764667, -9.907429437025785 ], [ -64.500564535764667, -9.907159942440554 ], [ -64.500025546594188, -9.907159942440552 ], [ -64.500025546594188, -9.906890447855309 ], [ -64.499217062838483, -9.906890447855321 ], [ -64.499217062838483, -9.907429437025799 ], [ -64.499756052008948, -9.907429437025796 ], [ -64.499756052008948, -9.907698931611028 ], [ -64.500834030349893, -9.907698931611028 ], [ -64.500834030349893, -9.907968426196263 ], [ -64.501103524935132, -9.907968426196268 ], [ -64.501103524935132, -9.907698931611028 ], [ -64.501373019520372, -9.907698931611034 ], [ -64.501373019520372, -9.907159942440561 ], [ -64.503798470787487, -9.907159942440547 ], [ -64.503798470787487, -9.906890447855313 ], [ -64.504876449128432, -9.906890447855321 ], [ -64.504876449128432, -9.906620953270082 ], [ -64.501642514105598, -9.906620953270091 ], [ -64.501642514105598, -9.906890447855323 ], [ -64.501373019520372, -9.906890447855313 ], [ -64.501373019520372, -9.906620953270085 ], [ -64.501103524935132, -9.906620953270087 ], [ -64.501103524935132, -9.907159942440552 ], [ -64.500834030349893, -9.907159942440556 ], [ -64.500834030349893, -9.907429437025799 ] ] ], [ [ [ -64.485472838991456, -9.901500556150591 ], [ -64.486011828161921, -9.901500556150602 ], [ -64.486011828161921, -9.901231061565358 ], [ -64.485742333576695, -9.90123106156536 ], [ -64.485742333576695, -9.90096156698012 ], [ -64.486011828161921, -9.900961566980122 ], [ -64.486011828161921, -9.900692072394891 ], [ -64.485742333576695, -9.900692072394882 ], [ -64.485742333576695, -9.90042257780965 ], [ -64.486011828161921, -9.900422577809659 ], [ -64.486011828161921, -9.899883588639193 ], [ -64.486281322747161, -9.899883588639193 ], [ -64.486281322747161, -9.89961409405395 ], [ -64.4865508173324, -9.899614094053955 ], [ -64.4865508173324, -9.899075104883472 ], [ -64.486281322747161, -9.899075104883471 ], [ -64.486281322747161, -9.899344599468725 ], [ -64.486011828161921, -9.899344599468719 ], [ -64.486011828161921, -9.899614094053952 ], [ -64.485742333576695, -9.89961409405395 ], [ -64.485742333576695, -9.900153083224419 ], [ -64.485472838991456, -9.900153083224421 ], [ -64.485472838991456, -9.901500556150591 ] ] ], [ [ [ -64.491132225281405, -9.900153083224428 ], [ -64.491401719866644, -9.900153083224415 ], [ -64.491401719866644, -9.900422577809659 ], [ -64.491671214451884, -9.900422577809657 ], [ -64.491671214451884, -9.900692072394884 ], [ -64.49194070903711, -9.900692072394895 ], [ -64.49194070903711, -9.900961566980133 ], [ -64.492210203622349, -9.900961566980124 ], [ -64.492210203622349, -9.899344599468721 ], [ -64.49194070903711, -9.899344599468717 ], [ -64.49194070903711, -9.899075104883481 ], [ -64.49005424694046, -9.89907510488348 ], [ -64.49005424694046, -9.899344599468726 ], [ -64.490593236110939, -9.899344599468712 ], [ -64.490593236110939, -9.899614094053952 ], [ -64.490862730696165, -9.899614094053943 ], [ -64.490862730696165, -9.89988358863919 ], [ -64.491132225281405, -9.899883588639192 ], [ -64.491132225281405, -9.900153083224428 ] ] ], [ [ [ -64.487628795673345, -9.890990267326394 ], [ -64.487628795673345, -9.890720772741162 ], [ -64.487359301088105, -9.890720772741158 ], [ -64.487359301088105, -9.890990267326405 ], [ -64.487628795673345, -9.890990267326394 ] ] ], [ [ [ -64.487359301088105, -9.890451278155924 ], [ -64.487089806502865, -9.890451278155933 ], [ -64.487089806502865, -9.890720772741171 ], [ -64.487359301088105, -9.890720772741158 ], [ -64.487359301088105, -9.890451278155924 ] ] ], [ [ [ -64.484394860650511, -9.891259761911632 ], [ -64.484664355235751, -9.891259761911629 ], [ -64.484664355235751, -9.890451278155929 ], [ -64.487089806502865, -9.890451278155933 ], [ -64.487089806502865, -9.890181783570688 ], [ -64.485203344406216, -9.890181783570696 ], [ -64.485203344406216, -9.889912288985462 ], [ -64.484664355235751, -9.889912288985458 ], [ -64.484664355235751, -9.889642794400226 ], [ -64.483855871480031, -9.889642794400215 ], [ -64.483855871480031, -9.890181783570704 ], [ -64.483586376894806, -9.890181783570686 ], [ -64.483586376894806, -9.890451278155936 ], [ -64.483855871480031, -9.890451278155938 ], [ -64.483855871480031, -9.890990267326394 ], [ -64.484394860650511, -9.890990267326401 ], [ -64.484394860650511, -9.891259761911632 ] ] ], [ [ [ -64.483047387724326, -9.869700195092772 ], [ -64.482777893139101, -9.869700195092776 ], [ -64.482777893139101, -9.870778173433715 ], [ -64.483047387724326, -9.870778173433713 ], [ -64.483047387724326, -9.871047668018949 ], [ -64.482777893139101, -9.871047668018955 ], [ -64.482777893139101, -9.871317162604189 ], [ -64.483047387724326, -9.87131716260418 ], [ -64.483047387724326, -9.871586657189429 ], [ -64.483586376894806, -9.871586657189416 ], [ -64.483586376894806, -9.87077817343372 ], [ -64.483316882309566, -9.870778173433719 ], [ -64.483316882309566, -9.869700195092769 ], [ -64.483586376894806, -9.869700195092761 ], [ -64.483586376894806, -9.869430700507534 ], [ -64.483855871480031, -9.869430700507527 ], [ -64.483855871480031, -9.869161205922305 ], [ -64.484125366065271, -9.869161205922296 ], [ -64.484125366065271, -9.868891711337064 ], [ -64.484394860650511, -9.868891711337064 ], [ -64.484394860650511, -9.868352722166589 ], [ -64.483855871480031, -9.868352722166588 ], [ -64.483855871480031, -9.86862221675182 ], [ -64.483586376894806, -9.868622216751827 ], [ -64.483586376894806, -9.86889171133706 ], [ -64.483316882309566, -9.868891711337055 ], [ -64.483316882309566, -9.8691612059223 ], [ -64.483047387724326, -9.869161205922303 ], [ -64.483047387724326, -9.869700195092772 ] ] ], [ [ [ -64.486011828161921, -9.866735754655172 ], [ -64.4865508173324, -9.866735754655183 ], [ -64.4865508173324, -9.867005249240414 ], [ -64.487628795673345, -9.867005249240416 ], [ -64.487628795673345, -9.86646626006994 ], [ -64.48789829025857, -9.866466260069943 ], [ -64.48789829025857, -9.866196765484704 ], [ -64.487628795673345, -9.866196765484709 ], [ -64.487628795673345, -9.865657776314237 ], [ -64.487359301088105, -9.865657776314228 ], [ -64.487359301088105, -9.865118787143755 ], [ -64.4865508173324, -9.865118787143752 ], [ -64.4865508173324, -9.865388281728984 ], [ -64.486011828161921, -9.865388281728984 ], [ -64.486011828161921, -9.865927270899464 ], [ -64.485742333576695, -9.865927270899471 ], [ -64.485742333576695, -9.8661967654847 ], [ -64.486011828161921, -9.866196765484695 ], [ -64.486011828161921, -9.866735754655172 ] ] ], [ [ [ -64.482238903968621, -9.865927270899469 ], [ -64.481969409383382, -9.865927270899471 ], [ -64.481969409383382, -9.8661967654847 ], [ -64.482238903968621, -9.866196765484711 ], [ -64.482238903968621, -9.865927270899469 ] ] ], [ [ [ -64.481969409383382, -9.863501819632344 ], [ -64.481699914798156, -9.863501819632337 ], [ -64.481699914798156, -9.865927270899464 ], [ -64.481969409383382, -9.865927270899471 ], [ -64.481969409383382, -9.864579797973283 ], [ -64.482238903968621, -9.864579797973292 ], [ -64.482238903968621, -9.863771314217578 ], [ -64.481969409383382, -9.863771314217583 ], [ -64.481969409383382, -9.863501819632344 ] ] ], [ [ [ -64.484125366065271, -9.86431030338805 ], [ -64.484125366065271, -9.864040808802818 ], [ -64.483855871480031, -9.86404080880282 ], [ -64.483855871480031, -9.864310303388047 ], [ -64.484125366065271, -9.86431030338805 ] ] ], [ [ [ -64.482777893139101, -9.86404080880282 ], [ -64.483047387724326, -9.86404080880282 ], [ -64.483047387724326, -9.864310303388052 ], [ -64.483316882309566, -9.864310303388056 ], [ -64.483316882309566, -9.864040808802823 ], [ -64.483855871480031, -9.86404080880282 ], [ -64.483855871480031, -9.863771314217571 ], [ -64.483586376894806, -9.863771314217585 ], [ -64.483586376894806, -9.863501819632347 ], [ -64.483316882309566, -9.863501819632347 ], [ -64.483316882309566, -9.863232325047111 ], [ -64.483047387724326, -9.863232325047109 ], [ -64.483047387724326, -9.862962830461875 ], [ -64.482777893139101, -9.86296283046188 ], [ -64.482777893139101, -9.86269333587664 ], [ -64.482508398553861, -9.862693335876637 ], [ -64.482508398553861, -9.863232325047115 ], [ -64.482238903968621, -9.863232325047111 ], [ -64.482238903968621, -9.863771314217578 ], [ -64.482508398553861, -9.863771314217576 ], [ -64.482508398553861, -9.864310303388052 ], [ -64.482777893139101, -9.864310303388056 ], [ -64.482777893139101, -9.86404080880282 ] ] ], [ [ [ -64.484125366065271, -9.859728895439041 ], [ -64.483586376894806, -9.859728895439051 ], [ -64.483586376894806, -9.859998390024279 ], [ -64.484125366065271, -9.859998390024282 ], [ -64.484125366065271, -9.859728895439041 ] ] ], [ [ [ -64.484125366065271, -9.859728895439041 ], [ -64.484664355235751, -9.859728895439037 ], [ -64.484664355235751, -9.85945940085381 ], [ -64.484933849820976, -9.859459400853803 ], [ -64.484933849820976, -9.859189906268572 ], [ -64.485203344406216, -9.859189906268577 ], [ -64.485203344406216, -9.858920411683338 ], [ -64.484933849820976, -9.85892041168333 ], [ -64.484933849820976, -9.858650917098107 ], [ -64.485203344406216, -9.8586509170981 ], [ -64.485203344406216, -9.858111927927631 ], [ -64.485472838991456, -9.858111927927622 ], [ -64.485472838991456, -9.857842433342398 ], [ -64.485203344406216, -9.857842433342386 ], [ -64.485203344406216, -9.857572938757157 ], [ -64.484933849820976, -9.857572938757151 ], [ -64.484933849820976, -9.858111927927631 ], [ -64.484664355235751, -9.85811192792762 ], [ -64.484664355235751, -9.858650917098091 ], [ -64.484394860650511, -9.858650917098096 ], [ -64.484394860650511, -9.859189906268577 ], [ -64.484125366065271, -9.859189906268568 ], [ -64.484125366065271, -9.859728895439041 ] ] ], [ [ [ -64.485472838991456, -9.857303444171928 ], [ -64.485203344406216, -9.857303444171915 ], [ -64.485203344406216, -9.857572938757157 ], [ -64.485472838991456, -9.857572938757162 ], [ -64.485472838991456, -9.857303444171928 ] ] ], [ [ [ -64.508649373321731, -9.852991530808149 ], [ -64.508379878736505, -9.852991530808151 ], [ -64.508379878736505, -9.853261025393387 ], [ -64.508649373321731, -9.85326102539339 ], [ -64.508649373321731, -9.852991530808149 ] ] ], [ [ [ -64.50918836249221, -9.852722036222914 ], [ -64.508649373321731, -9.852722036222909 ], [ -64.508649373321731, -9.852991530808149 ], [ -64.50918836249221, -9.85299153080814 ], [ -64.50918836249221, -9.852722036222914 ] ] ], [ [ [ -64.482238903968621, -9.845176187836298 ], [ -64.481969409383382, -9.845176187836307 ], [ -64.481969409383382, -9.844637198665829 ], [ -64.481430420212916, -9.844637198665835 ], [ -64.481430420212916, -9.844906693251065 ], [ -64.481699914798156, -9.844906693251074 ], [ -64.481699914798156, -9.845445682421545 ], [ -64.481969409383382, -9.845445682421538 ], [ -64.481969409383382, -9.848140628273905 ], [ -64.482238903968621, -9.84814062827391 ], [ -64.482238903968621, -9.845176187836298 ] ] ], [ [ [ -64.481430420212916, -9.844367704080597 ], [ -64.481160925627677, -9.844367704080604 ], [ -64.481160925627677, -9.844637198665843 ], [ -64.481430420212916, -9.844637198665835 ], [ -64.481430420212916, -9.844367704080597 ] ] ], [ [ [ -64.481699914798156, -9.837630339449699 ], [ -64.481430420212916, -9.837630339449708 ], [ -64.481430420212916, -9.837899834034939 ], [ -64.481160925627677, -9.837899834034948 ], [ -64.481160925627677, -9.837630339449703 ], [ -64.480891431042437, -9.837630339449694 ], [ -64.480891431042437, -9.838169328620179 ], [ -64.481699914798156, -9.838169328620172 ], [ -64.481699914798156, -9.837630339449699 ] ] ], [ [ [ -64.481969409383382, -9.836821855694003 ], [ -64.481699914798156, -9.836821855694001 ], [ -64.481699914798156, -9.837630339449699 ], [ -64.481969409383382, -9.837630339449703 ], [ -64.481969409383382, -9.836821855694003 ] ] ], [ [ [ -64.480082947286732, -9.837091350279234 ], [ -64.480352441871972, -9.837091350279232 ], [ -64.480352441871972, -9.837360844864458 ], [ -64.480621936457212, -9.837360844864468 ], [ -64.480621936457212, -9.837630339449703 ], [ -64.480891431042437, -9.837630339449694 ], [ -64.480891431042437, -9.837091350279231 ], [ -64.480621936457212, -9.837091350279227 ], [ -64.480621936457212, -9.836552361108755 ], [ -64.480352441871972, -9.836552361108764 ], [ -64.480352441871972, -9.836282866523517 ], [ -64.480621936457212, -9.836282866523522 ], [ -64.480621936457212, -9.836013371938286 ], [ -64.480352441871972, -9.836013371938295 ], [ -64.480352441871972, -9.835474382767815 ], [ -64.479543958116267, -9.835474382767821 ], [ -64.479543958116267, -9.835204888182579 ], [ -64.479274463531027, -9.835204888182586 ], [ -64.479274463531027, -9.835743877353051 ], [ -64.479543958116267, -9.835743877353055 ], [ -64.479543958116267, -9.83628286652352 ], [ -64.479813452701507, -9.836282866523529 ], [ -64.479813452701507, -9.836821855693998 ], [ -64.480082947286732, -9.836821855693991 ], [ -64.480082947286732, -9.837091350279234 ] ] ], [ [ [ -64.482238903968621, -9.822538642676488 ], [ -64.481969409383382, -9.822538642676491 ], [ -64.481969409383382, -9.824694599358381 ], [ -64.482238903968621, -9.824694599358388 ], [ -64.482238903968621, -9.824964093943613 ], [ -64.482508398553861, -9.824964093943612 ], [ -64.482508398553861, -9.823347126432202 ], [ -64.482238903968621, -9.823347126432209 ], [ -64.482238903968621, -9.822538642676488 ] ] ], [ [ [ -64.481430420212916, -9.817957234727482 ], [ -64.481160925627677, -9.817957234727491 ], [ -64.481160925627677, -9.818226729312714 ], [ -64.481430420212916, -9.81822672931272 ], [ -64.481430420212916, -9.817957234727482 ] ] ], [ [ [ -64.479813452701507, -9.817148750971775 ], [ -64.479543958116267, -9.817148750971771 ], [ -64.479543958116267, -9.817418245557006 ], [ -64.479813452701507, -9.81741824555702 ], [ -64.479813452701507, -9.817148750971775 ] ] ], [ [ [ -64.479813452701507, -9.817148750971775 ], [ -64.480621936457212, -9.81714875097178 ], [ -64.480621936457212, -9.817687740142246 ], [ -64.480891431042437, -9.81768774014224 ], [ -64.480891431042437, -9.817957234727483 ], [ -64.481160925627677, -9.817957234727491 ], [ -64.481160925614347, -9.817572791723366 ], [ -64.481100752078007, -9.817566651369392 ], [ -64.481059847862895, -9.817418245582157 ], [ -64.480891431042437, -9.817418245557009 ], [ -64.480891431013873, -9.816824404356023 ], [ -64.480625626217005, -9.816635315475295 ], [ -64.480568933332037, -9.816609761904408 ], [ -64.480352441871972, -9.816609761801306 ], [ -64.480352441868035, -9.816499589379193 ], [ -64.480214646189935, -9.81634026724287 ], [ -64.480082947286732, -9.816340267216068 ], [ -64.480082947286732, -9.816879256386535 ], [ -64.479813452701507, -9.816879256386546 ], [ -64.479813452701507, -9.817148750971775 ] ] ], [ [ [ -64.46714720719541, -10.172342614312637 ], [ -64.466877712610184, -10.172342614312637 ], [ -64.466877712610184, -10.172881603483114 ], [ -64.46714720719541, -10.172881603483098 ], [ -64.46714720719541, -10.172342614312637 ] ] ], [ [ [ -64.466608218024945, -10.170725646801221 ], [ -64.466877712610184, -10.170725646801213 ], [ -64.466877712610184, -10.171264635971683 ], [ -64.46714720719541, -10.171264635971696 ], [ -64.46714720719541, -10.172342614312637 ], [ -64.46741670178065, -10.172342614312631 ], [ -64.46741670178065, -10.171803625142156 ], [ -64.467686196365889, -10.171803625142156 ], [ -64.467686196365889, -10.171534130556923 ], [ -64.468225185536355, -10.171534130556934 ], [ -64.468225185536355, -10.170995141386451 ], [ -64.468494680121594, -10.170995141386449 ], [ -64.468494680121594, -10.170725646801214 ], [ -64.468225185536355, -10.170725646801214 ], [ -64.468225185536355, -10.170456152215985 ], [ -64.467686196365889, -10.170456152215991 ], [ -64.467686196365889, -10.170186657630751 ], [ -64.46741670178065, -10.170186657630738 ], [ -64.46741670178065, -10.170456152215984 ], [ -64.46714720719541, -10.170456152215978 ], [ -64.46714720719541, -10.170186657630753 ], [ -64.466877712610184, -10.170186657630744 ], [ -64.466877712610184, -10.170456152215991 ], [ -64.466608218024945, -10.170456152215976 ], [ -64.466608218024945, -10.170725646801221 ] ] ], [ [ [ -64.46579973426924, -10.14916607998236 ], [ -64.465530239684, -10.149166079982358 ], [ -64.465530239684, -10.149705069152828 ], [ -64.46579973426924, -10.149705069152818 ], [ -64.46579973426924, -10.150244058323297 ], [ -64.466069228854465, -10.150244058323302 ], [ -64.466069228854465, -10.150513552908524 ], [ -64.466877712610184, -10.150513552908537 ], [ -64.466877712610184, -10.150244058323292 ], [ -64.466608218024945, -10.150244058323302 ], [ -64.466608218024945, -10.149974563738061 ], [ -64.466877712610184, -10.149974563738065 ], [ -64.466877712610184, -10.149435574567583 ], [ -64.46714720719541, -10.14943557456758 ], [ -64.46714720719541, -10.14970506915283 ], [ -64.46741670178065, -10.149705069152823 ], [ -64.46741670178065, -10.14943557456758 ], [ -64.467686196365889, -10.149435574567585 ], [ -64.467686196365889, -10.149705069152816 ], [ -64.467955690951129, -10.149705069152827 ], [ -64.467955690951129, -10.149435574567594 ], [ -64.468494680121594, -10.14943557456758 ], [ -64.468494680121594, -10.149166079982345 ], [ -64.469572658462539, -10.149166079982354 ], [ -64.469572658462539, -10.149705069152827 ], [ -64.469842153047779, -10.149705069152828 ], [ -64.469842153047779, -10.148627090811875 ], [ -64.469572658462539, -10.148627090811884 ], [ -64.469572658462539, -10.148357596226651 ], [ -64.468494680121594, -10.148357596226647 ], [ -64.468494680121594, -10.14862709081188 ], [ -64.467955690951129, -10.148627090811878 ], [ -64.467955690951129, -10.148357596226647 ], [ -64.46741670178065, -10.148357596226644 ], [ -64.46741670178065, -10.148088101641415 ], [ -64.46714720719541, -10.148088101641408 ], [ -64.46714720719541, -10.148357596226639 ], [ -64.466608218024945, -10.148357596226649 ], [ -64.466608218024945, -10.148627090811889 ], [ -64.466338723439705, -10.148627090811873 ], [ -64.466338723439705, -10.148896585397122 ], [ -64.46579973426924, -10.14889658539712 ], [ -64.46579973426924, -10.14916607998236 ] ] ], [ [ [ -64.434807856967112, -10.14620163954476 ], [ -64.434538362381872, -10.146201639544758 ], [ -64.434538362381872, -10.146471134130001 ], [ -64.434807856967112, -10.146471134129985 ], [ -64.434807856967112, -10.146740628715222 ], [ -64.435346846137577, -10.146740628715229 ], [ -64.435346846137577, -10.147010123300472 ], [ -64.435616340722817, -10.147010123300477 ], [ -64.435616340722817, -10.14674062871523 ], [ -64.435885835308056, -10.146740628715222 ], [ -64.435885835308056, -10.146201639544755 ], [ -64.436694319063761, -10.14620163954476 ], [ -64.436694319063761, -10.146740628715227 ], [ -64.436963813649001, -10.146740628715238 ], [ -64.436963813649001, -10.147010123300463 ], [ -64.437772297404706, -10.147010123300463 ], [ -64.437772297404706, -10.146471134129989 ], [ -64.438041791989946, -10.146471134130001 ], [ -64.438041791989946, -10.145662650374291 ], [ -64.438311286575171, -10.14566265037428 ], [ -64.438311286575171, -10.145123661203813 ], [ -64.437233308234241, -10.145123661203815 ], [ -64.437233308234241, -10.145393155789051 ], [ -64.436424824478522, -10.145393155789057 ], [ -64.436424824478522, -10.145123661203822 ], [ -64.436155329893296, -10.145123661203822 ], [ -64.436155329893296, -10.145662650374295 ], [ -64.435885835308056, -10.145662650374289 ], [ -64.435885835308056, -10.144854166618577 ], [ -64.435616340722817, -10.144854166618574 ], [ -64.435616340722817, -10.145123661203815 ], [ -64.435346846137577, -10.145123661203808 ], [ -64.435346846137577, -10.145393155789053 ], [ -64.435077351552351, -10.145393155789051 ], [ -64.435077351552351, -10.145662650374289 ], [ -64.434807856967112, -10.145662650374279 ], [ -64.434807856967112, -10.14620163954476 ] ] ], [ [ [ -64.46741670178065, -10.114940267657396 ], [ -64.467686196365889, -10.114940267657401 ], [ -64.467686196365889, -10.115209762242632 ], [ -64.467955690951129, -10.115209762242644 ], [ -64.467955690951129, -10.115479256827879 ], [ -64.468494680121594, -10.115479256827864 ], [ -64.468494680121594, -10.115209762242642 ], [ -64.469572658462539, -10.115209762242625 ], [ -64.469572658462539, -10.114940267657399 ], [ -64.470111647633004, -10.114940267657396 ], [ -64.470111647633004, -10.114670773072163 ], [ -64.470650636803484, -10.114670773072163 ], [ -64.470650636803484, -10.1141317839017 ], [ -64.46903366929206, -10.114131783901692 ], [ -64.46903366929206, -10.113862289316453 ], [ -64.468494680121594, -10.113862289316447 ], [ -64.468494680121594, -10.113592794731224 ], [ -64.468225185536355, -10.113592794731222 ], [ -64.468225185536355, -10.113862289316453 ], [ -64.467955690951129, -10.113862289316453 ], [ -64.467955690951129, -10.11359279473122 ], [ -64.46741670178065, -10.11359279473122 ], [ -64.46741670178065, -10.113323300145977 ], [ -64.46714720719541, -10.11332330014598 ], [ -64.46714720719541, -10.113592794731225 ], [ -64.466877712610184, -10.113592794731211 ], [ -64.466877712610184, -10.113862289316447 ], [ -64.46714720719541, -10.113862289316451 ], [ -64.46714720719541, -10.11440127848692 ], [ -64.46741670178065, -10.114401278486927 ], [ -64.46741670178065, -10.114940267657396 ] ] ], [ [ [ -64.462835293831645, -10.111975827219805 ], [ -64.463104788416871, -10.111975827219805 ], [ -64.463104788416871, -10.112245321805034 ], [ -64.463374283002111, -10.11224532180503 ], [ -64.463374283002111, -10.111975827219807 ], [ -64.46364377758735, -10.111975827219805 ], [ -64.46364377758735, -10.112245321805039 ], [ -64.46391327217259, -10.112245321805041 ], [ -64.46391327217259, -10.111975827219803 ], [ -64.464182766757816, -10.111975827219798 ], [ -64.464182766757816, -10.112514816390268 ], [ -64.464721755928295, -10.112514816390282 ], [ -64.464721755928295, -10.112784310975506 ], [ -64.464991250513521, -10.112784310975508 ], [ -64.464991250513521, -10.113053805560742 ], [ -64.465530239684, -10.113053805560741 ], [ -64.465530239684, -10.11278431097551 ], [ -64.46526074509876, -10.11278431097551 ], [ -64.46526074509876, -10.112514816390279 ], [ -64.464991250513521, -10.11251481639027 ], [ -64.464991250513521, -10.111706332634572 ], [ -64.464721755928295, -10.111706332634574 ], [ -64.464721755928295, -10.111167343464096 ], [ -64.46364377758735, -10.111167343464095 ], [ -64.46364377758735, -10.111436838049322 ], [ -64.463374283002111, -10.111436838049324 ], [ -64.463374283002111, -10.111706332634574 ], [ -64.462565799246406, -10.11170633263457 ], [ -64.462565799246406, -10.112245321805037 ], [ -64.462835293831645, -10.112245321805046 ], [ -64.462835293831645, -10.111975827219805 ] ] ], [ [ [ -64.46714720719541, -10.109280881367447 ], [ -64.46714720719541, -10.111167343464089 ], [ -64.466877712610184, -10.1111673434641 ], [ -64.466877712610184, -10.111436838049329 ], [ -64.46714720719541, -10.111436838049338 ], [ -64.46714720719541, -10.111706332634567 ], [ -64.46741670178065, -10.111706332634562 ], [ -64.46741670178065, -10.111436838049338 ], [ -64.467686196365889, -10.111436838049325 ], [ -64.467686196365889, -10.11197582721981 ], [ -64.468225185536355, -10.111975827219799 ], [ -64.468225185536355, -10.112245321805045 ], [ -64.468764174706834, -10.11224532180503 ], [ -64.468764174706834, -10.11251481639027 ], [ -64.470111647633004, -10.112514816390277 ], [ -64.470111647633004, -10.112245321805041 ], [ -64.46903366929206, -10.112245321805039 ], [ -64.46903366929206, -10.111706332634565 ], [ -64.469303163877299, -10.111706332634563 ], [ -64.469303163877299, -10.111167343464098 ], [ -64.469572658462539, -10.111167343464095 ], [ -64.469572658462539, -10.110897848878857 ], [ -64.46903366929206, -10.110897848878858 ], [ -64.46903366929206, -10.110628354293631 ], [ -64.468494680121594, -10.11062835429362 ], [ -64.468494680121594, -10.110358859708391 ], [ -64.468225185536355, -10.110358859708388 ], [ -64.468225185536355, -10.110089365123148 ], [ -64.467955690951129, -10.110089365123155 ], [ -64.467955690951129, -10.109819870537912 ], [ -64.467686196365889, -10.109819870537907 ], [ -64.467686196365889, -10.108741892196974 ], [ -64.46741670178065, -10.108741892196974 ], [ -64.46741670178065, -10.108472397611733 ], [ -64.46579973426924, -10.108472397611738 ], [ -64.46579973426924, -10.108741892196973 ], [ -64.466608218024945, -10.10874189219698 ], [ -64.466608218024945, -10.109011386782216 ], [ -64.466877712610184, -10.109011386782214 ], [ -64.466877712610184, -10.109280881367454 ], [ -64.46714720719541, -10.109280881367447 ] ] ], [ [ [ -64.471728615144428, -10.110628354293633 ], [ -64.471459120559189, -10.110628354293633 ], [ -64.471459120559189, -10.11089784887886 ], [ -64.471728615144428, -10.110897848878869 ], [ -64.471728615144428, -10.111167343464103 ], [ -64.471998109729654, -10.111167343464096 ], [ -64.471998109729654, -10.111436838049334 ], [ -64.472267604314894, -10.111436838049336 ], [ -64.472267604314894, -10.1111673434641 ], [ -64.472806593485373, -10.111167343464095 ], [ -64.472806593485373, -10.110628354293624 ], [ -64.473076088070599, -10.110628354293622 ], [ -64.473076088070599, -10.110089365123143 ], [ -64.473345582655838, -10.11008936512315 ], [ -64.473345582655838, -10.109819870537919 ], [ -64.472806593485373, -10.109819870537914 ], [ -64.472806593485373, -10.109550375952672 ], [ -64.472537098900133, -10.10955037595267 ], [ -64.472537098900133, -10.109280881367447 ], [ -64.471459120559189, -10.109280881367454 ], [ -64.471459120559189, -10.109550375952683 ], [ -64.471728615144428, -10.109550375952688 ], [ -64.471728615144428, -10.109819870537923 ], [ -64.471998109729654, -10.109819870537923 ], [ -64.471998109729654, -10.11008936512316 ], [ -64.471728615144428, -10.110089365123159 ], [ -64.471728615144428, -10.110628354293633 ] ] ], [ [ [ -64.471998109729654, -10.098501097958007 ], [ -64.472537098900133, -10.098501097958009 ], [ -64.472537098900133, -10.097962108787534 ], [ -64.472806593485373, -10.097962108787543 ], [ -64.472806593485373, -10.097692614202298 ], [ -64.472537098900133, -10.097692614202302 ], [ -64.472537098900133, -10.097423119617062 ], [ -64.470381142218244, -10.097423119617064 ], [ -64.470381142218244, -10.097692614202298 ], [ -64.470650636803484, -10.097692614202296 ], [ -64.470650636803484, -10.097962108787543 ], [ -64.471459120559189, -10.097962108787531 ], [ -64.471459120559189, -10.098231603372772 ], [ -64.471998109729654, -10.098231603372776 ], [ -64.471998109729654, -10.098501097958007 ] ] ], [ [ [ -64.390479789234007, -10.074689417341002 ], [ -64.390485308809957, -10.074785574484602 ], [ -64.390610744988436, -10.07478557445725 ], [ -64.39061074497279, -10.075789568613333 ], [ -64.390659899113004, -10.075829814165989 ], [ -64.39074606938712, -10.0758635528809 ], [ -64.391149734158901, -10.075863552798193 ], [ -64.391149734158901, -10.075055069042483 ], [ -64.391419228744141, -10.075055069042495 ], [ -64.391419228744141, -10.074785574457255 ], [ -64.391149734158901, -10.07478557445725 ], [ -64.391149734158901, -10.074516079872019 ], [ -64.390410913772783, -10.074516079949916 ], [ -64.390479789234007, -10.074689417341002 ] ] ], [ [ [ -64.350456051788285, -9.998788101420745 ], [ -64.348569589691635, -9.998788101420748 ], [ -64.348569589691635, -9.998518606835503 ], [ -64.34803060052117, -9.998518606835507 ], [ -64.34803060052117, -9.998249112250269 ], [ -64.34776110593593, -9.998249112250269 ], [ -64.34776110593593, -9.998518606835514 ], [ -64.347222116765465, -9.998518606835498 ], [ -64.347222116765465, -10.000674563517391 ], [ -64.346952622180225, -10.000674563517391 ], [ -64.346952622180225, -10.001213552687858 ], [ -64.346683127594986, -10.00121355268786 ], [ -64.346683127594986, -10.001483047273098 ], [ -64.346952622180225, -10.001483047273094 ], [ -64.346952622180225, -10.002022036443579 ], [ -64.347222116765465, -10.002022036443581 ], [ -64.347222116765465, -10.002291531028817 ], [ -64.346952622180225, -10.002291531028803 ], [ -64.346952622180225, -10.002830520199273 ], [ -64.346683127594986, -10.002830520199279 ], [ -64.346683127594986, -10.003369509369762 ], [ -64.346413633009746, -10.003369509369762 ], [ -64.346413633009746, -10.004447487710696 ], [ -64.346144138424521, -10.004447487710694 ], [ -64.346144138424521, -10.004716982295932 ], [ -64.346413633009746, -10.004716982295935 ], [ -64.346413633009746, -10.004986476881164 ], [ -64.346144138424521, -10.004986476881168 ], [ -64.346144138424521, -10.005255971466415 ], [ -64.346413633009746, -10.00525597146641 ], [ -64.346413633009746, -10.005525466051646 ], [ -64.347491611350691, -10.005525466051649 ], [ -64.347491611350691, -10.005255971466408 ], [ -64.34803060052117, -10.005255971466411 ], [ -64.34803060052117, -10.004986476881164 ], [ -64.348300095106396, -10.004986476881177 ], [ -64.348300095106396, -10.004716982295934 ], [ -64.348569589691635, -10.004716982295943 ], [ -64.348569589691635, -10.004447487710692 ], [ -64.348839084276875, -10.004447487710696 ], [ -64.348839084276875, -10.003908498540234 ], [ -64.34937807344734, -10.003908498540225 ], [ -64.34937807344734, -10.003369509369758 ], [ -64.34964756803258, -10.003369509369762 ], [ -64.34964756803258, -10.003100014784515 ], [ -64.34991706261782, -10.003100014784527 ], [ -64.34991706261782, -10.002561025614048 ], [ -64.350186557203045, -10.002561025614044 ], [ -64.350186557203045, -10.002291531028813 ], [ -64.350456051788285, -10.002291531028815 ], [ -64.350456051788285, -10.001752541858332 ], [ -64.350725546373525, -10.001752541858341 ], [ -64.350725546373525, -10.00121355268787 ], [ -64.350995040958765, -10.001213552687862 ], [ -64.350995040958765, -10.000944058102631 ], [ -64.35126453554399, -10.000944058102636 ], [ -64.35126453554399, -10.000405068932167 ], [ -64.35180352471447, -10.000405068932153 ], [ -64.35180352471447, -9.999866079761691 ], [ -64.352073019299709, -9.999866079761691 ], [ -64.352073019299709, -9.999327090591217 ], [ -64.352342513884935, -9.999327090591221 ], [ -64.352342513884935, -9.998788101420748 ], [ -64.352612008470174, -9.998788101420752 ], [ -64.352612008470174, -9.998518606835512 ], [ -64.352342513884935, -9.998518606835511 ], [ -64.352342513884935, -9.997979617665035 ], [ -64.352073019299709, -9.997979617665045 ], [ -64.352073019299709, -9.997710123079804 ], [ -64.35180352471447, -9.997710123079807 ], [ -64.35180352471447, -9.997979617665029 ], [ -64.35126453554399, -9.997979617665044 ], [ -64.35126453554399, -9.998249112250276 ], [ -64.350725546373525, -9.998249112250276 ], [ -64.350725546373525, -9.998518606835511 ], [ -64.350456051788285, -9.998518606835516 ], [ -64.350456051788285, -9.998788101420745 ] ] ], [ [ [ -64.409744860540172, -9.988547307181788 ], [ -64.409475365954947, -9.988547307181781 ], [ -64.409475365954947, -9.98881680176701 ], [ -64.410553344295892, -9.988816801767021 ], [ -64.410553344295892, -9.988547307181776 ], [ -64.411092333466357, -9.988547307181788 ], [ -64.411092333466357, -9.988008318011305 ], [ -64.411361828051596, -9.988008318011309 ], [ -64.411361828051596, -9.987738823426069 ], [ -64.411092333466357, -9.987738823426076 ], [ -64.411092333466357, -9.987469328840834 ], [ -64.410822838881117, -9.987469328840842 ], [ -64.410822838881117, -9.987199834255597 ], [ -64.410283849710652, -9.987199834255604 ], [ -64.410283849710652, -9.986930339670364 ], [ -64.409205871369707, -9.986930339670362 ], [ -64.409205871369707, -9.9871998342556 ], [ -64.408666882199228, -9.987199834255605 ], [ -64.408666882199228, -9.987738823426069 ], [ -64.409475365954947, -9.987738823426065 ], [ -64.409475365954947, -9.988008318011307 ], [ -64.409744860540172, -9.988008318011307 ], [ -64.409744860540172, -9.988547307181788 ] ] ], [ [ [ -64.348569589691635, -9.986121855914663 ], [ -64.34937807344734, -9.986121855914661 ], [ -64.34937807344734, -9.98558286674419 ], [ -64.34964756803258, -9.985582866744188 ], [ -64.34964756803258, -9.984235393818006 ], [ -64.34937807344734, -9.984235393818009 ], [ -64.34937807344734, -9.983696404647533 ], [ -64.349108578862115, -9.983696404647542 ], [ -64.349108578862115, -9.982079437136116 ], [ -64.348839084276875, -9.982079437136123 ], [ -64.348839084276875, -9.982348931721354 ], [ -64.348569589691635, -9.982348931721365 ], [ -64.348569589691635, -9.983426910062294 ], [ -64.348839084276875, -9.983426910062311 ], [ -64.348839084276875, -9.985043877573707 ], [ -64.348569589691635, -9.985043877573716 ], [ -64.348569589691635, -9.986121855914663 ] ] ], [ [ [ -64.405971936346873, -9.830892974818806 ], [ -64.405971936346873, -9.831431963989271 ], [ -64.406241430932113, -9.831431963989283 ], [ -64.406241430932113, -9.831970953159757 ], [ -64.406510925517367, -9.831970953159759 ], [ -64.406510925517367, -9.832240447744976 ], [ -64.406241430932113, -9.832240447744981 ], [ -64.406241430932113, -9.833318426085926 ], [ -64.406510925517367, -9.833318426085924 ], [ -64.406510925517367, -9.832779436915457 ], [ -64.407049914687818, -9.832779436915466 ], [ -64.407049914687818, -9.832240447744994 ], [ -64.407319409273057, -9.832240447744985 ], [ -64.407319409273057, -9.831970953159752 ], [ -64.407049914687818, -9.831970953159749 ], [ -64.407049914687818, -9.831431963989282 ], [ -64.406780420102578, -9.831431963989283 ], [ -64.406780420102578, -9.831162469404036 ], [ -64.406510925517367, -9.831162469404049 ], [ -64.406510925517367, -9.830892974818797 ], [ -64.406241430932113, -9.830892974818813 ], [ -64.406241430932113, -9.830623480233571 ], [ -64.405971936346873, -9.830623480233575 ], [ -64.405971936346873, -9.83035398564834 ], [ -64.405432947176422, -9.83035398564833 ], [ -64.405432947176422, -9.830084491063104 ], [ -64.404893958005928, -9.83008449106309 ], [ -64.404893958005928, -9.83035398564834 ], [ -64.404624463420703, -9.830353985648339 ], [ -64.404624463420703, -9.830623480233568 ], [ -64.405702441761633, -9.830623480233568 ], [ -64.405702441761633, -9.830892974818799 ], [ -64.405971936346873, -9.830892974818806 ] ] ], [ [ [ -64.477657496019617, -9.819035213068428 ], [ -64.476849012263898, -9.81903521306843 ], [ -64.476849012263898, -9.819843696824138 ], [ -64.477388001434377, -9.819843696824133 ], [ -64.477388001434377, -9.820113191409369 ], [ -64.477926990604843, -9.820113191409369 ], [ -64.477926990604843, -9.819304707653664 ], [ -64.477657496019617, -9.819304707653657 ], [ -64.477657496019617, -9.819035213068428 ] ] ], [ [ [ -64.347491611350691, -9.796397667908613 ], [ -64.347222116765465, -9.796397667908625 ], [ -64.347222116765465, -9.796667162493845 ], [ -64.347491611350691, -9.796667162493851 ], [ -64.347491611350691, -9.796397667908613 ] ] ], [ [ [ -64.34803060052117, -9.796397667908616 ], [ -64.348300095106396, -9.796397667908616 ], [ -64.348300095106396, -9.796667162493847 ], [ -64.348569589691635, -9.796667162493844 ], [ -64.348569589691635, -9.796397667908613 ], [ -64.34937807344734, -9.796397667908613 ], [ -64.34937807344734, -9.796128173323389 ], [ -64.348569589691635, -9.796128173323382 ], [ -64.348569589691635, -9.795589184152913 ], [ -64.34776110593593, -9.795589184152918 ], [ -64.34776110593593, -9.796128173323389 ], [ -64.347491611350691, -9.796128173323382 ], [ -64.347491611350691, -9.796397667908613 ], [ -64.34776110593593, -9.796397667908614 ], [ -64.34776110593593, -9.796667162493851 ], [ -64.34803060052117, -9.796667162493847 ], [ -64.34803060052117, -9.796397667908616 ] ] ], [ [ [ -64.35126453554399, -9.795589184152909 ], [ -64.350995040958765, -9.795589184152913 ], [ -64.350995040958765, -9.795319689567677 ], [ -64.34964756803258, -9.795319689567673 ], [ -64.34964756803258, -9.795589184152906 ], [ -64.34937807344734, -9.795589184152906 ], [ -64.34937807344734, -9.796128173323389 ], [ -64.350995040958765, -9.796128173323385 ], [ -64.350995040958765, -9.795858678738146 ], [ -64.35126453554399, -9.795858678738149 ], [ -64.35126453554399, -9.795589184152909 ] ] ], [ [ [ -64.439389264916116, -9.782383949476344 ], [ -64.439658759501356, -9.782383949476358 ], [ -64.439658759501356, -9.782653444061586 ], [ -64.439389264916116, -9.782653444061586 ], [ -64.439389264916116, -9.782922938646813 ], [ -64.439658759501356, -9.782922938646829 ], [ -64.439658759501356, -9.783461927817301 ], [ -64.440197748671835, -9.783461927817303 ], [ -64.440197748671835, -9.783731422402534 ], [ -64.44100623242754, -9.783731422402527 ], [ -64.44100623242754, -9.784000916987768 ], [ -64.441275727012766, -9.784000916987766 ], [ -64.441275727012766, -9.783731422402528 ], [ -64.441545221598005, -9.78373142240253 ], [ -64.441545221598005, -9.783192433232061 ], [ -64.441814716183245, -9.78319243323206 ], [ -64.441814716183245, -9.782922938646816 ], [ -64.441545221598005, -9.782922938646823 ], [ -64.441545221598005, -9.78238394947636 ], [ -64.441275727012766, -9.782383949476351 ], [ -64.441275727012766, -9.781844960305888 ], [ -64.4407367378423, -9.781844960305884 ], [ -64.4407367378423, -9.781575465720652 ], [ -64.440467243257061, -9.78157546572065 ], [ -64.440467243257061, -9.781844960305872 ], [ -64.440197748671835, -9.781844960305873 ], [ -64.440197748671835, -9.781575465720646 ], [ -64.439928254086595, -9.781575465720639 ], [ -64.439928254086595, -9.78211445489112 ], [ -64.439389264916116, -9.782114454891111 ], [ -64.439389264916116, -9.782383949476344 ] ] ], [ [ [ -64.405971936346873, -9.772143155237385 ], [ -64.406241430932113, -9.772143155237385 ], [ -64.406241430932113, -9.773760122748811 ], [ -64.405971936346873, -9.773760122748811 ], [ -64.405971936346873, -9.774299111919273 ], [ -64.405702441761633, -9.774299111919271 ], [ -64.405702441761633, -9.774838101089747 ], [ -64.405432947176422, -9.774838101089747 ], [ -64.405432947176422, -9.777533046942104 ], [ -64.405702441761633, -9.777533046942109 ], [ -64.405702441761633, -9.77780254152735 ], [ -64.405971936346873, -9.777802541527334 ], [ -64.405971936346873, -9.778072036112579 ], [ -64.406510925517367, -9.778072036112571 ], [ -64.406510925517367, -9.777533046942114 ], [ -64.406780420102578, -9.777533046942112 ], [ -64.406780420102578, -9.777263552356873 ], [ -64.406510925517367, -9.777263552356866 ], [ -64.406510925517367, -9.776994057771638 ], [ -64.406780420102578, -9.776994057771631 ], [ -64.406780420102578, -9.776724563186397 ], [ -64.406510925517367, -9.776724563186404 ], [ -64.406510925517367, -9.776455068601155 ], [ -64.406780420102578, -9.776455068601164 ], [ -64.406780420102578, -9.772143155237393 ], [ -64.407049914687818, -9.772143155237387 ], [ -64.407049914687818, -9.771604166066913 ], [ -64.406510925517367, -9.771604166066917 ], [ -64.406510925517367, -9.771334671481679 ], [ -64.406241430932113, -9.771334671481673 ], [ -64.406241430932113, -9.77079568231121 ], [ -64.405702441761633, -9.770795682311208 ], [ -64.405702441761633, -9.771065176896448 ], [ -64.405971936346873, -9.771065176896437 ], [ -64.405971936346873, -9.771334671481677 ], [ -64.405702441761633, -9.771334671481677 ], [ -64.405702441761633, -9.77160416606691 ], [ -64.405971936346873, -9.771604166066926 ], [ -64.405971936346873, -9.772143155237385 ] ] ], [ [ [ -64.389802261232717, -9.770795682311205 ], [ -64.390341250403196, -9.770795682311206 ], [ -64.390341250403196, -9.769178714799798 ], [ -64.390071755817957, -9.769178714799789 ], [ -64.390071755817957, -9.768909220214562 ], [ -64.389802261232717, -9.768909220214557 ], [ -64.389802261232717, -9.770795682311205 ] ] ], [ [ [ -64.414595763074416, -9.761363371827947 ], [ -64.414326268489191, -9.761363371827962 ], [ -64.414326268489191, -9.761632866413192 ], [ -64.414595763074416, -9.761632866413189 ], [ -64.414595763074416, -9.761363371827947 ] ] ], [ [ [ -64.414326268489191, -9.761363371827962 ], [ -64.414326268485382, -9.761209250757219 ], [ -64.414057808792975, -9.761093877243134 ], [ -64.414056773903951, -9.76109387724272 ], [ -64.414056773903951, -9.761363371827956 ], [ -64.414326268489191, -9.761363371827962 ] ] ], [ [ [ -64.366356232317202, -9.75543449095276 ], [ -64.365817243146736, -9.755434490952771 ], [ -64.365817243146736, -9.755703985538005 ], [ -64.365278253976257, -9.755703985537997 ], [ -64.365278253976257, -9.755973480123238 ], [ -64.364739264805792, -9.755973480123235 ], [ -64.364739264805792, -9.756512469293716 ], [ -64.364200275635312, -9.756512469293709 ], [ -64.364200275635312, -9.75759044763466 ], [ -64.364469770220552, -9.757590447634648 ], [ -64.364469770220552, -9.758129436805122 ], [ -64.364739264805792, -9.758129436805119 ], [ -64.364739264805792, -9.758398931390369 ], [ -64.364469770220552, -9.758398931390357 ], [ -64.364469770220552, -9.758668425975605 ], [ -64.364739264805792, -9.758668425975596 ], [ -64.364739264805792, -9.759207415146058 ], [ -64.365008759391031, -9.759207415146061 ], [ -64.365008759391031, -9.759476909731305 ], [ -64.365547748561497, -9.759476909731301 ], [ -64.365547748561497, -9.759746404316546 ], [ -64.366356232317202, -9.759746404316534 ], [ -64.366356232317202, -9.760015898901782 ], [ -64.366625726902441, -9.760015898901774 ], [ -64.366625726902441, -9.760285393487015 ], [ -64.366895221487681, -9.760285393487008 ], [ -64.366895221487681, -9.760554888072244 ], [ -64.367164716072907, -9.760554888072242 ], [ -64.367164716072907, -9.760824382657479 ], [ -64.367434210658146, -9.760824382657484 ], [ -64.367434210658146, -9.760554888072244 ], [ -64.367703705243386, -9.760554888072244 ], [ -64.367703705243386, -9.759746404316541 ], [ -64.367434210658146, -9.759746404316546 ], [ -64.367434210658146, -9.759476909731294 ], [ -64.367164716072907, -9.759476909731314 ], [ -64.367164716072907, -9.759207415146063 ], [ -64.366895221487681, -9.759207415146074 ], [ -64.366895221487681, -9.75893792056084 ], [ -64.366625726902441, -9.758937920560827 ], [ -64.366625726902441, -9.758668425975593 ], [ -64.366356232317202, -9.758668425975591 ], [ -64.366356232317202, -9.758398931390362 ], [ -64.366086737731962, -9.758398931390353 ], [ -64.366086737731962, -9.758129436805115 ], [ -64.365817243146736, -9.75812943680512 ], [ -64.365817243146736, -9.757051458464174 ], [ -64.366086737731962, -9.757051458464179 ], [ -64.366086737731962, -9.756781963878952 ], [ -64.366356232317202, -9.756781963878952 ], [ -64.366356232317202, -9.756512469293707 ], [ -64.366625726902441, -9.756512469293714 ], [ -64.366625726902441, -9.756242974708478 ], [ -64.366895221487681, -9.756242974708481 ], [ -64.366895221487681, -9.755973480123243 ], [ -64.367164716072907, -9.755973480123245 ], [ -64.367164716072907, -9.755703985537993 ], [ -64.368781683584331, -9.755703985537998 ], [ -64.368781683584331, -9.755434490952757 ], [ -64.369320672754796, -9.755434490952759 ], [ -64.369320672754796, -9.754626007197055 ], [ -64.369051178169556, -9.754626007197054 ], [ -64.369051178169556, -9.754356512611823 ], [ -64.368512188999091, -9.754356512611826 ], [ -64.368512188999091, -9.754087018026581 ], [ -64.368242694413851, -9.754087018026588 ], [ -64.368242694413851, -9.753817523441358 ], [ -64.367703705243386, -9.753817523441349 ], [ -64.367703705243386, -9.75354802885612 ], [ -64.367434210658146, -9.75354802885612 ], [ -64.367434210658146, -9.753817523441347 ], [ -64.367164716072907, -9.753817523441354 ], [ -64.367164716072907, -9.754895501782286 ], [ -64.366625726902441, -9.75489550178229 ], [ -64.366625726902441, -9.755164996367531 ], [ -64.366356232317202, -9.75516499636753 ], [ -64.366356232317202, -9.75543449095276 ] ] ], [ [ [ -64.317308217804282, -9.754895501782295 ], [ -64.317577712389507, -9.754895501782288 ], [ -64.317577712389507, -9.75516499636753 ], [ -64.317847206974747, -9.755164996367537 ], [ -64.317847206974747, -9.755434490952766 ], [ -64.318655690730452, -9.755434490952757 ], [ -64.318655690730452, -9.75516499636753 ], [ -64.319194679900932, -9.755164996367538 ], [ -64.319194679900932, -9.754895501782302 ], [ -64.319464174486171, -9.754895501782297 ], [ -64.319464174486171, -9.754626007197055 ], [ -64.319733669071397, -9.754626007197055 ], [ -64.319733669071397, -9.754356512611816 ], [ -64.320003163656637, -9.754356512611817 ], [ -64.320003163656637, -9.753817523441354 ], [ -64.318386196145227, -9.753817523441358 ], [ -64.318386196145227, -9.75354802885612 ], [ -64.318116701559987, -9.753548028856118 ], [ -64.318116701559987, -9.75381752344135 ], [ -64.317577712389507, -9.753817523441352 ], [ -64.317577712389507, -9.754087018026594 ], [ -64.317038723219042, -9.754087018026588 ], [ -64.317038723219042, -9.754626007197057 ], [ -64.317308217804282, -9.754626007197063 ], [ -64.317308217804282, -9.754895501782295 ] ] ], [ [ [ -64.390341250403196, -9.752739545100409 ], [ -64.390610744988436, -9.7527395451004 ], [ -64.390610744988436, -9.751122577588992 ], [ -64.390880239573661, -9.751122577588998 ], [ -64.390880239573661, -9.750853083003756 ], [ -64.390071755817957, -9.750853083003761 ], [ -64.390071755817957, -9.753548028856104 ], [ -64.390341250403196, -9.753548028856118 ], [ -64.390341250403196, -9.753278534270885 ], [ -64.390610744988436, -9.753278534270882 ], [ -64.390610744988436, -9.753009039685637 ], [ -64.390341250403196, -9.753009039685637 ], [ -64.390341250403196, -9.752739545100409 ] ] ], [ [ [ -64.316769228633802, -9.751931061344699 ], [ -64.317038723219042, -9.751931061344701 ], [ -64.317038723219042, -9.752200555929937 ], [ -64.317308217804282, -9.752200555929937 ], [ -64.317308217804282, -9.75247005051517 ], [ -64.317577712389507, -9.75247005051518 ], [ -64.317577712389507, -9.752739545100408 ], [ -64.317308217804282, -9.752739545100409 ], [ -64.317308217804282, -9.753009039685644 ], [ -64.318386196145227, -9.75300903968564 ], [ -64.318386196145227, -9.752739545100397 ], [ -64.318655690730452, -9.752739545100406 ], [ -64.318655690730452, -9.75247005051518 ], [ -64.318116701559987, -9.752470050515164 ], [ -64.318116701559987, -9.752200555929937 ], [ -64.317577712389507, -9.752200555929935 ], [ -64.317577712389507, -9.751931061344706 ], [ -64.317308217804282, -9.751931061344701 ], [ -64.317308217804282, -9.751661566759466 ], [ -64.317038723219042, -9.751661566759461 ], [ -64.317038723219042, -9.751392072174227 ], [ -64.316769228633802, -9.751392072174234 ], [ -64.316769228633802, -9.751122577588983 ], [ -64.316499734048577, -9.751122577588998 ], [ -64.316499734048577, -9.750583588418516 ], [ -64.316230239463337, -9.750583588418527 ], [ -64.316230239463337, -9.750853083003754 ], [ -64.315960744878097, -9.750853083003758 ], [ -64.315960744878097, -9.751122577588996 ], [ -64.315691250292858, -9.751122577588987 ], [ -64.315691250292858, -9.751661566759459 ], [ -64.316769228633802, -9.751661566759466 ], [ -64.316769228633802, -9.751931061344699 ] ] ], [ [ [ -64.317038723219042, -9.749775104662815 ], [ -64.317577712389507, -9.74977510466282 ], [ -64.317577712389507, -9.75004459924804 ], [ -64.318116701559987, -9.750044599248049 ], [ -64.318116701559987, -9.750314093833291 ], [ -64.318655690730452, -9.750314093833291 ], [ -64.318655690730452, -9.750583588418527 ], [ -64.318925185315692, -9.750583588418518 ], [ -64.318925185315692, -9.750853083003756 ], [ -64.319464174486171, -9.750853083003754 ], [ -64.319464174486171, -9.751392072174237 ], [ -64.319733669071397, -9.751392072174225 ], [ -64.319733669071397, -9.750853083003749 ], [ -64.320003163656637, -9.750853083003765 ], [ -64.320003163656637, -9.750044599248044 ], [ -64.320542152827102, -9.750044599248049 ], [ -64.320542152827102, -9.74977510466282 ], [ -64.320811647412341, -9.749775104662806 ], [ -64.320811647412341, -9.749505610077572 ], [ -64.320272658241876, -9.749505610077581 ], [ -64.320272658241876, -9.749775104662811 ], [ -64.319733669071397, -9.749775104662813 ], [ -64.319733669071397, -9.749236115492339 ], [ -64.319464174486171, -9.749236115492346 ], [ -64.319464174486171, -9.748697126321874 ], [ -64.318386196145227, -9.748697126321874 ], [ -64.318386196145227, -9.748966620907098 ], [ -64.317847206974747, -9.748966620907114 ], [ -64.317847206974747, -9.749236115492351 ], [ -64.317308217804282, -9.749236115492343 ], [ -64.317308217804282, -9.749505610077573 ], [ -64.317038723219042, -9.749505610077566 ], [ -64.317038723219042, -9.749775104662815 ] ] ] ] } }
]
}
