{
"type": "FeatureCollection",
"name": "kaxarari",
"crs": { "type": "name", "properties": { "name": "urn:ogc:def:crs:OGC:1.3:CRS84" } },
"features": [
{ "type": "Feature", "properties": { "area_ha": 292.27 }, "geometry": { "type": "MultiPolygon", "coordinates": [ [ [ [ -66.380289267784761, -9.571639183821913 ], [ -66.380289267784761, -9.571369689236679 ], [ -66.380019773199521, -9.571369689236679 ], [ -66.380019773199521, -9.57163918382191 ], [ -66.380289267784761, -9.571639183821913 ] ] ], [ [ [ -66.380289267784761, -9.570830700066207 ], [ -66.380289267784761, -9.571369689236679 ], [ -66.380558762370001, -9.571369689236676 ], [ -66.380558762370001, -9.571100194651432 ], [ -66.380828256955226, -9.571100194651446 ], [ -66.380828256955226, -9.5700222163105 ], [ -66.380558762370001, -9.570022216310489 ], [ -66.380558762370001, -9.569752721725266 ], [ -66.380828256955226, -9.569752721725266 ], [ -66.380828256955226, -9.569213732554783 ], [ -66.381097751540466, -9.569213732554791 ], [ -66.381097751540466, -9.568674743384312 ], [ -66.380558762370001, -9.568674743384323 ], [ -66.380558762370001, -9.569213732554779 ], [ -66.380289267784761, -9.569213732554786 ], [ -66.380289267784761, -9.570291710895738 ], [ -66.380558762370001, -9.570291710895724 ], [ -66.380558762370001, -9.570830700066203 ], [ -66.380289267784761, -9.570830700066207 ] ] ], [ [ [ -66.408047210064055, -9.555469508707759 ], [ -66.408047210064055, -9.555739003293001 ], [ -66.40858619923452, -9.55573900329299 ], [ -66.40858619923452, -9.556277992463466 ], [ -66.40885569381976, -9.556277992463462 ], [ -66.40885569381976, -9.556816981633935 ], [ -66.409125188405, -9.556816981633938 ], [ -66.409125188405, -9.557625465389643 ], [ -66.409394682990225, -9.557625465389643 ], [ -66.409394682990225, -9.557355970804421 ], [ -66.409664177575465, -9.557355970804412 ], [ -66.409664177575465, -9.557086476219171 ], [ -66.409933672160705, -9.557086476219183 ], [ -66.409933672160705, -9.556816981633942 ], [ -66.41047266133117, -9.556816981633933 ], [ -66.41047266133117, -9.55627799246346 ], [ -66.41074215591641, -9.556277992463469 ], [ -66.41074215591641, -9.556008497878238 ], [ -66.41047266133117, -9.556008497878233 ], [ -66.41047266133117, -9.555739003292997 ], [ -66.41074215591641, -9.555739003293001 ], [ -66.41074215591641, -9.554930519537287 ], [ -66.41047266133117, -9.554930519537288 ], [ -66.41047266133117, -9.554661024952058 ], [ -66.409933672160705, -9.554661024952049 ], [ -66.409933672160705, -9.554391530366811 ], [ -66.40885569381976, -9.554391530366811 ], [ -66.40885569381976, -9.55412203578158 ], [ -66.408316704649295, -9.554122035781582 ], [ -66.408316704649295, -9.554930519537287 ], [ -66.408047210064055, -9.55493051953728 ], [ -66.408047210064055, -9.555200014122532 ], [ -66.408316704649295, -9.555200014122526 ], [ -66.408316704649295, -9.555469508707754 ], [ -66.408047210064055, -9.555469508707759 ] ] ], [ [ [ -66.391069051194194, -9.554391530366823 ], [ -66.391069051194194, -9.554930519537285 ], [ -66.391338545779433, -9.554930519537283 ], [ -66.391338545779433, -9.555469508707754 ], [ -66.391608040364659, -9.555469508707768 ], [ -66.391608040364659, -9.555739003293001 ], [ -66.391877534949913, -9.555739003292995 ], [ -66.391877534949913, -9.553852541196346 ], [ -66.392147029535138, -9.553852541196346 ], [ -66.392147029535138, -9.55331355202588 ], [ -66.391877534949913, -9.553313552025879 ], [ -66.391877534949913, -9.553583046611118 ], [ -66.391608040364659, -9.553583046611115 ], [ -66.391608040364659, -9.554122035781589 ], [ -66.391338545779433, -9.554122035781591 ], [ -66.391338545779433, -9.554391530366818 ], [ -66.391069051194194, -9.554391530366823 ] ] ], [ [ [ -66.40696923172311, -9.553852541196344 ], [ -66.40696923172311, -9.553583046611108 ], [ -66.40669973713787, -9.553583046611115 ], [ -66.40669973713787, -9.55385254119634 ], [ -66.40696923172311, -9.553852541196344 ] ] ], [ [ [ -66.407777715478815, -9.553852541196337 ], [ -66.407777715478815, -9.554122035781583 ], [ -66.408316704649295, -9.554122035781582 ], [ -66.408316704649295, -9.553852541196344 ], [ -66.408047210064055, -9.553852541196342 ], [ -66.408047210064055, -9.553313552025884 ], [ -66.408316704649295, -9.553313552025868 ], [ -66.408316704649295, -9.553044057440644 ], [ -66.40723872630835, -9.553044057440644 ], [ -66.40723872630835, -9.553313552025879 ], [ -66.40696923172311, -9.553313552025871 ], [ -66.40696923172311, -9.553583046611108 ], [ -66.40723872630835, -9.55358304661112 ], [ -66.40723872630835, -9.553852541196347 ], [ -66.407777715478815, -9.553852541196337 ] ] ], [ [ [ -66.392416524120378, -9.553313552025879 ], [ -66.392416524120378, -9.553044057440639 ], [ -66.392147029535138, -9.553044057440644 ], [ -66.392147029535138, -9.55331355202588 ], [ -66.392416524120378, -9.553313552025879 ] ] ], [ [ [ -66.403196307529811, -9.553583046611106 ], [ -66.402657318359331, -9.553583046611109 ], [ -66.402657318359331, -9.553852541196338 ], [ -66.403465802115036, -9.553852541196344 ], [ -66.403465802115036, -9.553583046611109 ], [ -66.404004791285516, -9.553583046611113 ], [ -66.404004791285516, -9.553313552025875 ], [ -66.404274285870756, -9.553313552025873 ], [ -66.404274285870756, -9.552774562855394 ], [ -66.404004791285516, -9.552774562855403 ], [ -66.404004791285516, -9.55250506827017 ], [ -66.403735296700276, -9.552505068270177 ], [ -66.403735296700276, -9.552235573684932 ], [ -66.403465802115036, -9.552235573684934 ], [ -66.403465802115036, -9.552774562855396 ], [ -66.403735296700276, -9.552774562855403 ], [ -66.403735296700276, -9.553044057440632 ], [ -66.403465802115036, -9.553044057440644 ], [ -66.403465802115036, -9.553313552025875 ], [ -66.403196307529811, -9.553313552025873 ], [ -66.403196307529811, -9.553583046611106 ] ] ], [ [ [ -66.392955513290858, -9.551966079099691 ], [ -66.393494502461323, -9.551966079099696 ], [ -66.393494502461323, -9.551696584514458 ], [ -66.394033491631802, -9.55169658451446 ], [ -66.394033491631802, -9.551427089929231 ], [ -66.394572480802253, -9.55142708992922 ], [ -66.394572480802253, -9.55088810075876 ], [ -66.394841975387493, -9.550888100758748 ], [ -66.394841975387493, -9.550618606173517 ], [ -66.394572480802253, -9.550618606173511 ], [ -66.394572480802253, -9.550349111588275 ], [ -66.394302986217028, -9.550349111588286 ], [ -66.394302986217028, -9.550079617003046 ], [ -66.394033491631802, -9.550079617003053 ], [ -66.394033491631802, -9.550349111588286 ], [ -66.393494502461323, -9.550349111588275 ], [ -66.393494502461323, -9.550888100758749 ], [ -66.393225007876083, -9.550888100758744 ], [ -66.393225007876083, -9.55142708992922 ], [ -66.392955513290858, -9.551427089929225 ], [ -66.392955513290858, -9.551966079099691 ] ] ], [ [ [ -66.407508220893575, -9.551427089929218 ], [ -66.407508220893575, -9.55169658451446 ], [ -66.409125188405, -9.551696584514467 ], [ -66.409125188405, -9.551427089929231 ], [ -66.409394682990225, -9.551427089929229 ], [ -66.409394682990225, -9.550888100758758 ], [ -66.409125188405, -9.550888100758742 ], [ -66.409125188405, -9.550349111588282 ], [ -66.40858619923452, -9.550349111588286 ], [ -66.40858619923452, -9.55007961700305 ], [ -66.408047210064055, -9.550079617003048 ], [ -66.408047210064055, -9.549810122417808 ], [ -66.40723872630835, -9.549810122417806 ], [ -66.40723872630835, -9.550079617003053 ], [ -66.40696923172311, -9.550079617003043 ], [ -66.40696923172311, -9.550888100758751 ], [ -66.40723872630835, -9.550888100758746 ], [ -66.40723872630835, -9.551427089929232 ], [ -66.407508220893575, -9.551427089929218 ] ] ], [ [ [ -66.382714719051876, -9.546576187394983 ], [ -66.382714719051876, -9.546845681980212 ], [ -66.38244522446665, -9.546845681980216 ], [ -66.38244522446665, -9.54711517656545 ], [ -66.382175729881411, -9.547115176565455 ], [ -66.382175729881411, -9.547384671150684 ], [ -66.381906235296171, -9.547384671150683 ], [ -66.381906235296171, -9.547654165735917 ], [ -66.381636740710945, -9.547654165735908 ], [ -66.381636740710945, -9.5481931549064 ], [ -66.381097751540466, -9.548193154906389 ], [ -66.381097751540466, -9.548462649491624 ], [ -66.381636740710945, -9.548462649491636 ], [ -66.381636740710945, -9.548732144076858 ], [ -66.382175729881411, -9.548732144076858 ], [ -66.382175729881411, -9.549271133247345 ], [ -66.38244522446665, -9.549271133247332 ], [ -66.38244522446665, -9.549540627832576 ], [ -66.383253708222355, -9.549540627832567 ], [ -66.383253708222355, -9.549271133247338 ], [ -66.383792697392821, -9.549271133247331 ], [ -66.383792697392821, -9.549001638662094 ], [ -66.3843316865633, -9.549001638662094 ], [ -66.3843316865633, -9.548732144076871 ], [ -66.38406219197806, -9.548732144076864 ], [ -66.38406219197806, -9.547923660321148 ], [ -66.385140170319005, -9.54792366032115 ], [ -66.385140170319005, -9.547384671150679 ], [ -66.38567915948947, -9.547384671150681 ], [ -66.38567915948947, -9.546576187394969 ], [ -66.38594865407471, -9.546576187394974 ], [ -66.38594865407471, -9.546306692809733 ], [ -66.38567915948947, -9.546306692809747 ], [ -66.38567915948947, -9.546037198224511 ], [ -66.385409664904245, -9.546037198224502 ], [ -66.385409664904245, -9.545767703639275 ], [ -66.383792697392821, -9.54576770363926 ], [ -66.383792697392821, -9.546037198224505 ], [ -66.383253708222355, -9.546037198224496 ], [ -66.383253708222355, -9.546306692809734 ], [ -66.382984213637116, -9.546306692809734 ], [ -66.382984213637116, -9.546576187394972 ], [ -66.382714719051876, -9.546576187394983 ] ] ], [ [ [ -66.377055332761927, -9.546576187394974 ], [ -66.377055332761927, -9.546306692809738 ], [ -66.377324827347167, -9.546306692809743 ], [ -66.377324827347167, -9.546037198224507 ], [ -66.376785838176687, -9.546037198224498 ], [ -66.376785838176687, -9.546306692809738 ], [ -66.376516343591462, -9.546306692809747 ], [ -66.376516343591462, -9.546845681980221 ], [ -66.376785838176687, -9.546845681980205 ], [ -66.376785838176687, -9.546576187394974 ], [ -66.377055332761927, -9.546576187394974 ] ] ], [ [ [ -66.377594321932406, -9.546037198224512 ], [ -66.377594321932406, -9.545767703639273 ], [ -66.377324827347167, -9.545767703639269 ], [ -66.377324827347167, -9.546037198224507 ], [ -66.377594321932406, -9.546037198224512 ] ] ], [ [ [ -66.377863816517632, -9.545767703639273 ], [ -66.377863816517632, -9.545498209054042 ], [ -66.377594321932406, -9.54549820905404 ], [ -66.377594321932406, -9.545767703639273 ], [ -66.377863816517632, -9.545767703639273 ] ] ], [ [ [ -66.378133311102872, -9.545498209054035 ], [ -66.378133311102872, -9.544689725298319 ], [ -66.377863816517632, -9.544689725298326 ], [ -66.377863816517632, -9.545498209054042 ], [ -66.378133311102872, -9.545498209054035 ] ] ], [ [ [ -66.399153888751272, -9.546037198224512 ], [ -66.399153888751272, -9.546306692809747 ], [ -66.399692877921737, -9.546306692809745 ], [ -66.399692877921737, -9.546037198224507 ], [ -66.399423383336526, -9.546037198224498 ], [ -66.399423383336526, -9.545767703639267 ], [ -66.399153888751272, -9.545767703639262 ], [ -66.399153888751272, -9.545498209054028 ], [ -66.398884394166032, -9.545498209054038 ], [ -66.398884394166032, -9.543881241542618 ], [ -66.398614899580792, -9.543881241542625 ], [ -66.398614899580792, -9.543611746957378 ], [ -66.398345404995581, -9.543611746957385 ], [ -66.398345404995581, -9.543342252372149 ], [ -66.398075910410327, -9.543342252372145 ], [ -66.398075910410327, -9.544959219883557 ], [ -66.398345404995581, -9.544959219883555 ], [ -66.398345404995581, -9.545498209054028 ], [ -66.398614899580792, -9.545498209054031 ], [ -66.398614899580792, -9.546037198224511 ], [ -66.399153888751272, -9.546037198224512 ] ] ], [ [ [ -66.392147029535138, -9.544150736127857 ], [ -66.391877534949913, -9.544150736127859 ], [ -66.391877534949913, -9.544420230713081 ], [ -66.391608040364659, -9.544420230713081 ], [ -66.391608040364659, -9.544959219883562 ], [ -66.391877534949913, -9.544959219883568 ], [ -66.391877534949913, -9.545228714468804 ], [ -66.392147029535138, -9.545228714468797 ], [ -66.392147029535138, -9.545498209054042 ], [ -66.392686018705604, -9.545498209054035 ], [ -66.392686018705604, -9.545767703639271 ], [ -66.392955513290858, -9.545767703639269 ], [ -66.392955513290858, -9.546037198224498 ], [ -66.393494502461323, -9.546037198224498 ], [ -66.393494502461323, -9.546306692809742 ], [ -66.393763997046548, -9.546306692809743 ], [ -66.393763997046548, -9.546037198224502 ], [ -66.394302986217028, -9.546037198224507 ], [ -66.394302986217028, -9.545767703639264 ], [ -66.394572480802253, -9.545767703639266 ], [ -66.394572480802253, -9.545498209054035 ], [ -66.394841975387493, -9.545498209054026 ], [ -66.394841975387493, -9.545228714468795 ], [ -66.395111469972747, -9.545228714468788 ], [ -66.395111469972747, -9.544689725298324 ], [ -66.394841975387493, -9.544689725298324 ], [ -66.394841975387493, -9.544150736127849 ], [ -66.394572480802253, -9.544150736127856 ], [ -66.394572480802253, -9.543881241542612 ], [ -66.394302986217028, -9.543881241542612 ], [ -66.394302986217028, -9.543611746957382 ], [ -66.394033491631802, -9.543611746957374 ], [ -66.394033491631802, -9.543881241542621 ], [ -66.393494502461323, -9.543881241542623 ], [ -66.393494502461323, -9.544150736127859 ], [ -66.393225007876083, -9.544150736127852 ], [ -66.393225007876083, -9.543881241542621 ], [ -66.392686018705604, -9.54388124154262 ], [ -66.392686018705604, -9.543611746957389 ], [ -66.392955513290858, -9.543611746957378 ], [ -66.392955513290858, -9.543342252372147 ], [ -66.392686018705604, -9.543342252372137 ], [ -66.392686018705604, -9.543072757786913 ], [ -66.392416524120378, -9.543072757786911 ], [ -66.392416524120378, -9.543342252372145 ], [ -66.392147029535138, -9.543342252372144 ], [ -66.392147029535138, -9.543611746957382 ], [ -66.392416524120378, -9.54361174695738 ], [ -66.392416524120378, -9.54388124154262 ], [ -66.392147029535138, -9.543881241542614 ], [ -66.392147029535138, -9.544150736127857 ] ] ], [ [ [ -66.377324827347167, -9.543342252372149 ], [ -66.377055332761927, -9.543342252372142 ], [ -66.377055332761927, -9.544150736127852 ], [ -66.377594321932406, -9.544150736127859 ], [ -66.377594321932406, -9.544689725298323 ], [ -66.377863816517632, -9.544689725298326 ], [ -66.377863816517632, -9.543881241542627 ], [ -66.377324827347167, -9.543881241542618 ], [ -66.377324827347167, -9.543342252372149 ] ] ], [ [ [ -66.38406219197806, -9.540916801105023 ], [ -66.38406219197806, -9.541186295690256 ], [ -66.384870675733765, -9.541186295690268 ], [ -66.384870675733765, -9.540916801105023 ], [ -66.385140170319005, -9.540916801105029 ], [ -66.385140170319005, -9.540377811934553 ], [ -66.385409664904245, -9.540377811934562 ], [ -66.385409664904245, -9.540108317349318 ], [ -66.38460118114854, -9.540108317349315 ], [ -66.38460118114854, -9.540377811934551 ], [ -66.383523202807595, -9.54037781193456 ], [ -66.383523202807595, -9.540647306519796 ], [ -66.383792697392821, -9.540647306519787 ], [ -66.383792697392821, -9.540916801105016 ], [ -66.38406219197806, -9.540916801105023 ] ] ], [ [ [ -66.382714719051876, -9.539299833593613 ], [ -66.382714719051876, -9.539030339008374 ], [ -66.382984213637116, -9.539030339008368 ], [ -66.382984213637116, -9.538491349837908 ], [ -66.383253708222355, -9.53849134983791 ], [ -66.383253708222355, -9.537952360667425 ], [ -66.382984213637116, -9.537952360667431 ], [ -66.382984213637116, -9.537413371496955 ], [ -66.38244522446665, -9.537413371496957 ], [ -66.38244522446665, -9.536604887741248 ], [ -66.381906235296171, -9.536604887741245 ], [ -66.381906235296171, -9.5384913498379 ], [ -66.382175729881411, -9.538491349837892 ], [ -66.382175729881411, -9.539030339008368 ], [ -66.38244522446665, -9.539030339008368 ], [ -66.38244522446665, -9.539299833593615 ], [ -66.382714719051876, -9.539299833593613 ] ] ], [ [ [ -66.380289267784761, -9.531753985207004 ], [ -66.380289267784761, -9.53202347979224 ], [ -66.380558762370001, -9.532023479792244 ], [ -66.380558762370001, -9.53229297437748 ], [ -66.381367246125706, -9.532292974377482 ], [ -66.381367246125706, -9.532023479792235 ], [ -66.381906235296171, -9.532023479792244 ], [ -66.381906235296171, -9.531753985207002 ], [ -66.382714719051876, -9.531753985207009 ], [ -66.382714719051876, -9.531484490621768 ], [ -66.382175729881411, -9.531484490621771 ], [ -66.382175729881411, -9.531214996036525 ], [ -66.381636740710945, -9.531214996036535 ], [ -66.381636740710945, -9.530676006866058 ], [ -66.381097751540466, -9.530676006866063 ], [ -66.381097751540466, -9.530137017695585 ], [ -66.380289267784761, -9.530137017695596 ], [ -66.380289267784761, -9.530406512280829 ], [ -66.380828256955226, -9.530406512280832 ], [ -66.380828256955226, -9.53121499603653 ], [ -66.380558762370001, -9.531214996036534 ], [ -66.380558762370001, -9.531753985207009 ], [ -66.380289267784761, -9.531753985207004 ] ] ], [ [ [ -66.404274285870756, -9.522321674723745 ], [ -66.404274285870756, -9.523130158479464 ], [ -66.404543780455981, -9.52313015847945 ], [ -66.404543780455981, -9.523399653064697 ], [ -66.405082769626461, -9.52339965306469 ], [ -66.405082769626461, -9.523130158479452 ], [ -66.405621758796926, -9.523130158479459 ], [ -66.405621758796926, -9.522860663894214 ], [ -66.405891253382165, -9.522860663894214 ], [ -66.405891253382165, -9.52259116930899 ], [ -66.406160747967405, -9.522591169308987 ], [ -66.406160747967405, -9.521782685553271 ], [ -66.405891253382165, -9.521782685553282 ], [ -66.405891253382165, -9.521513190968051 ], [ -66.4053522642117, -9.521513190968047 ], [ -66.4053522642117, -9.521782685553276 ], [ -66.404813275041221, -9.521782685553283 ], [ -66.404813275041221, -9.522052180138513 ], [ -66.404543780455981, -9.522052180138518 ], [ -66.404543780455981, -9.522321674723756 ], [ -66.404274285870756, -9.522321674723745 ] ] ], [ [ [ -66.51988746293695, -9.46384134972757 ], [ -66.51988746293695, -9.464380338898033 ], [ -66.520156957522175, -9.464380338898049 ], [ -66.520156957522175, -9.464649833483275 ], [ -66.520426452107401, -9.464649833483284 ], [ -66.520426452107401, -9.464919328068508 ], [ -66.521504430448346, -9.464919328068511 ], [ -66.521504430448346, -9.464649833483273 ], [ -66.522043419618839, -9.464649833483278 ], [ -66.522043419618839, -9.464110844312799 ], [ -66.521773925033585, -9.464110844312799 ], [ -66.521773925033585, -9.46384134972757 ], [ -66.521234935863106, -9.463841349727572 ], [ -66.521234935863106, -9.463571855142334 ], [ -66.520965441277895, -9.463571855142341 ], [ -66.520965441277895, -9.463302360557098 ], [ -66.520426452107401, -9.463302360557099 ], [ -66.520426452107401, -9.46303286597187 ], [ -66.520156957522175, -9.463032865971869 ], [ -66.520156957522175, -9.463302360557098 ], [ -66.51988746293695, -9.463302360557092 ], [ -66.51988746293695, -9.463571855142328 ], [ -66.519617968351696, -9.463571855142325 ], [ -66.519617968351696, -9.463841349727572 ], [ -66.51988746293695, -9.46384134972757 ] ] ], [ [ [ -66.525546849226885, -9.444437739590594 ], [ -66.525546849226885, -9.446054707102006 ], [ -66.525816343812124, -9.446054707102009 ], [ -66.525816343812124, -9.446593696272474 ], [ -66.526085838397364, -9.446593696272467 ], [ -66.526085838397364, -9.446863190857712 ], [ -66.52635533298259, -9.446863190857709 ], [ -66.52635533298259, -9.44713268544295 ], [ -66.527163816738295, -9.44713268544294 ], [ -66.527163816738295, -9.446863190857714 ], [ -66.527433311323534, -9.446863190857709 ], [ -66.527433311323534, -9.446054707102004 ], [ -66.527163816738295, -9.446054707102007 ], [ -66.527163816738295, -9.445785212516764 ], [ -66.527433311323534, -9.445785212516769 ], [ -66.527433311313843, -9.445652896978332 ], [ -66.52739826, -9.44560239 ], [ -66.527320495384615, -9.445515717956765 ], [ -66.527163816738295, -9.445515717931539 ], [ -66.527163816701162, -9.445302189968258 ], [ -66.52696632187957, -9.444976728781365 ], [ -66.526894322153069, -9.444976728761064 ], [ -66.526894322143505, -9.444858076718985 ], [ -66.52685851, -9.44479906 ], [ -66.526812656113819, -9.444707234197706 ], [ -66.526624827567829, -9.444707234175814 ], [ -66.526624827567829, -9.444437739590596 ], [ -66.52635533298259, -9.444437739590589 ], [ -66.52635533298259, -9.444168245005358 ], [ -66.525816343812124, -9.444168245005347 ], [ -66.525816343812124, -9.444437739590587 ], [ -66.525546849226885, -9.444437739590594 ] ] ], [ [ [ -66.527163816738295, -9.411828894777047 ], [ -66.527163816738295, -9.412098389362285 ], [ -66.527702805908774, -9.412098389362278 ], [ -66.527702805908774, -9.41263737853275 ], [ -66.528241795079239, -9.41263737853275 ], [ -66.528241795079239, -9.412906873117995 ], [ -66.528511289664479, -9.412906873117985 ], [ -66.528511289664479, -9.411020411021342 ], [ -66.528241795079239, -9.411020411021346 ], [ -66.528241795079239, -9.411289905606578 ], [ -66.527702805908774, -9.411289905606584 ], [ -66.527702805908774, -9.411020411021337 ], [ -66.527433311323534, -9.411020411021342 ], [ -66.527433311323534, -9.410481421850859 ], [ -66.526894322153069, -9.410481421850859 ], [ -66.526894322153069, -9.410750916436106 ], [ -66.526624827567829, -9.410750916436097 ], [ -66.526624827567829, -9.411559400191814 ], [ -66.526894322153069, -9.411559400191811 ], [ -66.526894322153069, -9.41182889477704 ], [ -66.527163816738295, -9.411828894777047 ] ] ], [ [ [ -66.329624285760417, -9.571369689236667 ], [ -66.329893780345657, -9.571369689236667 ], [ -66.329893780345657, -9.572447667577615 ], [ -66.330163274930896, -9.572447667577615 ], [ -66.330163274930896, -9.572717162162853 ], [ -66.330702264101362, -9.572717162162862 ], [ -66.330702264101362, -9.572447667577627 ], [ -66.331241253271827, -9.572447667577611 ], [ -66.331241253271827, -9.571908678407148 ], [ -66.331510747857067, -9.571908678407139 ], [ -66.331510747857067, -9.571639183821908 ], [ -66.331241253271827, -9.571639183821905 ], [ -66.331241253271827, -9.571100194651446 ], [ -66.330971758686601, -9.571100194651434 ], [ -66.330971758686601, -9.570830700066198 ], [ -66.330432769516122, -9.57083070006621 ], [ -66.330432769516122, -9.570561205480974 ], [ -66.330163274930896, -9.570561205480967 ], [ -66.330163274930896, -9.570830700066201 ], [ -66.329893780345657, -9.570830700066203 ], [ -66.329893780345657, -9.570561205480971 ], [ -66.329354791175177, -9.570561205480972 ], [ -66.329354791175177, -9.57110019465143 ], [ -66.329624285760417, -9.571100194651446 ], [ -66.329624285760417, -9.571369689236667 ] ] ], [ [ [ -66.297284935528239, -9.568929439436349 ], [ -66.297284935532119, -9.568405248799085 ], [ -66.296206957191174, -9.568405248799081 ], [ -66.296206957191174, -9.568135754213836 ], [ -66.295398473435469, -9.568135754213854 ], [ -66.295398473435469, -9.568674743384317 ], [ -66.296476451776414, -9.56867474338431 ], [ -66.296476451767461, -9.56882399619848 ], [ -66.297284935528239, -9.568929439436349 ] ] ], [ [ [ -66.275725368713267, -9.554661024952058 ], [ -66.275725368713267, -9.55520001412253 ], [ -66.275994863298479, -9.555200014122526 ], [ -66.275994863298479, -9.554391530366818 ], [ -66.276803347054184, -9.554391530366818 ], [ -66.276803347054184, -9.553583046611106 ], [ -66.277072841639423, -9.553583046611116 ], [ -66.277072841639423, -9.552774562855411 ], [ -66.276803347054184, -9.55277456285541 ], [ -66.276803347054184, -9.553044057440637 ], [ -66.276533852468958, -9.553044057440637 ], [ -66.276533852468958, -9.553313552025882 ], [ -66.276264357883719, -9.553313552025868 ], [ -66.276264357883719, -9.553583046611109 ], [ -66.275994863298479, -9.553583046611102 ], [ -66.275994863298479, -9.553313552025871 ], [ -66.275725368713267, -9.553313552025882 ], [ -66.275725368713267, -9.553044057440633 ], [ -66.275455874128014, -9.553044057440642 ], [ -66.275455874128014, -9.552774562855404 ], [ -66.275186379542774, -9.552774562855406 ], [ -66.275186379542774, -9.552505068270163 ], [ -66.274916884957534, -9.552505068270166 ], [ -66.274916884957534, -9.553583046611104 ], [ -66.275186379542774, -9.553583046611108 ], [ -66.275186379542774, -9.554122035781576 ], [ -66.275455874128014, -9.554122035781583 ], [ -66.275455874128014, -9.554661024952052 ], [ -66.275725368713267, -9.554661024952058 ] ] ], [ [ [ -66.376246849006222, -9.547384671150679 ], [ -66.376246849006222, -9.547115176565457 ], [ -66.375977354420982, -9.547115176565443 ], [ -66.375977354420982, -9.547384671150681 ], [ -66.376246849006222, -9.547384671150679 ] ] ], [ [ [ -66.376516343591462, -9.547115176565441 ], [ -66.376516343591462, -9.546845681980221 ], [ -66.376246849006222, -9.54684568198021 ], [ -66.376246849006222, -9.547115176565457 ], [ -66.376516343591462, -9.547115176565441 ] ] ], [ [ [ -66.285157679196502, -9.537413371496964 ], [ -66.285427173781741, -9.537413371496951 ], [ -66.285427173781741, -9.537952360667438 ], [ -66.285966162952207, -9.537952360667425 ], [ -66.285966162952207, -9.537682866082204 ], [ -66.286505152122686, -9.537682866082186 ], [ -66.286505152122686, -9.537413371496967 ], [ -66.286774646707912, -9.537413371496958 ], [ -66.286774646707912, -9.536335393156007 ], [ -66.286235657537446, -9.536335393156008 ], [ -66.286235657537446, -9.536604887741246 ], [ -66.285696668366967, -9.536604887741255 ], [ -66.285696668366967, -9.536874382326481 ], [ -66.285427173781741, -9.536874382326488 ], [ -66.285427173781741, -9.537143876911728 ], [ -66.285157679196502, -9.53714387691172 ], [ -66.285157679196502, -9.537413371496964 ] ] ], [ [ [ -66.376785838176687, -9.535526909400302 ], [ -66.376516343591462, -9.535526909400314 ], [ -66.376516343591462, -9.535796403985549 ], [ -66.376785838176687, -9.535796403985534 ], [ -66.376785838176687, -9.535526909400302 ] ] ], [ [ [ -66.374629881494812, -9.534448931059368 ], [ -66.374629881494812, -9.535257414815069 ], [ -66.375168870665277, -9.535257414815071 ], [ -66.375168870665277, -9.535526909400316 ], [ -66.375438365250517, -9.535526909400305 ], [ -66.375438365250517, -9.535257414815064 ], [ -66.375977354420982, -9.535257414815078 ], [ -66.375977354420982, -9.5355269094003 ], [ -66.376516343591462, -9.535526909400314 ], [ -66.376516343591462, -9.534987920229829 ], [ -66.376785838176687, -9.534987920229845 ], [ -66.376785838176687, -9.534448931059368 ], [ -66.377324827347167, -9.534448931059359 ], [ -66.377324827347167, -9.534179436474135 ], [ -66.376785838176687, -9.534179436474133 ], [ -66.376785838176687, -9.533909941888883 ], [ -66.376246849006222, -9.533909941888894 ], [ -66.376246849006222, -9.533640447303661 ], [ -66.375707859835757, -9.533640447303657 ], [ -66.375707859835757, -9.53390994188889 ], [ -66.375438365250517, -9.533909941888883 ], [ -66.375438365250517, -9.534179436474128 ], [ -66.375168870665277, -9.534179436474131 ], [ -66.375168870665277, -9.534448931059369 ], [ -66.374629881494812, -9.534448931059368 ] ] ], [ [ [ -66.370317968131033, -9.533640447303661 ], [ -66.370317968131033, -9.534987920229835 ], [ -66.370587462716273, -9.534987920229845 ], [ -66.370587462716273, -9.535257414815071 ], [ -66.371126451886738, -9.535257414815078 ], [ -66.371126451886738, -9.534987920229836 ], [ -66.371395946471978, -9.534987920229831 ], [ -66.371395946471978, -9.534179436474119 ], [ -66.371126451886738, -9.534179436474133 ], [ -66.371126451886738, -9.532562468962713 ], [ -66.370587462716273, -9.532562468962714 ], [ -66.370587462716273, -9.532831963547952 ], [ -66.369778978960554, -9.532831963547949 ], [ -66.369778978960554, -9.53310145813319 ], [ -66.370048473545793, -9.533101458133189 ], [ -66.370048473545793, -9.533640447303661 ], [ -66.370317968131033, -9.533640447303661 ] ] ], [ [ [ -66.365467065596789, -9.52852005018417 ], [ -66.365467065596789, -9.528789544769415 ], [ -66.365736560182029, -9.528789544769412 ], [ -66.365736560182029, -9.529598028525111 ], [ -66.365197571011549, -9.529598028525113 ], [ -66.365197571011549, -9.529867523110347 ], [ -66.364389087255844, -9.529867523110353 ], [ -66.364389087255844, -9.53040651228083 ], [ -66.36492807642631, -9.530406512280823 ], [ -66.36492807642631, -9.530945501451292 ], [ -66.365467065596789, -9.530945501451301 ], [ -66.365467065596789, -9.531214996036539 ], [ -66.366006054767254, -9.531214996036537 ], [ -66.366006054767254, -9.531484490621763 ], [ -66.366275549352494, -9.531484490621763 ], [ -66.366275549352494, -9.531214996036539 ], [ -66.366814538522959, -9.531214996036532 ], [ -66.366814538522959, -9.530945501451292 ], [ -66.367084033108199, -9.530945501451299 ], [ -66.367084033108199, -9.530676006866056 ], [ -66.367353527693439, -9.530676006866061 ], [ -66.367353527693439, -9.530406512280818 ], [ -66.366814538522959, -9.530406512280834 ], [ -66.366814538522959, -9.529059039354641 ], [ -66.366545043937734, -9.529059039354651 ], [ -66.366545043937734, -9.528789544769419 ], [ -66.366275549352494, -9.528789544769415 ], [ -66.366275549352494, -9.528520050184179 ], [ -66.366006054767254, -9.528520050184174 ], [ -66.366006054767254, -9.528250555598943 ], [ -66.365736560182029, -9.528250555598943 ], [ -66.365736560182029, -9.527711566428465 ], [ -66.365467065596789, -9.527711566428476 ], [ -66.365467065596789, -9.528250555598945 ], [ -66.365197571011549, -9.528250555598943 ], [ -66.365197571011549, -9.527981061013707 ], [ -66.36492807642631, -9.527981061013705 ], [ -66.36492807642631, -9.528520050184182 ], [ -66.365467065596789, -9.52852005018417 ] ] ], [ [ [ -66.375707859835757, -9.529328533939887 ], [ -66.376246849006222, -9.529328533939891 ], [ -66.376246849006222, -9.529059039354644 ], [ -66.376516343591462, -9.529059039354651 ], [ -66.376516343591462, -9.529328533939879 ], [ -66.376785838176687, -9.529328533939882 ], [ -66.376785838176687, -9.529059039354646 ], [ -66.377324827347167, -9.529059039354641 ], [ -66.377324827347167, -9.528520050184174 ], [ -66.377055332761927, -9.528520050184168 ], [ -66.377055332761927, -9.528250555598932 ], [ -66.375438365250517, -9.528250555598939 ], [ -66.375438365250517, -9.528520050184179 ], [ -66.375707859835757, -9.528520050184182 ], [ -66.375707859835757, -9.528789544769415 ], [ -66.375438365250517, -9.528789544769415 ], [ -66.375438365250517, -9.529598028525115 ], [ -66.375707859835757, -9.529598028525122 ], [ -66.375707859835757, -9.529328533939887 ] ] ], [ [ [ -66.3633111089149, -9.524747125990865 ], [ -66.36304161432966, -9.524747125990881 ], [ -66.36304161432966, -9.524477631405631 ], [ -66.362233130573955, -9.524477631405647 ], [ -66.362233130573955, -9.524747125990878 ], [ -66.362772119744434, -9.524747125990865 ], [ -66.362772119744434, -9.525016620576109 ], [ -66.3633111089149, -9.525016620576107 ], [ -66.3633111089149, -9.525286115161339 ], [ -66.363850098085365, -9.525286115161334 ], [ -66.363850098085365, -9.52582510433181 ], [ -66.36304161432966, -9.525825104331824 ], [ -66.36304161432966, -9.526094598917059 ], [ -66.362502625159195, -9.52609459891706 ], [ -66.362502625159195, -9.526364093502288 ], [ -66.36304161432966, -9.526364093502284 ], [ -66.36304161432966, -9.526633588087529 ], [ -66.363580603500139, -9.526633588087524 ], [ -66.363580603500139, -9.526903082672767 ], [ -66.363850098085365, -9.526903082672767 ], [ -66.363850098085365, -9.526633588087529 ], [ -66.364389087255844, -9.526633588087524 ], [ -66.364389087255844, -9.52636409350229 ], [ -66.364658581841084, -9.526364093502284 ], [ -66.364658581841084, -9.526094598917062 ], [ -66.366006054767254, -9.526094598917053 ], [ -66.366006054767254, -9.526364093502293 ], [ -66.366275549352494, -9.526364093502281 ], [ -66.366275549352494, -9.52663358808752 ], [ -66.367353527693439, -9.526633588087517 ], [ -66.367353527693439, -9.526364093502291 ], [ -66.367084033108199, -9.526364093502291 ], [ -66.367084033108199, -9.526094598917046 ], [ -66.366814538522959, -9.52609459891706 ], [ -66.366814538522959, -9.525555609746574 ], [ -66.366545043937734, -9.525555609746574 ], [ -66.366545043937734, -9.525286115161354 ], [ -66.366275549352494, -9.525286115161343 ], [ -66.366275549352494, -9.525016620576103 ], [ -66.366006054767254, -9.525016620576112 ], [ -66.366006054767254, -9.524747125990874 ], [ -66.365736560182029, -9.524747125990878 ], [ -66.365736560182029, -9.524477631405631 ], [ -66.365197571011549, -9.524477631405633 ], [ -66.365197571011549, -9.524208136820409 ], [ -66.364658581841084, -9.524208136820404 ], [ -66.364658581841084, -9.523938642235171 ], [ -66.364389087255844, -9.52393864223516 ], [ -66.364389087255844, -9.524208136820404 ], [ -66.363850098085365, -9.524208136820402 ], [ -66.363850098085365, -9.524747125990878 ], [ -66.363580603500139, -9.524747125990878 ], [ -66.363580603500139, -9.524477631405643 ], [ -66.3633111089149, -9.524477631405633 ], [ -66.3633111089149, -9.524747125990865 ] ] ], [ [ [ -66.282732227929372, -9.517470772189512 ], [ -66.282732227929372, -9.51800976135997 ], [ -66.283001722514612, -9.518009761359979 ], [ -66.283001722514612, -9.518548750530442 ], [ -66.283271217099852, -9.518548750530458 ], [ -66.283271217099852, -9.518279255945208 ], [ -66.283540711685092, -9.518279255945204 ], [ -66.283540711685092, -9.518548750530442 ], [ -66.283810206270317, -9.518548750530448 ], [ -66.283810206270317, -9.518818245115677 ], [ -66.284079700855557, -9.518818245115678 ], [ -66.284079700855557, -9.51989622345663 ], [ -66.283810206270317, -9.519896223456628 ], [ -66.283810206270317, -9.520165718041856 ], [ -66.283540711685092, -9.520165718041859 ], [ -66.283540711685092, -9.520435212627095 ], [ -66.283271217099852, -9.520435212627092 ], [ -66.283271217099852, -9.52070470721233 ], [ -66.283001722514612, -9.52070470721233 ], [ -66.283001722514612, -9.521513190968044 ], [ -66.282732227929372, -9.52151319096804 ], [ -66.282732227929372, -9.521782685553275 ], [ -66.282462733344147, -9.521782685553269 ], [ -66.282462733344147, -9.522052180138518 ], [ -66.282732227929372, -9.522052180138518 ], [ -66.282732227929372, -9.522321674723749 ], [ -66.283540711685092, -9.522321674723752 ], [ -66.283540711685092, -9.522052180138521 ], [ -66.284079700855557, -9.52205218013852 ], [ -66.284079700855557, -9.52178268555328 ], [ -66.285157679196502, -9.521782685553269 ], [ -66.285157679196502, -9.521513190968037 ], [ -66.285427173781741, -9.521513190968049 ], [ -66.285427173781741, -9.521243696382808 ], [ -66.285157679196502, -9.521243696382799 ], [ -66.285157679196502, -9.520974201797575 ], [ -66.284618690026036, -9.520974201797575 ], [ -66.284618690026036, -9.520704707212332 ], [ -66.284349195440797, -9.520704707212328 ], [ -66.284349195440797, -9.52043521262709 ], [ -66.284618690026036, -9.520435212627094 ], [ -66.284618690026036, -9.518818245115684 ], [ -66.284888184611262, -9.518818245115687 ], [ -66.284888184611262, -9.518009761359982 ], [ -66.285157679196502, -9.518009761359981 ], [ -66.285157679196502, -9.517470772189505 ], [ -66.284349195440797, -9.517470772189514 ], [ -66.284349195440797, -9.517201277604265 ], [ -66.284079700855557, -9.517201277604268 ], [ -66.284079700855557, -9.516662288433796 ], [ -66.283810206270317, -9.5166622884338 ], [ -66.283810206270317, -9.516931783019029 ], [ -66.283540711685092, -9.516931783019023 ], [ -66.283540711685092, -9.517201277604268 ], [ -66.283271217099852, -9.517201277604261 ], [ -66.283271217099852, -9.517470772189505 ], [ -66.282732227929372, -9.517470772189512 ] ] ], [ [ [ -66.299710386799234, -9.513158858825726 ], [ -66.299710386799234, -9.512889364240497 ], [ -66.299979881384473, -9.512889364240491 ], [ -66.299979881384473, -9.512619869655268 ], [ -66.300249375969727, -9.512619869655252 ], [ -66.300249375969727, -9.512350375070028 ], [ -66.300518870554939, -9.512350375070026 ], [ -66.300518870554939, -9.511811385899547 ], [ -66.300249375969727, -9.511811385899557 ], [ -66.300249375969727, -9.511272396729085 ], [ -66.299979881384473, -9.511272396729069 ], [ -66.299979881384473, -9.512080880484797 ], [ -66.299710386799234, -9.512080880484783 ], [ -66.299710386799234, -9.512619869655255 ], [ -66.299440892214008, -9.512619869655257 ], [ -66.299440892214008, -9.513158858825737 ], [ -66.299710386799234, -9.513158858825726 ] ] ], [ [ [ -66.286505152122686, -9.51046391297338 ], [ -66.286505152122686, -9.512350375070024 ], [ -66.286774646707912, -9.512350375070024 ], [ -66.286774646707912, -9.512619869655262 ], [ -66.287044141293151, -9.51261986965525 ], [ -66.287044141293151, -9.512889364240499 ], [ -66.287313635878391, -9.512889364240499 ], [ -66.287313635878391, -9.513158858825731 ], [ -66.287583130463631, -9.513158858825733 ], [ -66.287583130463631, -9.513428353410962 ], [ -66.288661108804561, -9.513428353410962 ], [ -66.288661108804561, -9.512889364240488 ], [ -66.288930603389801, -9.51288936424049 ], [ -66.288930603389801, -9.512619869655255 ], [ -66.288661108804561, -9.512619869655261 ], [ -66.288661108804561, -9.511272396729073 ], [ -66.288930603389801, -9.511272396729078 ], [ -66.288930603389801, -9.510733407558615 ], [ -66.28946959256028, -9.510733407558607 ], [ -66.28946959256028, -9.509924923802892 ], [ -66.288930603389801, -9.509924923802901 ], [ -66.288930603389801, -9.509655429217675 ], [ -66.287852625048856, -9.50965542921767 ], [ -66.287852625048856, -9.509924923802901 ], [ -66.287313635878391, -9.509924923802894 ], [ -66.287313635878391, -9.510194418388137 ], [ -66.286774646707912, -9.51019441838814 ], [ -66.286774646707912, -9.510463912973364 ], [ -66.286505152122686, -9.51046391297338 ] ] ], [ [ [ -66.299979881384473, -9.511272396729069 ], [ -66.299979881384473, -9.510463912973368 ], [ -66.299710386799234, -9.510463912973371 ], [ -66.299710386799234, -9.511272396729073 ], [ -66.299979881384473, -9.511272396729069 ] ] ], [ [ [ -66.300249375969727, -9.510463912973369 ], [ -66.300249375969727, -9.51019441838813 ], [ -66.299979881384473, -9.510194418388144 ], [ -66.299979881384473, -9.510463912973368 ], [ -66.300249375969727, -9.510463912973369 ] ] ], [ [ [ -66.300518870554939, -9.510194418388144 ], [ -66.300518870554939, -9.509924923802908 ], [ -66.300249375969727, -9.509924923802902 ], [ -66.300249375969727, -9.51019441838813 ], [ -66.300518870554939, -9.510194418388144 ] ] ], [ [ [ -66.300788365140178, -9.509924923802908 ], [ -66.300788365140178, -9.509655429217659 ], [ -66.300518870554939, -9.509655429217661 ], [ -66.300518870554939, -9.509924923802908 ], [ -66.300788365140178, -9.509924923802908 ] ] ], [ [ [ -66.301057859725418, -9.509385934632423 ], [ -66.300788365140178, -9.509385934632435 ], [ -66.300788365140178, -9.509655429217659 ], [ -66.301327354310672, -9.509655429217672 ], [ -66.301327354310672, -9.509116440047183 ], [ -66.301057859725418, -9.509116440047197 ], [ -66.301057859725418, -9.509385934632423 ] ] ], [ [ [ -66.301866343481123, -9.508577450876722 ], [ -66.301596848895883, -9.508577450876727 ], [ -66.301596848895883, -9.508846945461961 ], [ -66.301327354310672, -9.508846945461961 ], [ -66.301327354310672, -9.509116440047183 ], [ -66.301866343481123, -9.509116440047199 ], [ -66.301866343481123, -9.508846945461952 ], [ -66.302135838066363, -9.508846945461949 ], [ -66.302135838066363, -9.509116440047183 ], [ -66.302405332651617, -9.509116440047201 ], [ -66.302405332651617, -9.508846945461963 ], [ -66.302674827236828, -9.508846945461947 ], [ -66.302674827236828, -9.509116440047183 ], [ -66.304830783918717, -9.509116440047196 ], [ -66.304830783918717, -9.508577450876727 ], [ -66.304561289333478, -9.508577450876725 ], [ -66.304561289333478, -9.508307956291494 ], [ -66.304291794748252, -9.508307956291489 ], [ -66.304291794748252, -9.508038461706246 ], [ -66.304022300163012, -9.508038461706253 ], [ -66.304022300163012, -9.507229977950548 ], [ -66.303752805577773, -9.507229977950541 ], [ -66.303752805577773, -9.507768967121006 ], [ -66.303483310992533, -9.50776896712102 ], [ -66.303483310992533, -9.508038461706249 ], [ -66.303213816407307, -9.508038461706244 ], [ -66.303213816407307, -9.508307956291487 ], [ -66.301866343481123, -9.508307956291496 ], [ -66.301866343481123, -9.508577450876722 ] ] ], [ [ [ -66.298901903043529, -9.507229977950544 ], [ -66.298901903043529, -9.506960483365303 ], [ -66.298632408458289, -9.506960483365303 ], [ -66.298632408458289, -9.507229977950551 ], [ -66.298901903043529, -9.507229977950544 ] ] ], [ [ [ -66.297823924702584, -9.505343515853891 ], [ -66.297823924702584, -9.505613010439129 ], [ -66.297554430117344, -9.505613010439138 ], [ -66.297554430117344, -9.506151999609598 ], [ -66.297284935532119, -9.506151999609591 ], [ -66.297284935532119, -9.506421494194839 ], [ -66.297554430117344, -9.506421494194836 ], [ -66.297554430117344, -9.506690988780063 ], [ -66.298362913873063, -9.50669098878007 ], [ -66.298362913873063, -9.50696048336531 ], [ -66.298632408458289, -9.506960483365303 ], [ -66.298632408458289, -9.506690988780079 ], [ -66.299171397628783, -9.506690988780072 ], [ -66.299171397628783, -9.506960483365301 ], [ -66.299440892214008, -9.506960483365297 ], [ -66.299440892214008, -9.507229977950551 ], [ -66.299710386799234, -9.507229977950532 ], [ -66.299710386799234, -9.50749947253577 ], [ -66.300249375969727, -9.507499472535772 ], [ -66.300249375969727, -9.507229977950551 ], [ -66.300518870554939, -9.507229977950537 ], [ -66.300518870554939, -9.506960483365301 ], [ -66.301057859725418, -9.506960483365308 ], [ -66.301057859725418, -9.506690988780074 ], [ -66.301327354310672, -9.506690988780077 ], [ -66.301327354310672, -9.506421494194841 ], [ -66.301866343481123, -9.506421494194839 ], [ -66.301866343481123, -9.506151999609603 ], [ -66.302405332651617, -9.506151999609596 ], [ -66.302405332651617, -9.505882505024365 ], [ -66.302674827236828, -9.505882505024367 ], [ -66.302674827236828, -9.505613010439124 ], [ -66.302135838066363, -9.505613010439131 ], [ -66.302135838066363, -9.505343515853889 ], [ -66.301866343481123, -9.505343515853898 ], [ -66.301866343481123, -9.505613010439134 ], [ -66.301596848895883, -9.505613010439127 ], [ -66.301596848895883, -9.505343515853887 ], [ -66.301327354310672, -9.505343515853886 ], [ -66.301327354310672, -9.505074021268655 ], [ -66.300249375969727, -9.505074021268655 ], [ -66.300249375969727, -9.505343515853891 ], [ -66.299171397628783, -9.505343515853882 ], [ -66.299171397628783, -9.505074021268655 ], [ -66.298362913873063, -9.505074021268664 ], [ -66.298362913873063, -9.505343515853889 ], [ -66.297823924702584, -9.505343515853891 ] ] ], [ [ [ -66.304291794748252, -9.50669098878007 ], [ -66.304291794748252, -9.506421494194838 ], [ -66.304022300163012, -9.506421494194846 ], [ -66.304022300163012, -9.505882505024356 ], [ -66.303483310992533, -9.505882505024358 ], [ -66.303483310992533, -9.505613010439127 ], [ -66.302944321822068, -9.505613010439129 ], [ -66.302944321822068, -9.505882505024365 ], [ -66.303213816407307, -9.505882505024362 ], [ -66.303213816407307, -9.506151999609607 ], [ -66.303752805577773, -9.506151999609592 ], [ -66.303752805577773, -9.506690988780074 ], [ -66.304291794748252, -9.50669098878007 ] ] ], [ [ [ -66.302944321822068, -9.505613010439129 ], [ -66.302944321822068, -9.505343515853891 ], [ -66.302674827236828, -9.505343515853887 ], [ -66.302674827236828, -9.505613010439124 ], [ -66.302944321822068, -9.505613010439129 ] ] ], [ [ [ -66.273030422860884, -9.559511927486305 ], [ -66.273030422860884, -9.55924243290106 ], [ -66.273299917446124, -9.559242432901064 ], [ -66.273299917446124, -9.558972938315835 ], [ -66.273838906616589, -9.558972938315824 ], [ -66.273838906616589, -9.559242432901062 ], [ -66.274108401201829, -9.559242432901055 ], [ -66.274108401201829, -9.560050916656769 ], [ -66.274377895787069, -9.560050916656769 ], [ -66.274377895787069, -9.560320411242003 ], [ -66.274647390372323, -9.56032041124201 ], [ -66.274647390372323, -9.560589905827241 ], [ -66.275186379542774, -9.560589905827243 ], [ -66.275186379542774, -9.560320411242001 ], [ -66.274916884957534, -9.560320411242012 ], [ -66.274916884957534, -9.560050916656779 ], [ -66.274647390372323, -9.560050916656762 ], [ -66.274647390372323, -9.558703443730597 ], [ -66.274377895787069, -9.55870344373059 ], [ -66.274377895787069, -9.558433949145348 ], [ -66.273569412031378, -9.55843394914535 ], [ -66.273569412031378, -9.558703443730595 ], [ -66.273030422860884, -9.55870344373059 ], [ -66.273030422860884, -9.558972938315836 ], [ -66.272491433690433, -9.558972938315819 ], [ -66.272491433690433, -9.559242432901064 ], [ -66.272221939105179, -9.559242432901058 ], [ -66.272221939105179, -9.558972938315833 ], [ -66.27195244451994, -9.558972938315828 ], [ -66.27195244451994, -9.558164454560123 ], [ -66.271682949934714, -9.558164454560117 ], [ -66.271682949934714, -9.559511927486289 ], [ -66.27195244451994, -9.559511927486296 ], [ -66.27195244451994, -9.559781422071534 ], [ -66.272760928275659, -9.559781422071538 ], [ -66.272760928275659, -9.559511927486298 ], [ -66.273030422860884, -9.559511927486305 ] ] ], [ [ [ -66.273838906616589, -9.547115176565439 ], [ -66.273838906616589, -9.547384671150677 ], [ -66.274108401201829, -9.547384671150681 ], [ -66.274108401201829, -9.546306692809745 ], [ -66.274377895787069, -9.546306692809738 ], [ -66.274377895787069, -9.545767703639262 ], [ -66.274108401201829, -9.545767703639262 ], [ -66.274108401201829, -9.546037198224509 ], [ -66.273838906616589, -9.546037198224504 ], [ -66.273838906616589, -9.546576187394985 ], [ -66.273569412031378, -9.546576187394969 ], [ -66.273569412031378, -9.547115176565443 ], [ -66.273838906616589, -9.547115176565439 ] ] ], [ [ [ -66.274916884957534, -9.545767703639267 ], [ -66.274916884957534, -9.545498209054038 ], [ -66.274377895787069, -9.545498209054024 ], [ -66.274377895787069, -9.545767703639262 ], [ -66.274916884957534, -9.545767703639267 ] ] ], [ [ [ -66.275186379542774, -9.5452287144688 ], [ -66.274916884957534, -9.545228714468802 ], [ -66.274916884957534, -9.545498209054038 ], [ -66.275186379542774, -9.545498209054038 ], [ -66.275186379542774, -9.5452287144688 ] ] ], [ [ [ -66.275186379542774, -9.5452287144688 ], [ -66.275994863298479, -9.545228714468806 ], [ -66.275994863298479, -9.544959219883568 ], [ -66.276264357883719, -9.544959219883552 ], [ -66.276264357883719, -9.54468972529833 ], [ -66.275186379542774, -9.544689725298323 ], [ -66.275186379542774, -9.5452287144688 ] ] ], [ [ [ -66.267371036570935, -9.54468972529833 ], [ -66.267910025741401, -9.544689725298316 ], [ -66.267910025741401, -9.544420230713085 ], [ -66.26844901491188, -9.544420230713092 ], [ -66.26844901491188, -9.544150736127854 ], [ -66.269796487838065, -9.544150736127854 ], [ -66.269796487838065, -9.543611746957378 ], [ -66.269257498667585, -9.543611746957378 ], [ -66.269257498667585, -9.543342252372145 ], [ -66.268988004082345, -9.543342252372149 ], [ -66.268988004082345, -9.543072757786904 ], [ -66.267640531156175, -9.543072757786915 ], [ -66.267640531156175, -9.543342252372144 ], [ -66.267371036570935, -9.543342252372149 ], [ -66.267371036570935, -9.54468972529833 ] ], [ [ -66.269257498667585, -9.543881241542616 ], [ -66.268988004082345, -9.543881241542616 ], [ -66.268988004082345, -9.543611746957387 ], [ -66.269257498667585, -9.543611746957378 ], [ -66.269257498667585, -9.543881241542616 ] ] ], [ [ [ -66.27006598242329, -9.543611746957387 ], [ -66.27006598242329, -9.543342252372149 ], [ -66.269796487838065, -9.543342252372144 ], [ -66.269796487838065, -9.543611746957378 ], [ -66.27006598242329, -9.543611746957387 ] ] ], [ [ [ -66.270874466178995, -9.540377811934553 ], [ -66.270874466178995, -9.541455790275498 ], [ -66.271413455349489, -9.541455790275492 ], [ -66.271413455349489, -9.54118629569026 ], [ -66.271682949934714, -9.541186295690267 ], [ -66.271682949934714, -9.54091680110502 ], [ -66.27195244451994, -9.540916801105014 ], [ -66.27195244451994, -9.540647306519794 ], [ -66.272491433690433, -9.5406473065198 ], [ -66.272491433690433, -9.540377811934551 ], [ -66.272760928275659, -9.540377811934544 ], [ -66.272760928275659, -9.539569328178853 ], [ -66.272491433690433, -9.539569328178843 ], [ -66.272491433690433, -9.53929983359361 ], [ -66.271682949934714, -9.539299833593619 ], [ -66.271682949934714, -9.539569328178855 ], [ -66.271413455349489, -9.539569328178855 ], [ -66.271413455349489, -9.539838822764079 ], [ -66.271143960764235, -9.539838822764089 ], [ -66.271143960764235, -9.540377811934556 ], [ -66.270874466178995, -9.540377811934553 ] ] ], [ [ [ -66.195415982312966, -9.532292974377475 ], [ -66.195152726024006, -9.532292974379843 ], [ -66.195146487725324, -9.532312834544118 ], [ -66.195146487727726, -9.532562468962713 ], [ -66.195415982312966, -9.532562468962711 ], [ -66.195415982304226, -9.532707821382143 ], [ -66.19545695, -9.53271208 ], [ -66.195685476889409, -9.532700756153746 ], [ -66.195685476898191, -9.532562468962704 ], [ -66.195954971483431, -9.532562468962709 ], [ -66.195954971483431, -9.532292974377475 ], [ -66.195685476898191, -9.532292974377476 ], [ -66.195685476898191, -9.532023479792247 ], [ -66.195415982312966, -9.53202347979224 ], [ -66.195415982312966, -9.532292974377475 ] ] ], [ [ [ -66.142864538191972, -9.527442071843229 ], [ -66.142325549021493, -9.527442071843234 ], [ -66.142325549021493, -9.527172577258002 ], [ -66.141786559851028, -9.527172577257991 ], [ -66.141786559851028, -9.526903082672757 ], [ -66.141247570680548, -9.526903082672757 ], [ -66.141247570680548, -9.527172577257993 ], [ -66.140978076095323, -9.527172577257996 ], [ -66.140978076095323, -9.527442071843225 ], [ -66.140708581510083, -9.527442071843234 ], [ -66.140708581510083, -9.527711566428469 ], [ -66.140439086924843, -9.527711566428463 ], [ -66.140439086924843, -9.527981061013692 ], [ -66.140169592339618, -9.52798106101371 ], [ -66.140169592331432, -9.52814637031174 ], [ -66.14026257, -9.52816528 ], [ -66.140343594385186, -9.52825055562284 ], [ -66.140439086924843, -9.528250555598937 ], [ -66.140439086916757, -9.528351058418867 ], [ -66.140599654354531, -9.528520050209329 ], [ -66.140708581510083, -9.528520050184168 ], [ -66.140708581501642, -9.52863469217402 ], [ -66.140855715039393, -9.52878954479532 ], [ -66.140978076095323, -9.528789544769415 ], [ -66.140978076086796, -9.528909100991063 ], [ -66.14101296, -9.5289428 ], [ -66.14128984, -9.52903959 ], [ -66.141322281505637, -9.529059039451074 ], [ -66.141517065265788, -9.529059039354646 ], [ -66.141517065257304, -9.529175816796704 ], [ -66.14162514, -9.52924061 ], [ -66.14169489951513, -9.529328533963323 ], [ -66.141786559851028, -9.529328533939886 ], [ -66.141786559842572, -9.529444061305339 ], [ -66.141908718896701, -9.529598028598352 ], [ -66.142325549021493, -9.52959802852512 ], [ -66.142325549021493, -9.529867523110354 ], [ -66.142403500574744, -9.529867523131829 ], [ -66.142595043600537, -9.529804521342552 ], [ -66.142595043606732, -9.529598028525118 ], [ -66.142806431267914, -9.529598028542775 ], [ -66.14286453818481, -9.529519099425706 ], [ -66.142864538191972, -9.529328533939882 ], [ -66.142959798962721, -9.529328533963756 ], [ -66.14301624, -9.52914893 ], [ -66.143134032752357, -9.528916195892405 ], [ -66.143134032777212, -9.52878954476941 ], [ -66.143238826678584, -9.528789544794236 ], [ -66.143249, -9.52877806 ], [ -66.143403527354238, -9.52868517209529 ], [ -66.143403527362437, -9.528520050184175 ], [ -66.143649388928367, -9.528520050192524 ], [ -66.143673021944238, -9.528489905517292 ], [ -66.143673021947677, -9.528250555598934 ], [ -66.143403527362437, -9.528250555598937 ], [ -66.143403527362437, -9.527981061013694 ], [ -66.143134032777212, -9.527981061013698 ], [ -66.143134032777212, -9.527711566428467 ], [ -66.142864538191972, -9.527711566428469 ], [ -66.142864538191972, -9.527442071843229 ] ] ], [ [ [ -66.22317392459226, -9.525555609746579 ], [ -66.22317392459226, -9.525825104331819 ], [ -66.22263493542178, -9.525825104331812 ], [ -66.22263493542178, -9.526094598917044 ], [ -66.222365440836541, -9.52609459891705 ], [ -66.222365440836541, -9.526903082672755 ], [ -66.221826451666075, -9.526903082672765 ], [ -66.221826451666075, -9.527442071843232 ], [ -66.222095946251315, -9.527442071843231 ], [ -66.222095946251315, -9.527981061013696 ], [ -66.222365440836541, -9.527981061013696 ], [ -66.222365440836541, -9.528250555598946 ], [ -66.22290443000702, -9.528250555598946 ], [ -66.22290443000702, -9.528520050184179 ], [ -66.22317392459226, -9.528520050184174 ], [ -66.22317392459226, -9.528789544769413 ], [ -66.223443419177485, -9.528789544769403 ], [ -66.223443419177485, -9.529059039354644 ], [ -66.223712913762725, -9.529059039354649 ], [ -66.223712913762725, -9.529328533939884 ], [ -66.223982408347965, -9.52932853393988 ], [ -66.223982408347965, -9.529598028525118 ], [ -66.22452139751843, -9.529598028525122 ], [ -66.22452139751843, -9.529867523110347 ], [ -66.22479089210367, -9.529867523110349 ], [ -66.22479089210367, -9.529598028525124 ], [ -66.225329881274135, -9.52959802852512 ], [ -66.225329881274135, -9.529328533939875 ], [ -66.225599375859375, -9.529328533939887 ], [ -66.225599375859375, -9.529059039354653 ], [ -66.225329881274135, -9.529059039354657 ], [ -66.225329881274135, -9.528520050184174 ], [ -66.225060386688909, -9.528520050184174 ], [ -66.225060386688909, -9.525825104331814 ], [ -66.22479089210367, -9.525825104331823 ], [ -66.22479089210367, -9.525016620576102 ], [ -66.22452139751843, -9.525016620576102 ], [ -66.22452139751843, -9.525555609746588 ], [ -66.224251902933204, -9.525555609746577 ], [ -66.224251902933204, -9.525825104331812 ], [ -66.223443419177485, -9.525825104331808 ], [ -66.223443419177485, -9.525555609746579 ], [ -66.22317392459226, -9.525555609746579 ] ] ], [ [ [ -66.221826451666075, -9.526903082672765 ], [ -66.221826451666075, -9.526364093502293 ], [ -66.221556957080836, -9.526364093502288 ], [ -66.221556957080836, -9.526903082672764 ], [ -66.221826451666075, -9.526903082672765 ] ] ], [ [ [ -66.123460928054982, -9.51881824511568 ], [ -66.124538906395927, -9.51881824511568 ], [ -66.124538906395927, -9.519087739700922 ], [ -66.125077895566406, -9.519087739700916 ], [ -66.125077895566406, -9.518279255945213 ], [ -66.124808400981166, -9.518279255945219 ], [ -66.124808400981166, -9.518009761359984 ], [ -66.124538906395927, -9.518009761359973 ], [ -66.124538906395927, -9.517740266774741 ], [ -66.124269411810701, -9.517740266774741 ], [ -66.124269411810701, -9.517470772189514 ], [ -66.123460928054982, -9.517470772189503 ], [ -66.123460928054982, -9.518009761359975 ], [ -66.122921938884517, -9.518009761359975 ], [ -66.122921938884517, -9.51827925594522 ], [ -66.123191433469756, -9.518279255945204 ], [ -66.123191433469756, -9.518548750530456 ], [ -66.123460928054982, -9.518548750530455 ], [ -66.123460928054982, -9.51881824511568 ] ] ], [ [ [ -66.261442155695747, -9.51612329926332 ], [ -66.261711650280986, -9.516123299263324 ], [ -66.261711650280986, -9.517740266774748 ], [ -66.262520134036691, -9.517740266774743 ], [ -66.262520134036691, -9.51720127760427 ], [ -66.262789628621931, -9.517201277604268 ], [ -66.262789628621931, -9.516392793848565 ], [ -66.262520134036691, -9.516392793848555 ], [ -66.262520134036691, -9.515853804678089 ], [ -66.262250639451452, -9.515853804678091 ], [ -66.262250639451452, -9.515314815507622 ], [ -66.261981144866212, -9.515314815507624 ], [ -66.261981144866212, -9.515045320922384 ], [ -66.261711650280986, -9.515045320922383 ], [ -66.261711650280986, -9.515314815507612 ], [ -66.261442155695747, -9.515314815507613 ], [ -66.261442155695747, -9.515584310092857 ], [ -66.261711650280986, -9.515584310092851 ], [ -66.261711650280986, -9.515853804678082 ], [ -66.261442155695747, -9.515853804678093 ], [ -66.261442155695747, -9.51612329926332 ] ] ], [ [ [ -66.122652444299277, -9.51747077218951 ], [ -66.122652444299277, -9.517740266774741 ], [ -66.122921938884517, -9.517740266774739 ], [ -66.122921938884517, -9.517470772189503 ], [ -66.123191433469756, -9.517470772189514 ], [ -66.123191433469756, -9.516931783019038 ], [ -66.122921938884517, -9.516931783019036 ], [ -66.122921938884517, -9.515853804678086 ], [ -66.122652444299277, -9.515853804678088 ], [ -66.122652444299277, -9.515314815507621 ], [ -66.122382949714051, -9.515314815507619 ], [ -66.122382949714051, -9.515045320922393 ], [ -66.122113455128812, -9.51504532092239 ], [ -66.122113455128812, -9.515584310092851 ], [ -66.122382949714051, -9.515584310092859 ], [ -66.122382949714051, -9.516931783019031 ], [ -66.122113455128812, -9.516931783019031 ], [ -66.122113455128812, -9.517470772189496 ], [ -66.122652444299277, -9.51747077218951 ] ] ], [ [ [ -66.261172661110507, -9.51450633175191 ], [ -66.261172661110507, -9.514775826337143 ], [ -66.261442155695747, -9.51477582633715 ], [ -66.261442155695747, -9.515045320922377 ], [ -66.261711650280986, -9.515045320922383 ], [ -66.261711650280986, -9.514506331751917 ], [ -66.261172661110507, -9.51450633175191 ] ] ], [ [ [ -66.262789628621931, -9.508846945461956 ], [ -66.262789628621931, -9.509116440047194 ], [ -66.262520134036691, -9.509116440047189 ], [ -66.262520134036691, -9.509655429217664 ], [ -66.262250639451452, -9.509655429217668 ], [ -66.262250639451452, -9.51046391297338 ], [ -66.261981144866212, -9.510463912973368 ], [ -66.261981144866212, -9.510733407558602 ], [ -66.261711650280986, -9.510733407558602 ], [ -66.261711650280986, -9.51127239672908 ], [ -66.261442155695747, -9.511272396729085 ], [ -66.261442155695747, -9.51181138589955 ], [ -66.261172661110507, -9.511811385899554 ], [ -66.261172661110507, -9.512350375070028 ], [ -66.261442155695747, -9.512350375070026 ], [ -66.261442155695747, -9.512889364240488 ], [ -66.261711650280986, -9.51288936424049 ], [ -66.261711650280986, -9.513158858825728 ], [ -66.262250639451452, -9.513158858825731 ], [ -66.262250639451452, -9.513428353410967 ], [ -66.263059123207157, -9.513428353410962 ], [ -66.263059123207157, -9.513697847996204 ], [ -66.263598112377636, -9.513697847996198 ], [ -66.263598112377636, -9.513428353410962 ], [ -66.264137101548101, -9.513428353410962 ], [ -66.264137101548101, -9.512889364240504 ], [ -66.264406596133341, -9.512889364240491 ], [ -66.264406596133341, -9.512350375070023 ], [ -66.264676090718581, -9.512350375070023 ], [ -66.264676090718581, -9.511002902143852 ], [ -66.264945585303806, -9.511002902143847 ], [ -66.264945585303806, -9.510733407558613 ], [ -66.265215079889046, -9.510733407558607 ], [ -66.265215079889046, -9.510194418388144 ], [ -66.265484574474286, -9.510194418388128 ], [ -66.265484574474286, -9.509116440047183 ], [ -66.265215079889046, -9.509116440047192 ], [ -66.265215079889046, -9.508846945461952 ], [ -66.264676090718581, -9.508846945461951 ], [ -66.264676090718581, -9.508577450876729 ], [ -66.264137101548101, -9.508577450876723 ], [ -66.264137101548101, -9.508846945461967 ], [ -66.263598112377636, -9.508846945461949 ], [ -66.263598112377636, -9.508577450876725 ], [ -66.263328617792396, -9.508577450876723 ], [ -66.263328617792396, -9.508846945461963 ], [ -66.262789628621931, -9.508846945461956 ] ] ], [ [ [ -66.116454068838863, -9.510463912973377 ], [ -66.115915079668383, -9.510463912973366 ], [ -66.115915079668383, -9.510733407558609 ], [ -66.116454068838863, -9.5107334075586 ], [ -66.116454068838863, -9.510463912973377 ] ] ], [ [ [ -66.115915079668383, -9.50911644004719 ], [ -66.116184574253623, -9.509116440047199 ], [ -66.116184574253623, -9.508846945461963 ], [ -66.115915079668383, -9.508846945461963 ], [ -66.115915079668383, -9.508307956291482 ], [ -66.115645585083143, -9.508307956291484 ], [ -66.115645585083143, -9.508577450876727 ], [ -66.115376090497918, -9.508577450876723 ], [ -66.115376090497918, -9.508038461706255 ], [ -66.115106595912678, -9.508038461706244 ], [ -66.115106595912678, -9.508846945461952 ], [ -66.115376090497918, -9.508846945461956 ], [ -66.115376090497918, -9.509385934632435 ], [ -66.115645585083143, -9.509385934632437 ], [ -66.115645585083143, -9.510463912973375 ], [ -66.115915079668383, -9.510463912973366 ], [ -66.115915079668383, -9.50911644004719 ] ] ], [ [ [ -66.108369231281785, -9.506690988780067 ], [ -66.108369231281785, -9.506960483365308 ], [ -66.10863872586701, -9.50696048336531 ], [ -66.10863872586701, -9.508038461706251 ], [ -66.109447209622729, -9.508038461706242 ], [ -66.109447209622729, -9.507768967121017 ], [ -66.109716704207955, -9.507768967121018 ], [ -66.109716704207955, -9.507499472535782 ], [ -66.109447209622729, -9.50749947253577 ], [ -66.109447209622729, -9.507229977950539 ], [ -66.109986198793194, -9.507229977950548 ], [ -66.109986198793194, -9.506690988780068 ], [ -66.109716704207955, -9.506690988780061 ], [ -66.109716704207955, -9.505343515853879 ], [ -66.109447209622729, -9.505343515853882 ], [ -66.109447209622729, -9.504804526683422 ], [ -66.10917771503749, -9.50480452668342 ], [ -66.10917771503749, -9.505882505024362 ], [ -66.107830242111305, -9.505882505024365 ], [ -66.107830242111305, -9.506421494194827 ], [ -66.108099736696545, -9.506421494194838 ], [ -66.108099736696545, -9.506690988780068 ], [ -66.108369231281785, -9.506690988780067 ] ] ], [ [ [ -66.1070217583556, -9.503187559172 ], [ -66.1070217583556, -9.504535032098184 ], [ -66.10675226377036, -9.504535032098184 ], [ -66.10675226377036, -9.505074021268655 ], [ -66.107560747526065, -9.505074021268664 ], [ -66.107560747526065, -9.505343515853891 ], [ -66.107830242111305, -9.505343515853895 ], [ -66.107830242111305, -9.50507402126865 ], [ -66.108369231281785, -9.505074021268664 ], [ -66.108369231281785, -9.504804526683429 ], [ -66.10863872586701, -9.504804526683424 ], [ -66.10863872586701, -9.504535032098183 ], [ -66.10890822045225, -9.504535032098183 ], [ -66.10890822045225, -9.50399604292771 ], [ -66.10863872586701, -9.503996042927712 ], [ -66.10863872586701, -9.503187559172007 ], [ -66.108369231281785, -9.503187559172014 ], [ -66.108369231281785, -9.502918064586769 ], [ -66.108099736696545, -9.502918064586774 ], [ -66.108099736696545, -9.502648570001526 ], [ -66.107830242111305, -9.50264857000154 ], [ -66.107830242111305, -9.502379075416306 ], [ -66.10729125294084, -9.502379075416293 ], [ -66.10729125294084, -9.502648570001529 ], [ -66.107560747526065, -9.502648570001529 ], [ -66.107560747526065, -9.50291806458676 ], [ -66.10729125294084, -9.502918064586774 ], [ -66.10729125294084, -9.503187559172005 ], [ -66.1070217583556, -9.503187559172 ] ] ], [ [ [ -66.113759122986494, -9.499684129563931 ], [ -66.113759122986494, -9.49995362414918 ], [ -66.114567606742199, -9.499953624149173 ], [ -66.114567606742199, -9.499684129563931 ], [ -66.115106595912678, -9.499684129563938 ], [ -66.115106595912678, -9.499414634978704 ], [ -66.115645585083143, -9.499414634978701 ], [ -66.115645585083143, -9.498606151222999 ], [ -66.115376090497918, -9.498606151222997 ], [ -66.115376090497918, -9.498336656637765 ], [ -66.115106595912678, -9.498336656637749 ], [ -66.115106595912678, -9.49806716205253 ], [ -66.114567606742199, -9.498067162052514 ], [ -66.114567606742199, -9.49779766746728 ], [ -66.114028617571734, -9.497797667467285 ], [ -66.114028617571734, -9.49806716205253 ], [ -66.113759122986494, -9.498067162052529 ], [ -66.113759122986494, -9.498336656637756 ], [ -66.113489628401268, -9.498336656637766 ], [ -66.113489628401268, -9.499684129563931 ], [ -66.113759122986494, -9.499684129563931 ] ] ], [ [ [ -66.109716704207955, -9.496719689126339 ], [ -66.10890822045225, -9.496719689126342 ], [ -66.10890822045225, -9.496450194541103 ], [ -66.108369231281785, -9.49645019454111 ], [ -66.108369231281785, -9.496180699955874 ], [ -66.107830242111305, -9.496180699955865 ], [ -66.107830242111305, -9.495911205370637 ], [ -66.107560747526065, -9.495911205370641 ], [ -66.107560747526065, -9.495641710785398 ], [ -66.10729125294084, -9.495641710785401 ], [ -66.10729125294084, -9.495372216200174 ], [ -66.105943780014655, -9.495372216200161 ], [ -66.105943780014655, -9.495102721614929 ], [ -66.10513529625895, -9.495102721614924 ], [ -66.10513529625895, -9.495372216200167 ], [ -66.10540479084419, -9.495372216200165 ], [ -66.10540479084419, -9.495641710785405 ], [ -66.10513529625895, -9.495641710785399 ], [ -66.10513529625895, -9.495911205370637 ], [ -66.104865801673711, -9.495911205370643 ], [ -66.104865801673711, -9.496180699955874 ], [ -66.104596307088471, -9.496180699955863 ], [ -66.104596307088471, -9.496450194541113 ], [ -66.104057317918006, -9.496450194541112 ], [ -66.104057317918006, -9.496719689126339 ], [ -66.103518328747541, -9.496719689126346 ], [ -66.103518328747541, -9.496989183711582 ], [ -66.103248834162301, -9.496989183711584 ], [ -66.103248834162301, -9.497528172882053 ], [ -66.103518328747541, -9.497528172882051 ], [ -66.103518328747541, -9.497797667467282 ], [ -66.103787823332766, -9.497797667467278 ], [ -66.103787823332766, -9.498336656637763 ], [ -66.104326812503245, -9.498336656637756 ], [ -66.104326812503245, -9.498606151223003 ], [ -66.104596307088471, -9.498606151222988 ], [ -66.104596307088471, -9.49914514039347 ], [ -66.10513529625895, -9.499145140393463 ], [ -66.10513529625895, -9.499414634978709 ], [ -66.105674285429416, -9.499414634978695 ], [ -66.105674285429416, -9.49968412956393 ], [ -66.106213274599895, -9.499684129563942 ], [ -66.106213274599895, -9.499953624149175 ], [ -66.10675226377036, -9.499953624149171 ], [ -66.10675226377036, -9.499684129563931 ], [ -66.106482769185135, -9.499684129563944 ], [ -66.106482769185135, -9.499145140393459 ], [ -66.106213274599895, -9.499145140393473 ], [ -66.106213274599895, -9.498875645808223 ], [ -66.105943780014655, -9.498875645808228 ], [ -66.105943780014655, -9.498606151222997 ], [ -66.10513529625895, -9.498606151222988 ], [ -66.10513529625895, -9.498336656637763 ], [ -66.104865801673711, -9.498336656637763 ], [ -66.104865801673711, -9.498067162052521 ], [ -66.10513529625895, -9.498067162052521 ], [ -66.10513529625895, -9.497797667467285 ], [ -66.10540479084419, -9.49779766746728 ], [ -66.10540479084419, -9.49752817288206 ], [ -66.105674285429416, -9.497528172882046 ], [ -66.105674285429416, -9.497258678296811 ], [ -66.105943780014655, -9.497258678296818 ], [ -66.105943780014655, -9.495911205370632 ], [ -66.106213274599895, -9.495911205370636 ], [ -66.106213274599895, -9.496180699955865 ], [ -66.106482769185135, -9.496180699955875 ], [ -66.106482769185135, -9.496450194541113 ], [ -66.1070217583556, -9.496450194541106 ], [ -66.1070217583556, -9.496719689126344 ], [ -66.10729125294084, -9.496719689126344 ], [ -66.10729125294084, -9.496989183711573 ], [ -66.107560747526065, -9.496989183711577 ], [ -66.107560747526065, -9.497258678296811 ], [ -66.109716704207955, -9.497258678296811 ], [ -66.109716704207955, -9.496989183711579 ], [ -66.110794682548899, -9.496989183711587 ], [ -66.110794682548899, -9.498336656637754 ], [ -66.111064177134139, -9.498336656637758 ], [ -66.111064177134139, -9.49806716205252 ], [ -66.111333671719379, -9.498067162052516 ], [ -66.111333671719379, -9.497528172882056 ], [ -66.111603166304604, -9.49752817288206 ], [ -66.111603166304604, -9.497258678296822 ], [ -66.111333671719379, -9.497258678296815 ], [ -66.111333671719379, -9.496719689126333 ], [ -66.111064177134139, -9.496719689126349 ], [ -66.111064177134139, -9.496180699955863 ], [ -66.110794682548899, -9.496180699955877 ], [ -66.110794682548899, -9.495911205370628 ], [ -66.111064177134139, -9.495911205370646 ], [ -66.111064177134139, -9.495641710785405 ], [ -66.110794682548899, -9.495641710785396 ], [ -66.110794682548899, -9.495102721614927 ], [ -66.110525187963674, -9.495102721614925 ], [ -66.110525187963674, -9.494833227029687 ], [ -66.110255693378434, -9.494833227029689 ], [ -66.110255693378434, -9.494563732444458 ], [ -66.109986198793194, -9.494563732444469 ], [ -66.109986198793194, -9.494833227029691 ], [ -66.109716704207955, -9.494833227029682 ], [ -66.109716704207955, -9.495102721614922 ], [ -66.109986198793194, -9.495102721614927 ], [ -66.109986198793194, -9.496450194541112 ], [ -66.109716704207955, -9.496450194541112 ], [ -66.109716704207955, -9.496719689126339 ] ] ], [ [ [ -66.273838906616589, -9.264684851238268 ], [ -66.273569412031378, -9.264684851238266 ], [ -66.273569412031378, -9.264954345823508 ], [ -66.273299917446124, -9.264954345823512 ], [ -66.273299917446124, -9.264684851238265 ], [ -66.271682949934714, -9.264684851238272 ], [ -66.271682949934714, -9.264954345823504 ], [ -66.271143960764235, -9.264954345823513 ], [ -66.271143960764235, -9.265223840408749 ], [ -66.27006598242329, -9.265223840408737 ], [ -66.27006598242329, -9.265493334993982 ], [ -66.269526993252825, -9.26549333499398 ], [ -66.269526993252825, -9.265762829579222 ], [ -66.268988004082345, -9.265762829579209 ], [ -66.268988004082345, -9.266032324164458 ], [ -66.26871850949712, -9.266032324164442 ], [ -66.26871850949712, -9.26630181874968 ], [ -66.26817952032664, -9.266301818749689 ], [ -66.26817952032664, -9.266571313334918 ], [ -66.267910025741401, -9.266571313334925 ], [ -66.267910025741401, -9.266840807920161 ], [ -66.267640531156175, -9.266840807920152 ], [ -66.267640531156175, -9.267379797090634 ], [ -66.267371036570935, -9.267379797090625 ], [ -66.267371036570935, -9.268996764602047 ], [ -66.267101541985696, -9.268996764602047 ], [ -66.267101541985696, -9.269266259187274 ], [ -66.26683204740047, -9.269266259187289 ], [ -66.26683204740047, -9.269535753772516 ], [ -66.26656255281523, -9.269535753772516 ], [ -66.26656255281523, -9.269805248357752 ], [ -66.266023563644751, -9.269805248357752 ], [ -66.266023563644751, -9.270074742942992 ], [ -66.265484574474286, -9.270074742942985 ], [ -66.265484574474286, -9.270344237528221 ], [ -66.265215079889046, -9.270344237528215 ], [ -66.265215079889046, -9.270613732113468 ], [ -66.265484574474286, -9.270613732113455 ], [ -66.265484574474286, -9.270883226698706 ], [ -66.265754069059525, -9.270883226698697 ], [ -66.265754069059525, -9.27115272128394 ], [ -66.266293058229991, -9.271152721283929 ], [ -66.266293058229991, -9.271422215869178 ], [ -66.26656255281523, -9.271422215869171 ], [ -66.26656255281523, -9.271152721283924 ], [ -66.26683204740047, -9.271152721283924 ], [ -66.26683204740047, -9.271422215869176 ], [ -66.267640531156175, -9.271422215869165 ], [ -66.267640531156175, -9.2716917104544 ], [ -66.267910025741401, -9.271691710454405 ], [ -66.267910025741401, -9.272769688795352 ], [ -66.267640531156175, -9.272769688795345 ], [ -66.267640531156175, -9.273039183380586 ], [ -66.267910025741401, -9.273039183380584 ], [ -66.267910025741401, -9.273578172551057 ], [ -66.26817952032664, -9.273578172551055 ], [ -66.26817952032664, -9.273847667136296 ], [ -66.267910025741401, -9.273847667136282 ], [ -66.267910025741401, -9.274117161721527 ], [ -66.26817952032664, -9.274117161721518 ], [ -66.26817952032664, -9.274386656306755 ], [ -66.267910025741401, -9.274386656306767 ], [ -66.267910025741401, -9.274656150891987 ], [ -66.269796487838065, -9.274656150891989 ], [ -66.269796487838065, -9.274925645477239 ], [ -66.27033547700853, -9.274925645477241 ], [ -66.27033547700853, -9.275195140062468 ], [ -66.270874466178995, -9.275195140062463 ], [ -66.270874466178995, -9.275464634647713 ], [ -66.271143960764235, -9.275464634647699 ], [ -66.271143960764235, -9.275195140062463 ], [ -66.271413455349489, -9.275195140062475 ], [ -66.271413455349489, -9.274925645477227 ], [ -66.27195244451994, -9.274925645477227 ], [ -66.27195244451994, -9.274386656306767 ], [ -66.272221939105179, -9.27438665630676 ], [ -66.272221939105179, -9.273847667136282 ], [ -66.272491433690433, -9.273847667136291 ], [ -66.272491433690433, -9.272230699624879 ], [ -66.272760928275659, -9.272230699624876 ], [ -66.272760928275659, -9.271691710454411 ], [ -66.273299917446124, -9.271691710454398 ], [ -66.273299917446124, -9.271422215869174 ], [ -66.273569412031378, -9.271422215869178 ], [ -66.273569412031378, -9.2716917104544 ], [ -66.274377895787069, -9.271691710454405 ], [ -66.274377895787069, -9.271422215869173 ], [ -66.274916884957534, -9.271422215869165 ], [ -66.274916884957534, -9.27115272128394 ], [ -66.275186379542774, -9.271152721283929 ], [ -66.275186379542774, -9.270883226698693 ], [ -66.275455874128014, -9.2708832266987 ], [ -66.275455874128014, -9.270613732113464 ], [ -66.275186379542774, -9.270613732113466 ], [ -66.275186379542774, -9.270344237528228 ], [ -66.274647390372323, -9.270344237528228 ], [ -66.274647390372323, -9.270074742942995 ], [ -66.274377895787069, -9.270074742942992 ], [ -66.274377895787069, -9.269805248357752 ], [ -66.274108401201829, -9.26980524835775 ], [ -66.274108401201829, -9.269535753772514 ], [ -66.273838906616589, -9.269535753772514 ], [ -66.273838906616589, -9.26980524835775 ], [ -66.273030422860884, -9.269805248357759 ], [ -66.273030422860884, -9.268996764602052 ], [ -66.273569412031378, -9.26899676460204 ], [ -66.273569412031378, -9.268727270016806 ], [ -66.273838906616589, -9.268727270016806 ], [ -66.273838906616589, -9.268996764602042 ], [ -66.274916884957534, -9.268996764602052 ], [ -66.274916884957534, -9.268727270016809 ], [ -66.275186379542774, -9.268727270016814 ], [ -66.275186379542774, -9.268188280846337 ], [ -66.274647390372323, -9.26818828084633 ], [ -66.274647390372323, -9.267649291675868 ], [ -66.274377895787069, -9.267649291675863 ], [ -66.274377895787069, -9.266032324164446 ], [ -66.274647390372323, -9.266032324164442 ], [ -66.274647390372323, -9.265493334993975 ], [ -66.275186379542774, -9.265493334993984 ], [ -66.275186379542774, -9.265223840408741 ], [ -66.275994863298479, -9.265223840408739 ], [ -66.275994863298479, -9.264684851238279 ], [ -66.274647390372323, -9.264684851238266 ], [ -66.274647390372323, -9.264954345823501 ], [ -66.274377895787069, -9.264954345823504 ], [ -66.274377895787069, -9.264684851238274 ], [ -66.274108401201829, -9.264684851238263 ], [ -66.274108401201829, -9.264954345823504 ], [ -66.273838906616589, -9.264954345823508 ], [ -66.273838906616589, -9.264684851238268 ] ], [ [ -66.269257498667585, -9.267649291675863 ], [ -66.269257498667585, -9.267379797090625 ], [ -66.27006598242329, -9.267379797090625 ], [ -66.27006598242329, -9.268457775431573 ], [ -66.268988004082345, -9.268457775431566 ], [ -66.268988004082345, -9.26818828084634 ], [ -66.269257498667585, -9.268188280846333 ], [ -66.269257498667585, -9.267918786261104 ], [ -66.268988004082345, -9.267918786261102 ], [ -66.268988004082345, -9.267649291675863 ], [ -66.269257498667585, -9.267649291675863 ] ] ] ] } }
]
}
