{
"type": "FeatureCollection",
"name": "kwaza_do_rio_sao_pedro",
"crs": { "type": "name", "properties": { "name": "urn:ogc:def:crs:OGC:1.3:CRS84" } },
"features": [
{ "type": "Feature", "properties": { "area_ha": 304.04 }, "geometry": { "type": "MultiPolygon", "coordinates": [ [ [ [ -61.414582040228865, -12.410764639281663 ], [ -61.414582040228865, -12.411303628452126 ], [ -61.414312545643632, -12.411303628452131 ], [ -61.414312545643632, -12.411842617622595 ], [ -61.4140430510584, -12.411842617622609 ], [ -61.4140430510584, -12.412112112207835 ], [ -61.414312545643632, -12.412112112207842 ], [ -61.414312545643632, -12.412381606793071 ], [ -61.41566001856981, -12.41238160679308 ], [ -61.41566001856981, -12.412112112207833 ], [ -61.415929513155049, -12.412112112207843 ], [ -61.415929513155049, -12.411842617622607 ], [ -61.41566001856981, -12.411842617622602 ], [ -61.41566001856981, -12.411573123037366 ], [ -61.415929513155049, -12.411573123037371 ], [ -61.415929513155049, -12.410764639281668 ], [ -61.416199007740282, -12.410764639281654 ], [ -61.416199007740282, -12.410495144696426 ], [ -61.415390523984577, -12.410495144696428 ], [ -61.415390523984577, -12.410764639281663 ], [ -61.415121029399344, -12.410764639281652 ], [ -61.415121029399344, -12.411034133866902 ], [ -61.414851534814105, -12.411034133866885 ], [ -61.414851534814105, -12.410764639281657 ], [ -61.414582040228865, -12.410764639281663 ] ] ], [ [ [ -61.413234567302688, -12.409147671770247 ], [ -61.413234567302688, -12.409417166355487 ], [ -61.412426083546983, -12.409417166355471 ], [ -61.412426083546983, -12.409686660940718 ], [ -61.412156588961757, -12.409686660940721 ], [ -61.412156588961757, -12.410225650111194 ], [ -61.412426083546983, -12.410225650111189 ], [ -61.412426083546983, -12.410495144696418 ], [ -61.412965072717455, -12.410495144696412 ], [ -61.412965072717455, -12.410225650111185 ], [ -61.413234567302688, -12.410225650111185 ], [ -61.413234567302688, -12.410495144696423 ], [ -61.414312545643632, -12.410495144696423 ], [ -61.414312545643632, -12.410225650111187 ], [ -61.4140430510584, -12.410225650111192 ], [ -61.4140430510584, -12.409686660940723 ], [ -61.41377355647316, -12.409686660940721 ], [ -61.41377355647316, -12.40941716635548 ], [ -61.4140430510584, -12.409417166355473 ], [ -61.4140430510584, -12.408878177185002 ], [ -61.414582040228865, -12.408878177184999 ], [ -61.414582040228865, -12.408339188014534 ], [ -61.414851534814105, -12.408339188014537 ], [ -61.414851534814105, -12.408069693429303 ], [ -61.414582040228865, -12.408069693429296 ], [ -61.414582040228865, -12.407261209673607 ], [ -61.414312545643632, -12.407261209673598 ], [ -61.414312545643632, -12.407530704258837 ], [ -61.41377355647316, -12.407530704258823 ], [ -61.41377355647316, -12.408069693429306 ], [ -61.413504061887927, -12.408069693429301 ], [ -61.413504061887927, -12.409147671770254 ], [ -61.413234567302688, -12.409147671770247 ] ] ], [ [ [ -61.465516516838456, -12.405913736747411 ], [ -61.465516516838456, -12.405644242162181 ], [ -61.466055506008914, -12.405644242162177 ], [ -61.466055506008914, -12.405105252991715 ], [ -61.466863989764626, -12.40510525299171 ], [ -61.466863989764626, -12.405644242162174 ], [ -61.467133484349858, -12.405644242162172 ], [ -61.467133484349858, -12.406183231332649 ], [ -61.466863989764626, -12.406183231332641 ], [ -61.466863989764626, -12.406452725917877 ], [ -61.467133484349858, -12.406452725917882 ], [ -61.467133484349858, -12.406991715088354 ], [ -61.467402978935098, -12.40699171508836 ], [ -61.467402978935098, -12.407530704258829 ], [ -61.467672473520331, -12.407530704258829 ], [ -61.467672473520331, -12.407800198844061 ], [ -61.467941968105571, -12.407800198844066 ], [ -61.467941968105571, -12.408069693429301 ], [ -61.468211462690803, -12.408069693429292 ], [ -61.468211462690803, -12.408339188014546 ], [ -61.469019946446508, -12.408339188014537 ], [ -61.469019946446508, -12.407530704258825 ], [ -61.469289441031748, -12.407530704258823 ], [ -61.469289441031748, -12.406991715088353 ], [ -61.46955893561698, -12.406991715088362 ], [ -61.46955893561698, -12.406722220503127 ], [ -61.469289441031748, -12.406722220503131 ], [ -61.469289441031748, -12.406183231332646 ], [ -61.468750451861276, -12.406183231332648 ], [ -61.468750451861276, -12.405913736747413 ], [ -61.468211462690803, -12.405913736747424 ], [ -61.468211462690803, -12.405105252991708 ], [ -61.468750451861276, -12.405105252991703 ], [ -61.468750451861276, -12.404566263821229 ], [ -61.469019946446508, -12.404566263821236 ], [ -61.469019946446508, -12.404027274650756 ], [ -61.468480957276043, -12.404027274650769 ], [ -61.468480957276043, -12.403757780065524 ], [ -61.468211462690803, -12.403757780065524 ], [ -61.468211462690803, -12.40402727465076 ], [ -61.467672473520331, -12.404027274650756 ], [ -61.467672473520331, -12.404296769235991 ], [ -61.467133484349858, -12.404296769235998 ], [ -61.467133484349858, -12.404835758406465 ], [ -61.466055506008914, -12.404835758406465 ], [ -61.466055506008914, -12.404566263821241 ], [ -61.466594495179386, -12.404566263821229 ], [ -61.466594495179386, -12.404296769236002 ], [ -61.466055506008914, -12.404296769236002 ], [ -61.466055506008914, -12.404027274650764 ], [ -61.465786011423681, -12.404027274650764 ], [ -61.465786011423681, -12.403757780065533 ], [ -61.465247022253209, -12.403757780065527 ], [ -61.465247022253209, -12.403488285480284 ], [ -61.464977527667983, -12.403488285480297 ], [ -61.464977527667983, -12.40375778006552 ], [ -61.464708033082736, -12.403757780065531 ], [ -61.464708033082736, -12.404027274650755 ], [ -61.464977527667983, -12.404027274650756 ], [ -61.464977527667983, -12.40591373674742 ], [ -61.465516516838456, -12.405913736747411 ] ] ], [ [ [ -61.374157852443489, -12.400793339627933 ], [ -61.374157852443489, -12.401332328798397 ], [ -61.374427347028728, -12.401332328798407 ], [ -61.374427347028728, -12.401062834213164 ], [ -61.375235830784433, -12.401062834213175 ], [ -61.375235830784433, -12.400793339627926 ], [ -61.375505325369673, -12.40079333962793 ], [ -61.375505325369673, -12.400523845042702 ], [ -61.375235830784433, -12.40052384504269 ], [ -61.375235830784433, -12.400254350457459 ], [ -61.374966336199201, -12.400254350457464 ], [ -61.374966336199201, -12.39998485587223 ], [ -61.374427347028728, -12.39998485587223 ], [ -61.374427347028728, -12.400254350457461 ], [ -61.374157852443489, -12.40025435045745 ], [ -61.374157852443489, -12.400523845042697 ], [ -61.373888357858256, -12.400523845042686 ], [ -61.373888357858256, -12.400793339627926 ], [ -61.374157852443489, -12.400793339627933 ] ] ], [ [ [ -61.415121029399344, -12.38785759953662 ], [ -61.415121029399344, -12.388127094121849 ], [ -61.415390523984577, -12.388127094121854 ], [ -61.415390523984577, -12.388396588707087 ], [ -61.415929513155049, -12.38839658870709 ], [ -61.415929513155049, -12.388127094121856 ], [ -61.416737996910754, -12.38812709412184 ], [ -61.416737996910754, -12.387857599536611 ], [ -61.417007491495994, -12.387857599536616 ], [ -61.417007491495994, -12.388127094121838 ], [ -61.417276986081227, -12.388127094121858 ], [ -61.417276986081227, -12.387857599536611 ], [ -61.417546480666466, -12.387857599536614 ], [ -61.417546480666466, -12.387588104951369 ], [ -61.417276986081227, -12.387588104951366 ], [ -61.417276986081227, -12.386779621195663 ], [ -61.416737996910754, -12.386779621195672 ], [ -61.416737996910754, -12.387318610366139 ], [ -61.415121029399344, -12.387318610366149 ], [ -61.415121029399344, -12.38758810495138 ], [ -61.414851534814105, -12.387588104951373 ], [ -61.414851534814105, -12.387857599536614 ], [ -61.415121029399344, -12.38785759953662 ] ] ], [ [ [ -61.416199007740282, -12.385701642854729 ], [ -61.416199007740282, -12.385432148269484 ], [ -61.416468502325522, -12.385432148269478 ], [ -61.416468502325522, -12.385701642854732 ], [ -61.416737996910754, -12.385701642854723 ], [ -61.416737996910754, -12.385432148269487 ], [ -61.417007491495994, -12.385432148269498 ], [ -61.417007491495994, -12.384623664513793 ], [ -61.415929513155049, -12.384623664513784 ], [ -61.415929513155049, -12.384893159099015 ], [ -61.41566001856981, -12.384893159099011 ], [ -61.41566001856981, -12.385432148269485 ], [ -61.415929513155049, -12.385432148269491 ], [ -61.415929513155049, -12.385701642854722 ], [ -61.416199007740282, -12.385701642854729 ] ] ], [ [ [ -61.377930776636795, -12.382198213246658 ], [ -61.37685279829585, -12.382198213246657 ], [ -61.37685279829585, -12.381928718661422 ], [ -61.376313809125378, -12.381928718661422 ], [ -61.376313809125378, -12.382198213246649 ], [ -61.376044314540131, -12.382198213246658 ], [ -61.376044314540131, -12.382467707831887 ], [ -61.375505325369673, -12.382467707831889 ], [ -61.375505325369673, -12.382737202417132 ], [ -61.374966336199201, -12.382737202417129 ], [ -61.374966336199201, -12.383006697002374 ], [ -61.373618863273016, -12.383006697002367 ], [ -61.373618863273016, -12.383276191587601 ], [ -61.373079874102544, -12.383276191587607 ], [ -61.373079874102544, -12.383545686172836 ], [ -61.372540884932079, -12.383545686172837 ], [ -61.372540884932079, -12.383815180758083 ], [ -61.372001895761606, -12.38381518075807 ], [ -61.372001895761606, -12.384084675343312 ], [ -61.371462906591134, -12.384084675343304 ], [ -61.371462906591134, -12.384354169928546 ], [ -61.370654422835422, -12.384354169928541 ], [ -61.370654422835422, -12.38462366451378 ], [ -61.3682289715683, -12.384623664513782 ], [ -61.3682289715683, -12.384893159099011 ], [ -61.367959476983074, -12.384893159099024 ], [ -61.367959476983074, -12.385162653684244 ], [ -61.367689982397827, -12.385162653684262 ], [ -61.367689982397827, -12.385971137439952 ], [ -61.367959476983074, -12.385971137439958 ], [ -61.367959476983074, -12.385432148269482 ], [ -61.368498466153547, -12.385432148269485 ], [ -61.368498466153547, -12.384893159099025 ], [ -61.372001895761606, -12.384893159099017 ], [ -61.372001895761606, -12.384623664513777 ], [ -61.372540884932079, -12.384623664513787 ], [ -61.372540884932079, -12.384354169928555 ], [ -61.373079874102544, -12.384354169928546 ], [ -61.373079874102544, -12.384084675343312 ], [ -61.373349368687784, -12.384084675343312 ], [ -61.373349368687784, -12.38381518075807 ], [ -61.373618863273016, -12.383815180758077 ], [ -61.373618863273016, -12.384084675343306 ], [ -61.374157852443489, -12.384084675343304 ], [ -61.374157852443489, -12.384354169928546 ], [ -61.374427347028728, -12.384354169928542 ], [ -61.374427347028728, -12.384623664513773 ], [ -61.375235830784433, -12.384623664513784 ], [ -61.375235830784433, -12.384893159099018 ], [ -61.375505325369673, -12.384893159099024 ], [ -61.375505325369673, -12.384623664513779 ], [ -61.375774819954906, -12.384623664513787 ], [ -61.375774819954906, -12.384893159099022 ], [ -61.376313809125378, -12.384893159099013 ], [ -61.376313809125378, -12.385162653684255 ], [ -61.377122292881076, -12.385162653684255 ], [ -61.377122292881076, -12.385432148269492 ], [ -61.377391787466323, -12.385432148269491 ], [ -61.377391787466323, -12.385162653684262 ], [ -61.377661282051548, -12.385162653684256 ], [ -61.377661282051548, -12.385432148269487 ], [ -61.377930776636795, -12.385432148269482 ], [ -61.377930776636795, -12.385162653684255 ], [ -61.378469765807267, -12.385162653684246 ], [ -61.378469765807267, -12.384893159099018 ], [ -61.37900875497774, -12.384893159099022 ], [ -61.37900875497774, -12.384354169928542 ], [ -61.379278249562965, -12.384354169928539 ], [ -61.379278249562965, -12.384084675343317 ], [ -61.379817238733438, -12.384084675343313 ], [ -61.379817238733438, -12.383815180758081 ], [ -61.380625722489157, -12.383815180758065 ], [ -61.380625722489157, -12.383545686172832 ], [ -61.380895217074382, -12.383545686172846 ], [ -61.380895217074382, -12.383815180758084 ], [ -61.381164711659629, -12.383815180758083 ], [ -61.381164711659629, -12.383545686172845 ], [ -61.381434206244855, -12.383545686172834 ], [ -61.381434206244855, -12.383276191587592 ], [ -61.380895217074382, -12.383276191587596 ], [ -61.380895217074382, -12.382737202417132 ], [ -61.380625722489157, -12.382737202417132 ], [ -61.380625722489157, -12.382467707831891 ], [ -61.38035622790391, -12.382467707831889 ], [ -61.38035622790391, -12.383006697002369 ], [ -61.380625722489157, -12.383006697002372 ], [ -61.380625722489157, -12.383276191587607 ], [ -61.380086733318684, -12.383276191587603 ], [ -61.380086733318684, -12.383545686172839 ], [ -61.379817238733438, -12.383545686172837 ], [ -61.379817238733438, -12.38327619158761 ], [ -61.379278249562965, -12.383276191587601 ], [ -61.379278249562965, -12.383815180758072 ], [ -61.37900875497774, -12.383815180758068 ], [ -61.37900875497774, -12.384084675343308 ], [ -61.377661282051548, -12.384084675343306 ], [ -61.377661282051548, -12.383545686172829 ], [ -61.377391787466323, -12.383545686172832 ], [ -61.377391787466323, -12.382737202417129 ], [ -61.377122292881076, -12.382737202417141 ], [ -61.377122292881076, -12.382467707831898 ], [ -61.377930776636795, -12.382467707831893 ], [ -61.377930776636795, -12.382198213246658 ] ], [ [ -61.377661282051548, -12.384354169928544 ], [ -61.377391787466323, -12.384354169928542 ], [ -61.377391787466323, -12.384084675343303 ], [ -61.377661282051548, -12.384084675343306 ], [ -61.377661282051548, -12.384354169928544 ] ] ], [ [ [ -61.380895217074382, -12.382198213246658 ], [ -61.380625722489157, -12.382198213246655 ], [ -61.380625722489157, -12.382467707831891 ], [ -61.380895217074382, -12.3824677078319 ], [ -61.380895217074382, -12.382198213246658 ] ] ], [ [ [ -61.370384928250189, -12.382467707831902 ], [ -61.370654422835422, -12.382467707831893 ], [ -61.370654422835422, -12.382737202417132 ], [ -61.371462906591134, -12.382737202417125 ], [ -61.371462906591134, -12.382198213246653 ], [ -61.372001895761606, -12.382198213246665 ], [ -61.372001895761606, -12.381659224076193 ], [ -61.372271390346839, -12.38165922407619 ], [ -61.372271390346839, -12.381120234905719 ], [ -61.372540884932079, -12.381120234905712 ], [ -61.372540884932079, -12.380042256564776 ], [ -61.372271390346839, -12.380042256564774 ], [ -61.372271390346839, -12.379772761979543 ], [ -61.371462906591134, -12.379772761979526 ], [ -61.371462906591134, -12.380042256564774 ], [ -61.370923917420662, -12.380042256564773 ], [ -61.370923917420662, -12.380581245735245 ], [ -61.370654422835422, -12.380581245735252 ], [ -61.370654422835422, -12.381389729490948 ], [ -61.370384928250189, -12.381389729490948 ], [ -61.370384928250189, -12.382467707831902 ] ] ], [ [ [ -61.405958213501314, -12.381928718661431 ], [ -61.405958213501314, -12.382198213246657 ], [ -61.406227708086561, -12.382198213246667 ], [ -61.406227708086561, -12.381928718661428 ], [ -61.406766697257034, -12.381928718661429 ], [ -61.406766697257034, -12.38165922407619 ], [ -61.407036191842259, -12.381659224076184 ], [ -61.407036191842259, -12.381928718661419 ], [ -61.407844675597978, -12.381928718661428 ], [ -61.407844675597978, -12.382198213246651 ], [ -61.408653159353676, -12.38219821324666 ], [ -61.408653159353676, -12.381120234905715 ], [ -61.408114170183204, -12.381120234905717 ], [ -61.408114170183204, -12.380850740320486 ], [ -61.407575181012731, -12.380850740320481 ], [ -61.407575181012731, -12.38058124573524 ], [ -61.406766697257034, -12.38058124573525 ], [ -61.406766697257034, -12.380850740320481 ], [ -61.406227708086561, -12.380850740320477 ], [ -61.406227708086561, -12.381120234905712 ], [ -61.405688718916089, -12.381120234905724 ], [ -61.405688718916089, -12.381928718661419 ], [ -61.405958213501314, -12.381928718661431 ] ] ], [ [ [ -61.411348105206038, -12.381120234905717 ], [ -61.411348105206038, -12.380850740320485 ], [ -61.410809116035566, -12.380850740320474 ], [ -61.410809116035566, -12.381120234905708 ], [ -61.411348105206038, -12.381120234905717 ] ] ], [ [ [ -61.411348105206038, -12.380042256564774 ], [ -61.411348105206038, -12.380850740320485 ], [ -61.411617599791271, -12.380850740320483 ], [ -61.411617599791271, -12.38058124573524 ], [ -61.41188709437651, -12.380581245735248 ], [ -61.41188709437651, -12.380042256564773 ], [ -61.411348105206038, -12.380042256564774 ] ] ], [ [ [ -61.377122292881076, -12.380850740320485 ], [ -61.377391787466323, -12.380850740320476 ], [ -61.377391787466323, -12.381120234905719 ], [ -61.377661282051548, -12.38112023490571 ], [ -61.377661282051548, -12.381389729490953 ], [ -61.377930776636795, -12.381389729490961 ], [ -61.377930776636795, -12.380850740320485 ], [ -61.378469765807267, -12.380850740320474 ], [ -61.378469765807267, -12.380311751150005 ], [ -61.378739260392493, -12.38031175115 ], [ -61.378739260392493, -12.379233772809059 ], [ -61.378469765807267, -12.379233772809059 ], [ -61.378469765807267, -12.378964278223835 ], [ -61.377930776636795, -12.378964278223837 ], [ -61.377930776636795, -12.37923377280906 ], [ -61.377391787466323, -12.379233772809057 ], [ -61.377391787466323, -12.37977276197954 ], [ -61.37685279829585, -12.379772761979543 ], [ -61.37685279829585, -12.38004225656478 ], [ -61.377122292881076, -12.380042256564771 ], [ -61.377122292881076, -12.380850740320485 ] ] ], [ [ [ -61.374696841613961, -12.379503267394302 ], [ -61.374427347028728, -12.379503267394302 ], [ -61.374427347028728, -12.379772761979545 ], [ -61.374696841613961, -12.37977276197954 ], [ -61.374696841613961, -12.379503267394302 ] ] ], [ [ [ -61.412156588961757, -12.380042256564774 ], [ -61.412156588961757, -12.379233772809069 ], [ -61.41188709437651, -12.379233772809059 ], [ -61.41188709437651, -12.378964278223835 ], [ -61.411617599791271, -12.378964278223835 ], [ -61.411617599791271, -12.379503267394297 ], [ -61.411348105206038, -12.379503267394298 ], [ -61.411348105206038, -12.379772761979542 ], [ -61.41188709437651, -12.379772761979529 ], [ -61.41188709437651, -12.380042256564773 ], [ -61.412156588961757, -12.380042256564774 ] ] ], [ [ [ -61.412156588961757, -12.37896427822383 ], [ -61.412156588961757, -12.377616805297647 ], [ -61.41188709437651, -12.377616805297652 ], [ -61.41188709437651, -12.377347310712418 ], [ -61.411348105206038, -12.377347310712416 ], [ -61.411348105206038, -12.377616805297643 ], [ -61.411617599791271, -12.377616805297652 ], [ -61.411617599791271, -12.378155794468123 ], [ -61.41188709437651, -12.378155794468114 ], [ -61.41188709437651, -12.378964278223835 ], [ -61.412156588961757, -12.37896427822383 ] ] ], [ [ [ -61.376044314540131, -12.376808321541935 ], [ -61.376044314540131, -12.377077816127173 ], [ -61.375505325369673, -12.377077816127173 ], [ -61.375505325369673, -12.376808321541933 ], [ -61.375235830784433, -12.376808321541937 ], [ -61.375235830784433, -12.376538826956715 ], [ -61.374966336199201, -12.376538826956711 ], [ -61.374966336199201, -12.376269332371471 ], [ -61.374696841613961, -12.37626933237147 ], [ -61.374696841613961, -12.375999837786239 ], [ -61.374427347028728, -12.375999837786235 ], [ -61.374427347028728, -12.376269332371464 ], [ -61.374157852443489, -12.376269332371475 ], [ -61.374157852443489, -12.3765388269567 ], [ -61.373618863273016, -12.376538826956697 ], [ -61.373618863273016, -12.376808321541947 ], [ -61.373349368687784, -12.376808321541937 ], [ -61.373349368687784, -12.377077816127182 ], [ -61.372810379517311, -12.377077816127178 ], [ -61.372810379517311, -12.377347310712414 ], [ -61.372271390346839, -12.377347310712418 ], [ -61.372271390346839, -12.377616805297645 ], [ -61.372810379517311, -12.377616805297654 ], [ -61.372810379517311, -12.378425289053359 ], [ -61.372540884932079, -12.378425289053354 ], [ -61.372540884932079, -12.378694783638585 ], [ -61.373079874102544, -12.378694783638595 ], [ -61.373079874102544, -12.378964278223823 ], [ -61.373349368687784, -12.378964278223833 ], [ -61.373349368687784, -12.378694783638599 ], [ -61.373618863273016, -12.378694783638597 ], [ -61.373618863273016, -12.378425289053354 ], [ -61.374696841613961, -12.378425289053354 ], [ -61.374696841613961, -12.378694783638601 ], [ -61.374966336199201, -12.378694783638593 ], [ -61.374966336199201, -12.378964278223828 ], [ -61.374696841613961, -12.378964278223831 ], [ -61.374696841613961, -12.379503267394302 ], [ -61.374966336199201, -12.379503267394298 ], [ -61.374966336199201, -12.379233772809064 ], [ -61.375235830784433, -12.379233772809059 ], [ -61.375235830784433, -12.378964278223835 ], [ -61.375505325369673, -12.378964278223837 ], [ -61.375505325369673, -12.378694783638599 ], [ -61.376044314540131, -12.378694783638599 ], [ -61.376044314540131, -12.378155794468116 ], [ -61.376583303710603, -12.378155794468114 ], [ -61.376583303710603, -12.377886299882878 ], [ -61.37685279829585, -12.377886299882878 ], [ -61.37685279829585, -12.377616805297649 ], [ -61.377391787466323, -12.377616805297656 ], [ -61.377391787466323, -12.377886299882876 ], [ -61.377661282051548, -12.377886299882878 ], [ -61.377661282051548, -12.378155794468119 ], [ -61.377930776636795, -12.378155794468116 ], [ -61.377930776636795, -12.377616805297645 ], [ -61.37820027122202, -12.377616805297652 ], [ -61.37820027122202, -12.377077816127178 ], [ -61.378469765807267, -12.377077816127176 ], [ -61.378469765807267, -12.376269332371464 ], [ -61.37820027122202, -12.376269332371471 ], [ -61.37820027122202, -12.375730343200997 ], [ -61.377930776636795, -12.375730343200994 ], [ -61.377930776636795, -12.375460848615756 ], [ -61.377122292881076, -12.375460848615758 ], [ -61.377122292881076, -12.375999837786237 ], [ -61.37685279829585, -12.375999837786239 ], [ -61.37685279829585, -12.376538826956706 ], [ -61.376583303710603, -12.376538826956697 ], [ -61.376583303710603, -12.376808321541947 ], [ -61.376044314540131, -12.376808321541935 ] ] ], [ [ [ -61.383320668341518, -12.375999837786232 ], [ -61.383590162926744, -12.375999837786239 ], [ -61.383590162926744, -12.376269332371473 ], [ -61.383320668341518, -12.376269332371461 ], [ -61.383320668341518, -12.376538826956702 ], [ -61.383590162926744, -12.376538826956704 ], [ -61.383590162926744, -12.376808321541942 ], [ -61.383051173756272, -12.376808321541949 ], [ -61.383051173756272, -12.377077816127169 ], [ -61.384129152097216, -12.37707781612718 ], [ -61.384129152097216, -12.376808321541937 ], [ -61.384668141267689, -12.376808321541933 ], [ -61.384668141267689, -12.376269332371475 ], [ -61.385207130438161, -12.376269332371475 ], [ -61.385207130438161, -12.37519135403052 ], [ -61.384668141267689, -12.37519135403053 ], [ -61.384668141267689, -12.374652364860045 ], [ -61.384129152097216, -12.374652364860049 ], [ -61.384129152097216, -12.374113375689589 ], [ -61.383590162926744, -12.374113375689586 ], [ -61.383590162926744, -12.373843881104342 ], [ -61.383051173756272, -12.373843881104342 ], [ -61.383051173756272, -12.374652364860045 ], [ -61.382781679171046, -12.374652364860049 ], [ -61.382781679171046, -12.375191354030527 ], [ -61.383051173756272, -12.375191354030536 ], [ -61.383051173756272, -12.375730343201003 ], [ -61.383320668341518, -12.375730343200994 ], [ -61.383320668341518, -12.375999837786232 ] ] ], [ [ [ -61.411078610620812, -12.370340451496276 ], [ -61.410809116035566, -12.370340451496284 ], [ -61.410809116035566, -12.370609946081519 ], [ -61.411348105206038, -12.370609946081519 ], [ -61.411348105206038, -12.371148935252 ], [ -61.41188709437651, -12.371148935251984 ], [ -61.41188709437651, -12.371418429837219 ], [ -61.412156588961757, -12.371418429837224 ], [ -61.412156588961757, -12.371687924422458 ], [ -61.412426083546983, -12.371687924422458 ], [ -61.412426083546983, -12.371957419007703 ], [ -61.412695578132215, -12.371957419007702 ], [ -61.412695578132215, -12.372226913592932 ], [ -61.412965072717455, -12.372226913592927 ], [ -61.412965072717455, -12.37249640817816 ], [ -61.413234567302688, -12.372496408178161 ], [ -61.413234567302688, -12.373035397348634 ], [ -61.413504061887927, -12.373035397348634 ], [ -61.413504061887927, -12.373304891933874 ], [ -61.41377355647316, -12.373304891933874 ], [ -61.41377355647316, -12.373574386519108 ], [ -61.4140430510584, -12.373574386519119 ], [ -61.4140430510584, -12.37330489193387 ], [ -61.414851534814105, -12.373304891933875 ], [ -61.414851534814105, -12.372765902763412 ], [ -61.415121029399344, -12.372765902763401 ], [ -61.415121029399344, -12.372496408178165 ], [ -61.415390523984577, -12.37249640817816 ], [ -61.415390523984577, -12.372226913592934 ], [ -61.4140430510584, -12.372226913592938 ], [ -61.4140430510584, -12.371957419007691 ], [ -61.41377355647316, -12.371957419007687 ], [ -61.41377355647316, -12.371418429837222 ], [ -61.4140430510584, -12.371418429837215 ], [ -61.4140430510584, -12.37087944066676 ], [ -61.414312545643632, -12.37087944066676 ], [ -61.414312545643632, -12.370609946081522 ], [ -61.414582040228865, -12.37060994608151 ], [ -61.414582040228865, -12.370070956911057 ], [ -61.414312545643632, -12.37007095691105 ], [ -61.414312545643632, -12.370340451496277 ], [ -61.4140430510584, -12.370340451496279 ], [ -61.4140430510584, -12.370070956911045 ], [ -61.413504061887927, -12.37007095691105 ], [ -61.413504061887927, -12.369531967740571 ], [ -61.412965072717455, -12.369531967740581 ], [ -61.412965072717455, -12.369262473155342 ], [ -61.412426083546983, -12.369262473155334 ], [ -61.412426083546983, -12.368992978570102 ], [ -61.412156588961757, -12.368992978570095 ], [ -61.412156588961757, -12.369262473155329 ], [ -61.411617599791271, -12.369262473155338 ], [ -61.411617599791271, -12.369531967740581 ], [ -61.411348105206038, -12.369531967740578 ], [ -61.411348105206038, -12.370070956911052 ], [ -61.411078610620812, -12.370070956911054 ], [ -61.411078610620812, -12.370340451496276 ] ] ], [ [ [ -61.419702437348356, -12.365759043547271 ], [ -61.419702437348356, -12.366028538132515 ], [ -61.419432942763116, -12.366028538132506 ], [ -61.419432942763116, -12.365759043547266 ], [ -61.419163448177883, -12.365759043547264 ], [ -61.419163448177883, -12.36602853813252 ], [ -61.418893953592644, -12.3660285381325 ], [ -61.418893953592644, -12.365759043547264 ], [ -61.418354964422171, -12.365759043547277 ], [ -61.418354964422171, -12.365220054376792 ], [ -61.417815975251699, -12.365220054376799 ], [ -61.417815975251699, -12.364950559791556 ], [ -61.417007491495994, -12.364950559791559 ], [ -61.417007491495994, -12.364681065206335 ], [ -61.416737996910754, -12.364681065206325 ], [ -61.416737996910754, -12.364950559791554 ], [ -61.416468502325522, -12.364950559791566 ], [ -61.416468502325522, -12.364681065206332 ], [ -61.41566001856981, -12.364681065206334 ], [ -61.41566001856981, -12.36495055979157 ], [ -61.415929513155049, -12.364950559791556 ], [ -61.415929513155049, -12.366567527302978 ], [ -61.416199007740282, -12.366567527302983 ], [ -61.416199007740282, -12.367645505643921 ], [ -61.416468502325522, -12.367645505643923 ], [ -61.416468502325522, -12.36791500022915 ], [ -61.416199007740282, -12.367915000229166 ], [ -61.416199007740282, -12.368453989399626 ], [ -61.416737996910754, -12.368453989399629 ], [ -61.416737996910754, -12.368992978570098 ], [ -61.417007491495994, -12.368992978570102 ], [ -61.417007491495994, -12.369262473155343 ], [ -61.416737996910754, -12.369262473155334 ], [ -61.416737996910754, -12.369801462325816 ], [ -61.416468502325522, -12.369801462325819 ], [ -61.416468502325522, -12.370609946081508 ], [ -61.416199007740282, -12.370609946081517 ], [ -61.416199007740282, -12.370879440666759 ], [ -61.416468502325522, -12.370879440666748 ], [ -61.416468502325522, -12.371418429837227 ], [ -61.416199007740282, -12.371418429837227 ], [ -61.416199007740282, -12.371687924422458 ], [ -61.415929513155049, -12.37168792442246 ], [ -61.415929513155049, -12.372226913592932 ], [ -61.416468502325522, -12.372226913592931 ], [ -61.416468502325522, -12.37249640817816 ], [ -61.416199007740282, -12.372496408178172 ], [ -61.416199007740282, -12.372765902763399 ], [ -61.416468502325522, -12.372765902763405 ], [ -61.416468502325522, -12.373035397348637 ], [ -61.417007491495994, -12.37303539734865 ], [ -61.417007491495994, -12.372765902763403 ], [ -61.417276986081227, -12.372765902763403 ], [ -61.417276986081227, -12.371418429837233 ], [ -61.417546480666466, -12.371418429837233 ], [ -61.417546480666466, -12.371148935251982 ], [ -61.417815975251699, -12.371148935251997 ], [ -61.417815975251699, -12.370609946081524 ], [ -61.418085469836939, -12.370609946081515 ], [ -61.418085469836939, -12.370340451496281 ], [ -61.418354964422171, -12.37034045149629 ], [ -61.418354964422171, -12.370070956911039 ], [ -61.418624459007411, -12.370070956911048 ], [ -61.418624459007411, -12.369801462325807 ], [ -61.418893953592644, -12.369801462325812 ], [ -61.418893953592644, -12.369531967740571 ], [ -61.419163448177883, -12.369531967740571 ], [ -61.419163448177883, -12.36926247315534 ], [ -61.418893953592644, -12.369262473155334 ], [ -61.418893953592644, -12.368723483984867 ], [ -61.418624459007411, -12.36872348398486 ], [ -61.418624459007411, -12.367915000229155 ], [ -61.418893953592644, -12.367915000229162 ], [ -61.418893953592644, -12.367376011058685 ], [ -61.419702437348356, -12.367376011058683 ], [ -61.419702437348356, -12.367915000229164 ], [ -61.420241426518828, -12.367915000229157 ], [ -61.420241426518828, -12.368723483984862 ], [ -61.420510921104061, -12.368723483984857 ], [ -61.420510921104061, -12.368992978570104 ], [ -61.420241426518828, -12.368992978570107 ], [ -61.420241426518828, -12.369262473155347 ], [ -61.419702437348356, -12.369262473155349 ], [ -61.419702437348356, -12.36980146232581 ], [ -61.420241426518828, -12.369801462325814 ], [ -61.420241426518828, -12.37034045149629 ], [ -61.420510921104061, -12.370340451496277 ], [ -61.420510921104061, -12.371687924422465 ], [ -61.420241426518828, -12.371687924422464 ], [ -61.420241426518828, -12.371957419007696 ], [ -61.420510921104061, -12.371957419007696 ], [ -61.420510921104061, -12.372226913592939 ], [ -61.419971931933588, -12.372226913592931 ], [ -61.419971931933588, -12.372765902763405 ], [ -61.419432942763116, -12.372765902763403 ], [ -61.419432942763116, -12.373574386519113 ], [ -61.419971931933588, -12.373574386519106 ], [ -61.419971931933588, -12.373304891933872 ], [ -61.420510921104061, -12.373304891933877 ], [ -61.420510921104061, -12.373035397348644 ], [ -61.421319404859773, -12.373035397348643 ], [ -61.421319404859773, -12.373304891933874 ], [ -61.421858394030245, -12.373304891933879 ], [ -61.421858394030245, -12.373574386519115 ], [ -61.422397383200718, -12.37357438651911 ], [ -61.422397383200718, -12.373035397348637 ], [ -61.42293637237119, -12.373035397348641 ], [ -61.42293637237119, -12.37249640817816 ], [ -61.423475361541662, -12.372496408178176 ], [ -61.423475361541662, -12.372226913592936 ], [ -61.423205866956422, -12.372226913592923 ], [ -61.423205866956422, -12.371957419007703 ], [ -61.42293637237119, -12.371957419007696 ], [ -61.42293637237119, -12.371687924422462 ], [ -61.423205866956422, -12.371687924422456 ], [ -61.423205866956422, -12.370879440666751 ], [ -61.423475361541662, -12.370879440666762 ], [ -61.423475361541662, -12.370340451496281 ], [ -61.423744856126895, -12.370340451496276 ], [ -61.423744856126895, -12.369531967740578 ], [ -61.423475361541662, -12.369531967740578 ], [ -61.423475361541662, -12.368992978570109 ], [ -61.423205866956422, -12.368992978570104 ], [ -61.423205866956422, -12.36872348398486 ], [ -61.42266687778595, -12.368723483984867 ], [ -61.42266687778595, -12.368453989399631 ], [ -61.422127888615478, -12.368453989399622 ], [ -61.422127888615478, -12.368184494814386 ], [ -61.421588899445005, -12.368184494814399 ], [ -61.421588899445005, -12.367915000229168 ], [ -61.4207804156893, -12.367915000229152 ], [ -61.4207804156893, -12.367645505643923 ], [ -61.420510921104061, -12.367645505643916 ], [ -61.420510921104061, -12.367106516473449 ], [ -61.420241426518828, -12.367106516473443 ], [ -61.420241426518828, -12.36656752730298 ], [ -61.420510921104061, -12.366567527302978 ], [ -61.420510921104061, -12.366028538132509 ], [ -61.421049910274533, -12.366028538132509 ], [ -61.421049910274533, -12.365489548962042 ], [ -61.421319404859773, -12.365489548962042 ], [ -61.421319404859773, -12.365220054376806 ], [ -61.421858394030245, -12.365220054376806 ], [ -61.421858394030245, -12.364681065206323 ], [ -61.422397383200718, -12.364681065206323 ], [ -61.422397383200718, -12.364411570621083 ], [ -61.421319404859773, -12.364411570621094 ], [ -61.421319404859773, -12.364950559791566 ], [ -61.4207804156893, -12.364950559791568 ], [ -61.4207804156893, -12.365489548962035 ], [ -61.420241426518828, -12.36548954896203 ], [ -61.420241426518828, -12.365759043547266 ], [ -61.419702437348356, -12.365759043547271 ] ] ], [ [ [ -61.398681859699963, -12.367106516473449 ], [ -61.398681859699963, -12.366837021888212 ], [ -61.398951354285188, -12.366837021888223 ], [ -61.398951354285188, -12.366567527302978 ], [ -61.399759838040893, -12.36656752730298 ], [ -61.399759838040893, -12.36629803271774 ], [ -61.398951354285188, -12.366298032717742 ], [ -61.398951354285188, -12.366028538132513 ], [ -61.398412365114716, -12.366028538132509 ], [ -61.398412365114716, -12.366298032717747 ], [ -61.39814287052949, -12.366298032717751 ], [ -61.39814287052949, -12.366567527302987 ], [ -61.397603881359018, -12.366567527302987 ], [ -61.397603881359018, -12.367106516473443 ], [ -61.398681859699963, -12.367106516473449 ] ] ], [ [ [ -61.398412365114716, -12.366028538132509 ], [ -61.398412365114716, -12.365759043547261 ], [ -61.39814287052949, -12.365759043547277 ], [ -61.39814287052949, -12.366028538132509 ], [ -61.398412365114716, -12.366028538132509 ] ] ], [ [ [ -61.419971931933588, -12.350667346774067 ], [ -61.420241426518828, -12.35066734677406 ], [ -61.420241426518828, -12.350936841359299 ], [ -61.4207804156893, -12.350936841359303 ], [ -61.4207804156893, -12.351206335944539 ], [ -61.421858394030245, -12.351206335944525 ], [ -61.421858394030245, -12.350936841359291 ], [ -61.422127888615478, -12.350936841359299 ], [ -61.422127888615478, -12.35066734677407 ], [ -61.422397383200718, -12.35066734677406 ], [ -61.422397383200718, -12.350397852188824 ], [ -61.422127888615478, -12.350397852188824 ], [ -61.422127888615478, -12.349858863018353 ], [ -61.421858394030245, -12.349858863018353 ], [ -61.421858394030245, -12.349319873847891 ], [ -61.421588899445005, -12.349319873847879 ], [ -61.421588899445005, -12.349050379262653 ], [ -61.421319404859773, -12.349050379262648 ], [ -61.421319404859773, -12.348780884677412 ], [ -61.420241426518828, -12.348780884677405 ], [ -61.420241426518828, -12.349050379262648 ], [ -61.419971931933588, -12.34905037926265 ], [ -61.419971931933588, -12.349319873847879 ], [ -61.419702437348356, -12.349319873847881 ], [ -61.419702437348356, -12.350397852188825 ], [ -61.419971931933588, -12.350397852188827 ], [ -61.419971931933588, -12.350667346774067 ] ] ], [ [ [ -61.422397383200718, -12.313477094011519 ], [ -61.422397383200718, -12.313207599426283 ], [ -61.42266687778595, -12.313207599426281 ], [ -61.42266687778595, -12.313477094011519 ], [ -61.42293637237119, -12.313477094011525 ], [ -61.42293637237119, -12.313207599426267 ], [ -61.423205866956422, -12.313207599426283 ], [ -61.423205866956422, -12.313477094011512 ], [ -61.423475361541662, -12.313477094011521 ], [ -61.423475361541662, -12.313207599426272 ], [ -61.423744856126895, -12.313207599426271 ], [ -61.423744856126895, -12.313477094011519 ], [ -61.424014350712135, -12.313477094011516 ], [ -61.424014350712135, -12.313207599426281 ], [ -61.424283845297367, -12.313207599426276 ], [ -61.424283845301687, -12.313069289921209 ], [ -61.421049910278789, -12.313054818927268 ], [ -61.421049910274533, -12.313207599426287 ], [ -61.4207804156893, -12.313207599426283 ], [ -61.42078041569355, -12.313053611283065 ], [ -61.420510921108296, -12.313052403372986 ], [ -61.420510921104061, -12.313207599426267 ], [ -61.419163448177883, -12.31320759942628 ], [ -61.419163448182054, -12.313046359834814 ], [ -61.417276986085284, -12.313037887715465 ], [ -61.417276986081227, -12.313207599426274 ], [ -61.418893953592644, -12.313207599426267 ], [ -61.418893953592644, -12.313477094011516 ], [ -61.419971931933588, -12.313477094011512 ], [ -61.419971931933588, -12.313746588596748 ], [ -61.421588899445005, -12.313746588596757 ], [ -61.421588899445005, -12.313477094011509 ], [ -61.422397383200718, -12.313477094011519 ] ] ], [ [ [ -61.424553339882593, -12.313477094011505 ], [ -61.424553339882593, -12.313207599426267 ], [ -61.424283845297367, -12.313207599426276 ], [ -61.424283845297367, -12.313477094011519 ], [ -61.424553339882593, -12.313477094011505 ] ] ], [ [ [ -61.42617030739401, -12.313746588596748 ], [ -61.426439801979257, -12.313746588596741 ], [ -61.426439801979257, -12.313477094011507 ], [ -61.426709296564482, -12.313477094011516 ], [ -61.426709296564482, -12.313746588596757 ], [ -61.426978791149729, -12.313746588596752 ], [ -61.426978791149729, -12.313477094011509 ], [ -61.427248285734954, -12.313477094011509 ], [ -61.427248285734954, -12.313746588596743 ], [ -61.427517780320187, -12.313746588596754 ], [ -61.427517780320187, -12.313477094011512 ], [ -61.427787274905427, -12.31347709401151 ], [ -61.427787274905427, -12.313746588596747 ], [ -61.428056769490659, -12.313746588596755 ], [ -61.428056769490659, -12.313477094011507 ], [ -61.428865253246371, -12.313477094011509 ], [ -61.428865253246371, -12.313746588596759 ], [ -61.429134747831604, -12.313746588596755 ], [ -61.429134747831604, -12.313477094011517 ], [ -61.429404242416844, -12.313477094011516 ], [ -61.429404242416844, -12.313746588596755 ], [ -61.429673737002076, -12.313746588596752 ], [ -61.429673737002076, -12.313477094011517 ], [ -61.429943231587316, -12.31347709401151 ], [ -61.429943231587316, -12.313746588596754 ], [ -61.430212726172549, -12.313746588596755 ], [ -61.430212726172549, -12.313477094011512 ], [ -61.430751715343021, -12.313477094011519 ], [ -61.430751715343021, -12.313207599426285 ], [ -61.431021209928247, -12.313207599426272 ], [ -61.431021209928247, -12.313477094011525 ], [ -61.431290704513493, -12.313477094011521 ], [ -61.431290704513493, -12.313207599426271 ], [ -61.431560199098719, -12.313207599426287 ], [ -61.431560199098719, -12.313477094011505 ], [ -61.431829693683966, -12.313477094011523 ], [ -61.431829693683966, -12.313207599426283 ], [ -61.432099188269191, -12.313207599426272 ], [ -61.432099188269191, -12.313477094011509 ], [ -61.432907672024911, -12.313477094011521 ], [ -61.432907672024911, -12.313207599426272 ], [ -61.433446661195383, -12.313207599426283 ], [ -61.433446661195383, -12.312938104841034 ], [ -61.433716155780608, -12.312938104841047 ], [ -61.433716155780608, -12.312668610255809 ], [ -61.433985650365855, -12.312668610255814 ], [ -61.433985650368612, -12.312453307373527 ], [ -61.433542394507356, -12.312456245193689 ], [ -61.432368682858751, -12.312535284835892 ], [ -61.432368682854438, -12.312668610255812 ], [ -61.430388620130138, -12.312668613824972 ], [ -61.429404242420048, -12.312734892187068 ], [ -61.429404242416844, -12.312938104841034 ], [ -61.428865253246371, -12.312938104841043 ], [ -61.428865253250443, -12.312771180912787 ], [ -61.428326264080212, -12.312807468555514 ], [ -61.428326264075899, -12.31293810484104 ], [ -61.426385675885939, -12.31293811039477 ], [ -61.424822834478711, -12.313043311833116 ], [ -61.42482283446784, -12.313477094011516 ], [ -61.425631318223537, -12.313477094011519 ], [ -61.425631318223537, -12.313746588596757 ], [ -61.425900812808784, -12.313746588596755 ], [ -61.425900812808784, -12.313477094011512 ], [ -61.42617030739401, -12.313477094011523 ], [ -61.42617030739401, -12.313746588596748 ] ] ], [ [ [ -61.470097924791254, -12.312222469834158 ], [ -61.467672473524175, -12.312224307342097 ], [ -61.467672473520331, -12.312399115670576 ], [ -61.470097924787453, -12.312399115670575 ], [ -61.470097924791254, -12.312222469834158 ] ] ], [ [ [ -61.362569585278351, -12.390013556218504 ], [ -61.362300090693104, -12.390013556218506 ], [ -61.362300090693104, -12.390283050803729 ], [ -61.362569585278351, -12.390283050803729 ], [ -61.362569585278351, -12.390013556218504 ] ] ], [ [ [ -61.364456047374993, -12.389744061633253 ], [ -61.364186552789768, -12.389744061633269 ], [ -61.364186552789768, -12.390013556218506 ], [ -61.364456047374993, -12.390013556218506 ], [ -61.364456047374993, -12.389744061633253 ] ] ], [ [ [ -61.363647563619296, -12.389474567048033 ], [ -61.363647563619296, -12.389744061633261 ], [ -61.364186552789768, -12.389744061633269 ], [ -61.364186552789768, -12.389474567048028 ], [ -61.363917058204521, -12.389474567048017 ], [ -61.363917058204521, -12.389205072462797 ], [ -61.363108574448823, -12.389205072462785 ], [ -61.363108574448823, -12.388935577877561 ], [ -61.362030596107878, -12.388935577877557 ], [ -61.362030596107878, -12.390013556218506 ], [ -61.362300090693104, -12.390013556218506 ], [ -61.362300090693104, -12.389744061633266 ], [ -61.362839079863576, -12.389744061633261 ], [ -61.362839079863576, -12.389474567048023 ], [ -61.363647563619296, -12.389474567048033 ] ] ], [ [ [ -61.348016877675612, -12.387318610366133 ], [ -61.348016877675612, -12.387857599536609 ], [ -61.347477888505139, -12.387857599536614 ], [ -61.347477888505139, -12.388396588707081 ], [ -61.347208393919907, -12.38839658870708 ], [ -61.347208393919907, -12.388127094121854 ], [ -61.346938899334667, -12.388127094121849 ], [ -61.346938899334667, -12.38839658870708 ], [ -61.346399910164195, -12.388396588707089 ], [ -61.346399910164195, -12.388666083292328 ], [ -61.346130415578962, -12.388666083292309 ], [ -61.346130415578962, -12.388935577877547 ], [ -61.34559142640849, -12.388935577877552 ], [ -61.34559142640849, -12.389474567048033 ], [ -61.345052437238017, -12.389474567048021 ], [ -61.345052437238017, -12.390013556218493 ], [ -61.344513448067545, -12.3900135562185 ], [ -61.344513448067545, -12.390283050803731 ], [ -61.344243953482312, -12.39028305080374 ], [ -61.344243953482312, -12.390552545388967 ], [ -61.343974458897073, -12.390552545388974 ], [ -61.343974458897073, -12.390283050803728 ], [ -61.3434354697266, -12.390283050803728 ], [ -61.3434354697266, -12.390013556218502 ], [ -61.342357491385656, -12.390013556218497 ], [ -61.342357491385656, -12.390552545388973 ], [ -61.342626985970895, -12.390552545388974 ], [ -61.342626985970895, -12.390822039974202 ], [ -61.34370496431184, -12.390822039974214 ], [ -61.34370496431184, -12.39109153455945 ], [ -61.343974458897073, -12.391091534559436 ], [ -61.343974458897073, -12.390822039974211 ], [ -61.344513448067545, -12.390822039974209 ], [ -61.344513448067545, -12.390552545388973 ], [ -61.346399910164195, -12.390552545388974 ], [ -61.346399910164195, -12.39028305080374 ], [ -61.346938899334667, -12.390283050803731 ], [ -61.346938899334667, -12.389744061633255 ], [ -61.347477888505139, -12.389744061633264 ], [ -61.347477888505139, -12.38920507246279 ], [ -61.348016877675612, -12.389205072462786 ], [ -61.348016877675612, -12.388666083292314 ], [ -61.348555866846084, -12.388666083292318 ], [ -61.348555866846084, -12.388396588707078 ], [ -61.348825361431324, -12.388396588707081 ], [ -61.348825361431324, -12.388127094121842 ], [ -61.349364350601782, -12.388127094121852 ], [ -61.349364350601782, -12.387857599536616 ], [ -61.350711823527973, -12.387857599536607 ], [ -61.350711823527973, -12.387588104951384 ], [ -61.350981318113199, -12.387588104951373 ], [ -61.350981318113199, -12.386779621195661 ], [ -61.350711823527973, -12.386779621195664 ], [ -61.350711823527973, -12.386510126610437 ], [ -61.350442328942727, -12.386510126610437 ], [ -61.350442328942727, -12.38624063202519 ], [ -61.349903339772254, -12.386240632025197 ], [ -61.349903339772254, -12.385971137439963 ], [ -61.349094856016556, -12.385971137439959 ], [ -61.349094856016556, -12.386240632025192 ], [ -61.348555866846084, -12.38624063202519 ], [ -61.348555866846084, -12.386779621195672 ], [ -61.348286372260837, -12.386779621195661 ], [ -61.348286372260837, -12.387318610366142 ], [ -61.348016877675612, -12.387318610366133 ] ] ], [ [ [ -61.365264531130713, -12.381120234905717 ], [ -61.365264531130713, -12.380850740320485 ], [ -61.364995036545466, -12.380850740320476 ], [ -61.364995036545466, -12.381120234905719 ], [ -61.365264531130713, -12.381120234905717 ] ] ], [ [ [ -61.360144134011229, -12.380850740320479 ], [ -61.359874639425989, -12.380850740320488 ], [ -61.359874639425989, -12.380581245735248 ], [ -61.359605144840756, -12.380581245735245 ], [ -61.359605144840756, -12.379772761979527 ], [ -61.359335650255517, -12.379772761979542 ], [ -61.359335650255517, -12.380850740320488 ], [ -61.359605144840756, -12.380850740320472 ], [ -61.359605144840756, -12.381389729490959 ], [ -61.359874639425989, -12.381389729490961 ], [ -61.359874639425989, -12.381659224076195 ], [ -61.360144134011229, -12.381659224076184 ], [ -61.360144134011229, -12.381389729490945 ], [ -61.360683123181701, -12.381389729490955 ], [ -61.360683123181701, -12.38112023490571 ], [ -61.360952617766934, -12.381120234905714 ], [ -61.360952617766934, -12.380850740320483 ], [ -61.361222112352159, -12.380850740320476 ], [ -61.361222112352159, -12.380581245735238 ], [ -61.361491606937406, -12.38058124573525 ], [ -61.361491606937406, -12.380311751149998 ], [ -61.363378069034049, -12.380311751150014 ], [ -61.363378069034049, -12.380581245735245 ], [ -61.363917058204521, -12.38058124573525 ], [ -61.363917058204521, -12.380850740320479 ], [ -61.364456047374993, -12.380850740320479 ], [ -61.364456047374993, -12.381120234905724 ], [ -61.36472554196024, -12.381120234905712 ], [ -61.36472554196024, -12.380850740320476 ], [ -61.364995036545466, -12.380850740320476 ], [ -61.364995036545466, -12.380581245735247 ], [ -61.36472554196024, -12.380581245735241 ], [ -61.36472554196024, -12.380311751150005 ], [ -61.364186552789768, -12.380311751150007 ], [ -61.364186552789768, -12.380042256564776 ], [ -61.363378069034049, -12.380042256564771 ], [ -61.363378069034049, -12.379772761979531 ], [ -61.361761101522632, -12.379772761979542 ], [ -61.361761101522632, -12.380042256564773 ], [ -61.361222112352159, -12.38004225656478 ], [ -61.361222112352159, -12.380311751150014 ], [ -61.360683123181701, -12.380311751150016 ], [ -61.360683123181701, -12.380581245735248 ], [ -61.360144134011229, -12.380581245735236 ], [ -61.360144134011229, -12.380850740320479 ] ] ], [ [ [ -61.359874639425989, -12.379233772809066 ], [ -61.359605144840756, -12.379233772809068 ], [ -61.359605144840756, -12.379772761979527 ], [ -61.359874639425989, -12.379772761979531 ], [ -61.359874639425989, -12.379233772809066 ] ] ], [ [ [ -61.360144134011229, -12.379233772809059 ], [ -61.360144134011229, -12.378694783638592 ], [ -61.359874639425989, -12.378694783638595 ], [ -61.359874639425989, -12.379233772809066 ], [ -61.360144134011229, -12.379233772809059 ] ] ], [ [ [ -61.362839079863576, -12.374652364860045 ], [ -61.362839079863576, -12.374921859445294 ], [ -61.362569585278351, -12.374921859445289 ], [ -61.362569585278351, -12.375460848615765 ], [ -61.362300090693104, -12.375460848615756 ], [ -61.362300090693104, -12.37573034320099 ], [ -61.361761101522632, -12.375730343200994 ], [ -61.361761101522632, -12.375999837786232 ], [ -61.362030596107878, -12.375999837786235 ], [ -61.362030596107878, -12.376269332371466 ], [ -61.361761101522632, -12.376269332371479 ], [ -61.361761101522632, -12.376538826956713 ], [ -61.362030596107878, -12.376538826956702 ], [ -61.362030596107878, -12.377616805297654 ], [ -61.362300090693104, -12.377616805297651 ], [ -61.362300090693104, -12.378155794468125 ], [ -61.362569585278351, -12.378155794468116 ], [ -61.362569585278351, -12.378425289053359 ], [ -61.362839079863576, -12.378425289053354 ], [ -61.362839079863576, -12.37869478363859 ], [ -61.363108574448823, -12.378694783638595 ], [ -61.363108574448823, -12.378964278223826 ], [ -61.363917058204521, -12.378964278223831 ], [ -61.363917058204521, -12.379233772809059 ], [ -61.364186552789768, -12.379233772809062 ], [ -61.364186552789768, -12.379503267394304 ], [ -61.364995036545466, -12.379503267394295 ], [ -61.364995036545466, -12.379772761979526 ], [ -61.367150993227355, -12.379772761979529 ], [ -61.367150993227355, -12.379503267394306 ], [ -61.3682289715683, -12.379503267394306 ], [ -61.3682289715683, -12.379772761979536 ], [ -61.368498466153547, -12.379772761979531 ], [ -61.368498466153547, -12.380042256564767 ], [ -61.368767960738772, -12.380042256564767 ], [ -61.368767960738772, -12.380311751150003 ], [ -61.369306949909245, -12.380311751150007 ], [ -61.369306949909245, -12.380042256564773 ], [ -61.369576444494491, -12.38004225656478 ], [ -61.369576444494491, -12.379772761979527 ], [ -61.369845939079717, -12.379772761979538 ], [ -61.369845939079717, -12.379503267394307 ], [ -61.370115433664949, -12.379503267394306 ], [ -61.370115433664949, -12.379233772809071 ], [ -61.370384928250189, -12.37923377280906 ], [ -61.370384928250189, -12.37869478363859 ], [ -61.370654422835422, -12.378694783638595 ], [ -61.370654422835422, -12.378425289053363 ], [ -61.370384928250189, -12.378425289053355 ], [ -61.370384928250189, -12.377886299882887 ], [ -61.370115433664949, -12.377886299882883 ], [ -61.370115433664949, -12.377616805297652 ], [ -61.369845939079717, -12.377616805297651 ], [ -61.369845939079717, -12.377077816127169 ], [ -61.370115433664949, -12.377077816127171 ], [ -61.370115433664949, -12.376808321541944 ], [ -61.369845939079717, -12.376808321541947 ], [ -61.369845939079717, -12.376538826956708 ], [ -61.369576444494491, -12.376538826956706 ], [ -61.369576444494491, -12.375999837786226 ], [ -61.369037455324019, -12.375999837786241 ], [ -61.369037455324019, -12.375730343200992 ], [ -61.368498466153547, -12.375730343200999 ], [ -61.368498466153547, -12.37546084861577 ], [ -61.367689982397827, -12.375460848615759 ], [ -61.367689982397827, -12.374921859445285 ], [ -61.367420487812602, -12.374921859445294 ], [ -61.367420487812602, -12.374652364860049 ], [ -61.367959476983074, -12.374652364860049 ], [ -61.367959476983074, -12.374382870274816 ], [ -61.36688149864213, -12.374382870274824 ], [ -61.36688149864213, -12.374113375689586 ], [ -61.365803520301185, -12.37411337568958 ], [ -61.365803520301185, -12.373843881104357 ], [ -61.365534025715938, -12.373843881104357 ], [ -61.365534025715938, -12.373574386519111 ], [ -61.363647563619296, -12.373574386519115 ], [ -61.363647563619296, -12.373843881104339 ], [ -61.363378069034049, -12.373843881104339 ], [ -61.363378069034049, -12.37411337568958 ], [ -61.363108574448823, -12.374113375689591 ], [ -61.363108574448823, -12.374652364860053 ], [ -61.362839079863576, -12.374652364860045 ] ], [ [ -61.366612004056883, -12.375730343201001 ], [ -61.36688149864213, -12.375730343201004 ], [ -61.36688149864213, -12.375999837786228 ], [ -61.367420487812602, -12.375999837786244 ], [ -61.367420487812602, -12.37626933237147 ], [ -61.367959476983074, -12.376269332371461 ], [ -61.367959476983074, -12.376808321541951 ], [ -61.3682289715683, -12.376808321541937 ], [ -61.3682289715683, -12.377077816127169 ], [ -61.367959476983074, -12.377077816127173 ], [ -61.367959476983074, -12.377347310712407 ], [ -61.367689982397827, -12.377347310712407 ], [ -61.367689982397827, -12.377616805297651 ], [ -61.367150993227355, -12.377616805297652 ], [ -61.367150993227355, -12.37788629988288 ], [ -61.365534025715938, -12.377886299882876 ], [ -61.365534025715938, -12.377616805297642 ], [ -61.364995036545466, -12.377616805297651 ], [ -61.364995036545466, -12.377077816127183 ], [ -61.36472554196024, -12.377077816127175 ], [ -61.36472554196024, -12.376269332371475 ], [ -61.364995036545466, -12.376269332371468 ], [ -61.364995036545466, -12.375999837786225 ], [ -61.365534025715938, -12.375999837786232 ], [ -61.365534025715938, -12.375730343201004 ], [ -61.365264531130713, -12.375730343200997 ], [ -61.365264531130713, -12.375460848615758 ], [ -61.36472554196024, -12.375460848615761 ], [ -61.36472554196024, -12.374921859445294 ], [ -61.364456047374993, -12.374921859445287 ], [ -61.364456047374993, -12.374382870274822 ], [ -61.364995036545466, -12.374382870274813 ], [ -61.364995036545466, -12.374113375689586 ], [ -61.365264531130713, -12.374113375689594 ], [ -61.365264531130713, -12.374382870274808 ], [ -61.365534025715938, -12.374382870274818 ], [ -61.365534025715938, -12.374652364860044 ], [ -61.36607301488641, -12.374652364860051 ], [ -61.36607301488641, -12.375460848615759 ], [ -61.366612004056883, -12.375460848615766 ], [ -61.366612004056883, -12.375730343201001 ] ] ], [ [ [ -61.360683123181701, -12.377886299882878 ], [ -61.360683123181701, -12.377616805297647 ], [ -61.360952617766934, -12.377616805297654 ], [ -61.360952617766934, -12.37734731071242 ], [ -61.360683123181701, -12.377347310712405 ], [ -61.360683123181701, -12.374382870274825 ], [ -61.360413628596461, -12.374382870274808 ], [ -61.360413628596461, -12.373843881104346 ], [ -61.360144134011229, -12.373843881104344 ], [ -61.360144134011229, -12.378694783638592 ], [ -61.360683123181701, -12.37869478363859 ], [ -61.360683123181701, -12.378155794468114 ], [ -61.360952617766934, -12.378155794468119 ], [ -61.360952617766934, -12.377886299882876 ], [ -61.360683123181701, -12.377886299882878 ] ] ], [ [ [ -61.36607301488641, -12.375460848615759 ], [ -61.365534025715938, -12.375460848615766 ], [ -61.365534025715938, -12.375730343201004 ], [ -61.36607301488641, -12.375730343200997 ], [ -61.36607301488641, -12.375460848615759 ] ] ], [ [ [ -61.369037455324019, -12.373843881104337 ], [ -61.368498466153547, -12.373843881104349 ], [ -61.368498466153547, -12.374113375689578 ], [ -61.369037455324019, -12.374113375689586 ], [ -61.369037455324019, -12.373843881104337 ] ] ], [ [ [ -61.360413628596461, -12.369531967740585 ], [ -61.360413628596461, -12.370340451496281 ], [ -61.360683123181701, -12.370340451496283 ], [ -61.360683123181701, -12.370879440666764 ], [ -61.361222112352159, -12.370879440666755 ], [ -61.361222112352159, -12.371418429837215 ], [ -61.361761101522632, -12.371418429837231 ], [ -61.361761101522632, -12.371957419007693 ], [ -61.362030596107878, -12.3719574190077 ], [ -61.362030596107878, -12.372226913592934 ], [ -61.361491606937406, -12.372226913592932 ], [ -61.361491606937406, -12.372496408178163 ], [ -61.360952617766934, -12.372496408178169 ], [ -61.360952617766934, -12.372765902763401 ], [ -61.360413628596461, -12.372765902763403 ], [ -61.360413628596461, -12.373035397348634 ], [ -61.362030596107878, -12.373035397348644 ], [ -61.362030596107878, -12.372765902763403 ], [ -61.362300090693104, -12.372765902763401 ], [ -61.362300090693104, -12.372226913592934 ], [ -61.362569585278351, -12.372226913592936 ], [ -61.362569585278351, -12.371957419007687 ], [ -61.362300090693104, -12.371957419007696 ], [ -61.362300090693104, -12.371687924422467 ], [ -61.362569585278351, -12.371687924422464 ], [ -61.362569585278351, -12.371148935251982 ], [ -61.362839079863576, -12.371148935251982 ], [ -61.362839079863576, -12.370070956911048 ], [ -61.362569585278351, -12.370070956911043 ], [ -61.362569585278351, -12.369801462325814 ], [ -61.362300090693104, -12.369801462325801 ], [ -61.362300090693104, -12.369531967740578 ], [ -61.362030596107878, -12.369531967740569 ], [ -61.362030596107878, -12.369801462325807 ], [ -61.361761101522632, -12.369801462325814 ], [ -61.361761101522632, -12.369531967740583 ], [ -61.361491606937406, -12.369531967740571 ], [ -61.361491606937406, -12.36926247315534 ], [ -61.361222112352159, -12.369262473155334 ], [ -61.361222112352159, -12.368992978570098 ], [ -61.361491606937406, -12.368992978570102 ], [ -61.361491606937406, -12.368453989399626 ], [ -61.361222112352159, -12.368453989399621 ], [ -61.361222112352159, -12.368723483984875 ], [ -61.360952617766934, -12.36872348398486 ], [ -61.360952617766934, -12.368992978570095 ], [ -61.360683123181701, -12.368992978570109 ], [ -61.360683123181701, -12.369531967740572 ], [ -61.360413628596461, -12.369531967740585 ] ] ], [ [ [ -61.367420487812602, -12.366837021888207 ], [ -61.367420487812602, -12.367106516473454 ], [ -61.367689982397827, -12.367106516473454 ], [ -61.367689982397827, -12.367376011058679 ], [ -61.367420487812602, -12.367376011058683 ], [ -61.367420487812602, -12.367645505643921 ], [ -61.367689982397827, -12.367645505643914 ], [ -61.367689982397827, -12.367915000229166 ], [ -61.367150993227355, -12.367915000229157 ], [ -61.367150993227355, -12.36818449481439 ], [ -61.36688149864213, -12.368184494814404 ], [ -61.36688149864213, -12.36845398939964 ], [ -61.367150993227355, -12.368453989399626 ], [ -61.367150993227355, -12.36872348398486 ], [ -61.367420487812602, -12.368723483984862 ], [ -61.367420487812602, -12.368992978570095 ], [ -61.367689982397827, -12.368992978570104 ], [ -61.367689982397827, -12.369531967740572 ], [ -61.367420487812602, -12.369531967740576 ], [ -61.367420487812602, -12.369801462325807 ], [ -61.367150993227355, -12.369801462325807 ], [ -61.367150993227355, -12.370879440666759 ], [ -61.367959476983074, -12.37087944066675 ], [ -61.367959476983074, -12.371418429837224 ], [ -61.3682289715683, -12.371418429837227 ], [ -61.3682289715683, -12.371148935251993 ], [ -61.368498466153547, -12.371148935251995 ], [ -61.368498466153547, -12.371418429837224 ], [ -61.368767960738772, -12.371418429837227 ], [ -61.368767960738772, -12.371148935251981 ], [ -61.369306949909245, -12.371148935251998 ], [ -61.369306949909245, -12.371418429837224 ], [ -61.369845939079717, -12.371418429837227 ], [ -61.369845939079717, -12.371687924422462 ], [ -61.370115433664949, -12.371687924422464 ], [ -61.370115433664949, -12.371957419007689 ], [ -61.370384928250189, -12.371957419007696 ], [ -61.370384928250189, -12.372496408178169 ], [ -61.370115433664949, -12.372496408178169 ], [ -61.370115433664949, -12.373035397348641 ], [ -61.369845939079717, -12.373035397348643 ], [ -61.369845939079717, -12.373304891933875 ], [ -61.369576444494491, -12.373304891933872 ], [ -61.369576444494491, -12.373574386519104 ], [ -61.369037455324019, -12.37357438651911 ], [ -61.369037455324019, -12.373843881104337 ], [ -61.369306949909245, -12.373843881104353 ], [ -61.369306949909245, -12.374113375689589 ], [ -61.369576444494491, -12.374113375689586 ], [ -61.369576444494491, -12.373843881104346 ], [ -61.370115433664949, -12.373843881104351 ], [ -61.370115433664949, -12.373574386519106 ], [ -61.370384928250189, -12.373574386519122 ], [ -61.370384928250189, -12.373304891933874 ], [ -61.371732401176367, -12.373304891933874 ], [ -61.371732401176367, -12.373035397348641 ], [ -61.372271390346839, -12.37303539734865 ], [ -61.372271390346839, -12.372765902763399 ], [ -61.372540884932079, -12.372765902763405 ], [ -61.372540884932079, -12.372496408178161 ], [ -61.372810379517311, -12.372496408178163 ], [ -61.372810379517311, -12.3719574190077 ], [ -61.373079874102544, -12.371957419007689 ], [ -61.373079874102544, -12.371418429837215 ], [ -61.373349368687784, -12.371418429837233 ], [ -61.373349368687784, -12.370609946081521 ], [ -61.373618863273016, -12.370609946081528 ], [ -61.373618863273016, -12.370070956911045 ], [ -61.373888357858256, -12.370070956911041 ], [ -61.373888357858256, -12.369531967740567 ], [ -61.374157852443489, -12.369531967740571 ], [ -61.374157852443489, -12.368723483984876 ], [ -61.374427347028728, -12.368723483984871 ], [ -61.374427347028728, -12.368453989399637 ], [ -61.374157852443489, -12.368453989399631 ], [ -61.374157852443489, -12.367915000229164 ], [ -61.373618863273016, -12.36791500022915 ], [ -61.373618863273016, -12.36764550564393 ], [ -61.372540884932079, -12.36764550564393 ], [ -61.372540884932079, -12.367376011058695 ], [ -61.372001895761606, -12.367376011058694 ], [ -61.372001895761606, -12.367106516473443 ], [ -61.371462906591134, -12.367106516473454 ], [ -61.371462906591134, -12.366837021888209 ], [ -61.370923917420662, -12.366837021888212 ], [ -61.370923917420662, -12.366567527302985 ], [ -61.370384928250189, -12.366567527302985 ], [ -61.370384928250189, -12.366298032717742 ], [ -61.369845939079717, -12.366298032717737 ], [ -61.369845939079717, -12.3660285381325 ], [ -61.369306949909245, -12.366028538132515 ], [ -61.369306949909245, -12.365759043547278 ], [ -61.3682289715683, -12.365759043547264 ], [ -61.3682289715683, -12.366028538132499 ], [ -61.367959476983074, -12.366028538132515 ], [ -61.367959476983074, -12.366298032717737 ], [ -61.367689982397827, -12.366298032717742 ], [ -61.367689982397827, -12.366837021888218 ], [ -61.367420487812602, -12.366837021888207 ] ], [ [ -61.371193412005894, -12.367915000229155 ], [ -61.370654422835422, -12.367915000229162 ], [ -61.370654422835422, -12.368184494814397 ], [ -61.369576444494491, -12.368184494814395 ], [ -61.369576444494491, -12.367915000229164 ], [ -61.369037455324019, -12.367915000229159 ], [ -61.369037455324019, -12.367645505643916 ], [ -61.368498466153547, -12.367645505643926 ], [ -61.368498466153547, -12.367376011058694 ], [ -61.3682289715683, -12.367376011058685 ], [ -61.3682289715683, -12.367106516473454 ], [ -61.367959476983074, -12.36710651647345 ], [ -61.367959476983074, -12.366837021888209 ], [ -61.3682289715683, -12.366837021888209 ], [ -61.3682289715683, -12.366567527302971 ], [ -61.369306949909245, -12.366567527302983 ], [ -61.369306949909245, -12.366837021888218 ], [ -61.369845939079717, -12.366837021888214 ], [ -61.369845939079717, -12.367106516473447 ], [ -61.370923917420662, -12.367106516473459 ], [ -61.370923917420662, -12.367376011058678 ], [ -61.371193412005894, -12.367376011058692 ], [ -61.371193412005894, -12.367915000229155 ] ] ], [ [ [ -61.361761101522632, -12.368453989399638 ], [ -61.361761101522632, -12.3681844948144 ], [ -61.361491606937406, -12.368184494814395 ], [ -61.361491606937406, -12.368453989399626 ], [ -61.361761101522632, -12.368453989399638 ] ] ], [ [ [ -61.36688149864213, -12.367915000229155 ], [ -61.366612004056883, -12.367915000229152 ], [ -61.366612004056883, -12.36818449481439 ], [ -61.36688149864213, -12.368184494814404 ], [ -61.36688149864213, -12.367915000229155 ] ] ], [ [ [ -61.345052437238017, -12.367915000229166 ], [ -61.34559142640849, -12.367915000229162 ], [ -61.34559142640849, -12.367645505643923 ], [ -61.34532193182325, -12.367645505643921 ], [ -61.34532193182325, -12.367376011058685 ], [ -61.344782942652785, -12.367376011058694 ], [ -61.344782942652785, -12.367106516473452 ], [ -61.344243953482312, -12.367106516473449 ], [ -61.344243953482312, -12.36683702188822 ], [ -61.343974458897073, -12.366837021888212 ], [ -61.343974458897073, -12.366567527302985 ], [ -61.34370496431184, -12.366567527302985 ], [ -61.34370496431184, -12.367106516473457 ], [ -61.343974458897073, -12.367106516473445 ], [ -61.343974458897073, -12.367376011058679 ], [ -61.344513448067545, -12.367376011058683 ], [ -61.344513448067545, -12.367645505643923 ], [ -61.345052437238017, -12.367645505643921 ], [ -61.345052437238017, -12.367915000229166 ] ] ], [ [ [ -61.34370496431184, -12.366567527302985 ], [ -61.34370496431184, -12.366028538132504 ], [ -61.3434354697266, -12.366028538132513 ], [ -61.3434354697266, -12.366567527302973 ], [ -61.34370496431184, -12.366567527302985 ] ] ], [ [ [ -61.3434354697266, -12.366028538132513 ], [ -61.3434354697266, -12.365489548962042 ], [ -61.343165975141368, -12.365489548962028 ], [ -61.343165975141368, -12.3660285381325 ], [ -61.3434354697266, -12.366028538132513 ] ] ], [ [ [ -61.344513448067545, -12.361716624768741 ], [ -61.344513448067545, -12.362255613939196 ], [ -61.344243953482312, -12.362255613939203 ], [ -61.344243953482312, -12.362525108524443 ], [ -61.344513448067545, -12.362525108524446 ], [ -61.344513448067545, -12.362794603109682 ], [ -61.344243953482312, -12.36279460310968 ], [ -61.344243953482312, -12.363064097694911 ], [ -61.344513448067545, -12.363064097694904 ], [ -61.344513448067545, -12.363603086865391 ], [ -61.344782942652785, -12.363603086865389 ], [ -61.344782942652785, -12.36468106520633 ], [ -61.345052437238017, -12.364681065206327 ], [ -61.345052437238017, -12.364950559791556 ], [ -61.345860920993729, -12.364950559791559 ], [ -61.345860920993729, -12.364411570621089 ], [ -61.346399910164195, -12.364411570621096 ], [ -61.346399910164195, -12.363872581450615 ], [ -61.346669404749434, -12.363872581450625 ], [ -61.346669404749434, -12.363603086865389 ], [ -61.346399910164195, -12.363603086865378 ], [ -61.346399910164195, -12.363333592280142 ], [ -61.346669404749434, -12.363333592280153 ], [ -61.346669404749434, -12.363064097694917 ], [ -61.346399910164195, -12.363064097694906 ], [ -61.346399910164195, -12.362525108524444 ], [ -61.346130415578962, -12.362525108524443 ], [ -61.346130415578962, -12.36306409769491 ], [ -61.34559142640849, -12.363064097694915 ], [ -61.34559142640849, -12.363333592280146 ], [ -61.34532193182325, -12.363333592280139 ], [ -61.34532193182325, -12.363064097694915 ], [ -61.344782942652785, -12.363064097694911 ], [ -61.344782942652785, -12.361177635598262 ], [ -61.344513448067545, -12.361177635598265 ], [ -61.344513448067545, -12.360638646427791 ], [ -61.344243953482312, -12.360638646427786 ], [ -61.344243953482312, -12.360369151842553 ], [ -61.343974458897073, -12.360369151842558 ], [ -61.343974458897073, -12.360099657257319 ], [ -61.34370496431184, -12.360099657257326 ], [ -61.34370496431184, -12.36063864642778 ], [ -61.343974458897073, -12.360638646427786 ], [ -61.343974458897073, -12.361177635598255 ], [ -61.344243953482312, -12.361177635598253 ], [ -61.344243953482312, -12.361716624768739 ], [ -61.344513448067545, -12.361716624768741 ] ] ], [ [ [ -61.36607301488641, -12.357404711404966 ], [ -61.366612004056883, -12.357404711404966 ], [ -61.366612004056883, -12.357135216819719 ], [ -61.365803520301185, -12.357135216819723 ], [ -61.365803520301185, -12.356865722234481 ], [ -61.365264531130713, -12.356865722234495 ], [ -61.365264531130713, -12.356596227649259 ], [ -61.36472554196024, -12.356596227649245 ], [ -61.36472554196024, -12.357135216819721 ], [ -61.364995036545466, -12.357135216819717 ], [ -61.364995036545466, -12.35767420599019 ], [ -61.365264531130713, -12.357674205990191 ], [ -61.365264531130713, -12.357943700575431 ], [ -61.36607301488641, -12.357943700575429 ], [ -61.36607301488641, -12.357404711404966 ] ] ], [ [ [ -61.367420487812602, -12.356596227649254 ], [ -61.367150993227355, -12.356596227649254 ], [ -61.367150993227355, -12.356326733064012 ], [ -61.36688149864213, -12.356326733064012 ], [ -61.36688149864213, -12.356865722234492 ], [ -61.366612004056883, -12.356865722234481 ], [ -61.366612004056883, -12.357135216819719 ], [ -61.367150993227355, -12.357135216819723 ], [ -61.367150993227355, -12.356865722234494 ], [ -61.367420487812602, -12.356865722234479 ], [ -61.367420487812602, -12.356596227649254 ] ] ], [ [ [ -61.36472554196024, -12.356596227649245 ], [ -61.36472554196024, -12.356326733064011 ], [ -61.364456047374993, -12.356326733064014 ], [ -61.364456047374993, -12.356596227649257 ], [ -61.36472554196024, -12.356596227649245 ] ] ], [ [ [ -61.36688149864213, -12.356326733064012 ], [ -61.36688149864213, -12.356057238478776 ], [ -61.366612004056883, -12.356057238478783 ], [ -61.366612004056883, -12.356326733064025 ], [ -61.36688149864213, -12.356326733064012 ] ] ], [ [ [ -61.366612004056883, -12.356057238478783 ], [ -61.366612004056883, -12.355787743893535 ], [ -61.366342509471657, -12.355787743893547 ], [ -61.366342509471657, -12.356057238478771 ], [ -61.366612004056883, -12.356057238478783 ] ] ], [ [ [ -61.366342509471657, -12.355518249308302 ], [ -61.365803520301185, -12.355518249308306 ], [ -61.365803520301185, -12.355787743893542 ], [ -61.366342509471657, -12.355787743893547 ], [ -61.366342509471657, -12.355518249308302 ] ] ], [ [ [ -61.365803520301185, -12.355248754723066 ], [ -61.365264531130713, -12.355248754723082 ], [ -61.365264531130713, -12.355518249308307 ], [ -61.365803520301185, -12.355518249308306 ], [ -61.365803520301185, -12.355248754723066 ] ] ], [ [ [ -61.325918321686281, -12.398906877531283 ], [ -61.325918321686281, -12.399176372116507 ], [ -61.325379332515809, -12.399176372116523 ], [ -61.325379332515809, -12.399445866701747 ], [ -61.325109837930569, -12.399445866701758 ], [ -61.325109837930569, -12.39971536128699 ], [ -61.324570848760096, -12.39971536128699 ], [ -61.324570848760096, -12.400254350457454 ], [ -61.324301354174864, -12.400254350457457 ], [ -61.324301354174864, -12.400793339627938 ], [ -61.324031859589624, -12.400793339627933 ], [ -61.324031859589624, -12.401332328798409 ], [ -61.323762365004391, -12.401332328798407 ], [ -61.323762365004391, -12.401871317968872 ], [ -61.323492870419152, -12.401871317968871 ], [ -61.323492870419152, -12.40214081255411 ], [ -61.323762365004391, -12.402140812554119 ], [ -61.323762365004391, -12.402679801724588 ], [ -61.324031859589624, -12.402679801724592 ], [ -61.324031859589624, -12.402410307139348 ], [ -61.324570848760096, -12.402410307139348 ], [ -61.324570848760096, -12.401871317968874 ], [ -61.325109837930569, -12.40187131796888 ], [ -61.325109837930569, -12.401332328798404 ], [ -61.325379332515809, -12.401332328798404 ], [ -61.325379332515809, -12.401062834213166 ], [ -61.325648827101041, -12.401062834213175 ], [ -61.325648827101041, -12.400523845042692 ], [ -61.325918321686281, -12.400523845042692 ], [ -61.325918321686281, -12.39998485587223 ], [ -61.326187816271513, -12.399984855872228 ], [ -61.326187816271513, -12.399445866701759 ], [ -61.326457310856753, -12.399445866701759 ], [ -61.326457310856753, -12.398906877531282 ], [ -61.326726805441986, -12.398906877531285 ], [ -61.326726805441986, -12.398367888360809 ], [ -61.326996300027226, -12.398367888360804 ], [ -61.326996300027226, -12.397020415434636 ], [ -61.326726805441986, -12.397020415434627 ], [ -61.326726805441986, -12.397828899190346 ], [ -61.326457310856753, -12.39782889919034 ], [ -61.326457310856753, -12.398367888360804 ], [ -61.326187816271513, -12.398367888360807 ], [ -61.326187816271513, -12.398906877531278 ], [ -61.325918321686281, -12.398906877531283 ] ] ], [ [ [ -61.325379332515809, -12.395133953337979 ], [ -61.325379332515809, -12.39540344792321 ], [ -61.325918321686281, -12.395403447923215 ], [ -61.325918321686281, -12.395942437093691 ], [ -61.326187816271513, -12.395942437093691 ], [ -61.326187816271513, -12.39648142626416 ], [ -61.326457310856753, -12.396481426264156 ], [ -61.326457310856753, -12.397020415434637 ], [ -61.326726805441986, -12.397020415434627 ], [ -61.326726805441986, -12.395672942508448 ], [ -61.326996300027226, -12.395672942508448 ], [ -61.326996300027226, -12.395403447923215 ], [ -61.326726805441986, -12.395403447923208 ], [ -61.326726805441986, -12.394864458752748 ], [ -61.326187816271513, -12.394864458752744 ], [ -61.326187816271513, -12.394594964167517 ], [ -61.325379332515809, -12.394594964167505 ], [ -61.325379332515809, -12.394325469582276 ], [ -61.324840343345336, -12.394325469582276 ], [ -61.324840343345336, -12.394055974997029 ], [ -61.324570848760096, -12.394055974997041 ], [ -61.324570848760096, -12.394325469582267 ], [ -61.323223375833919, -12.394325469582265 ], [ -61.323223375833919, -12.394594964167505 ], [ -61.322684386663447, -12.394594964167499 ], [ -61.322684386663447, -12.395133953337986 ], [ -61.325379332515809, -12.395133953337979 ] ] ], [ [ [ -61.326457310856753, -12.390552545388974 ], [ -61.326457310856753, -12.390283050803731 ], [ -61.326187816271513, -12.390283050803728 ], [ -61.326187816271513, -12.390013556218499 ], [ -61.325918321686281, -12.390013556218491 ], [ -61.325918321686281, -12.389744061633264 ], [ -61.325648827101041, -12.389744061633268 ], [ -61.325648827101041, -12.389474567048028 ], [ -61.325109837930569, -12.38947456704803 ], [ -61.325109837930569, -12.389744061633264 ], [ -61.324570848760096, -12.389744061633261 ], [ -61.324570848760096, -12.390013556218502 ], [ -61.324031859589624, -12.390013556218495 ], [ -61.324031859589624, -12.389744061633268 ], [ -61.323762365004391, -12.389744061633253 ], [ -61.323762365004391, -12.389474567048023 ], [ -61.323492870419152, -12.389474567048017 ], [ -61.323492870419152, -12.388935577877552 ], [ -61.323223375833919, -12.388935577877552 ], [ -61.323223375833919, -12.388396588707078 ], [ -61.322953881248679, -12.388396588707085 ], [ -61.322953881248679, -12.389744061633266 ], [ -61.323223375833919, -12.389744061633261 ], [ -61.323223375833919, -12.390283050803729 ], [ -61.323492870419152, -12.390283050803742 ], [ -61.323492870419152, -12.390552545388974 ], [ -61.326457310856753, -12.390552545388974 ] ] ], [ [ [ -61.327535289197684, -12.388666083292321 ], [ -61.327265794612458, -12.388666083292316 ], [ -61.327265794612458, -12.388935577877554 ], [ -61.327535289197684, -12.388935577877547 ], [ -61.327535289197684, -12.388666083292321 ] ] ], [ [ [ -61.325648827101041, -12.388127094121844 ], [ -61.326457310856753, -12.388127094121852 ], [ -61.326457310856753, -12.388396588707089 ], [ -61.326996300027226, -12.388396588707089 ], [ -61.326996300027226, -12.388666083292311 ], [ -61.327265794612458, -12.388666083292316 ], [ -61.327265794612458, -12.388127094121849 ], [ -61.326996300027226, -12.388127094121852 ], [ -61.326996300027226, -12.387857599536616 ], [ -61.326726805441986, -12.387857599536609 ], [ -61.326726805441986, -12.386510126610432 ], [ -61.326457310856753, -12.386510126610435 ], [ -61.326457310856753, -12.38624063202519 ], [ -61.326187816271513, -12.386240632025197 ], [ -61.326187816271513, -12.38651012661043 ], [ -61.325648827101041, -12.386510126610441 ], [ -61.325648827101041, -12.387049115780908 ], [ -61.325109837930569, -12.387049115780908 ], [ -61.325109837930569, -12.387857599536618 ], [ -61.325648827101041, -12.387857599536609 ], [ -61.325648827101041, -12.388127094121844 ] ] ], [ [ [ -61.327265794612458, -12.378425289053364 ], [ -61.327265794612458, -12.37896427822383 ], [ -61.326996300027226, -12.378964278223826 ], [ -61.326996300027226, -12.380581245735241 ], [ -61.327535289197684, -12.380581245735238 ], [ -61.327535289197684, -12.378964278223828 ], [ -61.327804783782931, -12.378964278223826 ], [ -61.327804783782931, -12.37869478363859 ], [ -61.328074278368156, -12.378694783638599 ], [ -61.328074278368156, -12.378425289053354 ], [ -61.328343772953403, -12.378425289053354 ], [ -61.328343772953403, -12.378155794468123 ], [ -61.328613267538628, -12.378155794468126 ], [ -61.328613267538628, -12.377886299882876 ], [ -61.327804783782931, -12.377886299882892 ], [ -61.327804783782931, -12.377616805297647 ], [ -61.327535289197684, -12.377616805297642 ], [ -61.327535289197684, -12.377886299882878 ], [ -61.327265794612458, -12.377886299882888 ], [ -61.327265794612458, -12.378155794468123 ], [ -61.327535289197684, -12.378155794468125 ], [ -61.327535289197684, -12.378425289053361 ], [ -61.327265794612458, -12.378425289053364 ] ] ], [ [ [ -61.328882762123875, -12.377886299882878 ], [ -61.328882762123875, -12.377616805297652 ], [ -61.328613267538628, -12.377616805297654 ], [ -61.328613267538628, -12.377886299882876 ], [ -61.328882762123875, -12.377886299882878 ] ] ], [ [ [ -61.330230235050045, -12.375460848615766 ], [ -61.330230235050045, -12.375730343201003 ], [ -61.32996074046482, -12.375730343200992 ], [ -61.32996074046482, -12.377616805297645 ], [ -61.330230235050045, -12.377616805297651 ], [ -61.330230235050045, -12.377886299882878 ], [ -61.330499729635278, -12.377886299882892 ], [ -61.330499729635278, -12.378155794468128 ], [ -61.33130821339099, -12.37815579446811 ], [ -61.33130821339099, -12.37788629988289 ], [ -61.33103871880575, -12.377886299882883 ], [ -61.33103871880575, -12.375460848615761 ], [ -61.33130821339099, -12.375460848615766 ], [ -61.33130821339099, -12.37519135403053 ], [ -61.33103871880575, -12.375191354030525 ], [ -61.33103871880575, -12.374921859445294 ], [ -61.33130821339099, -12.37492185944528 ], [ -61.33130821339099, -12.374652364860054 ], [ -61.33103871880575, -12.374652364860054 ], [ -61.33103871880575, -12.37438287027482 ], [ -61.33130821339099, -12.374382870274816 ], [ -61.33130821339099, -12.374113375689584 ], [ -61.33103871880575, -12.374113375689589 ], [ -61.33103871880575, -12.373574386519117 ], [ -61.330499729635278, -12.37357438651912 ], [ -61.330499729635278, -12.374113375689577 ], [ -61.330769224220518, -12.37411337568958 ], [ -61.330769224220518, -12.374921859445292 ], [ -61.330499729635278, -12.374921859445298 ], [ -61.330499729635278, -12.375460848615768 ], [ -61.330230235050045, -12.375460848615766 ] ] ], [ [ [ -61.330769224220518, -12.371687924422453 ], [ -61.330499729635278, -12.371687924422469 ], [ -61.330499729635278, -12.371418429837229 ], [ -61.32996074046482, -12.371418429837226 ], [ -61.32996074046482, -12.371687924422467 ], [ -61.330230235050045, -12.371687924422462 ], [ -61.330230235050045, -12.371957419007689 ], [ -61.330499729635278, -12.3719574190077 ], [ -61.330499729635278, -12.37249640817816 ], [ -61.330769224220518, -12.372496408178176 ], [ -61.330769224220518, -12.371687924422453 ] ] ], [ [ [ -61.329152256709101, -12.37168792442246 ], [ -61.329691245879573, -12.371687924422464 ], [ -61.329691245879573, -12.371418429837224 ], [ -61.32996074046482, -12.371418429837226 ], [ -61.32996074046482, -12.371148935251991 ], [ -61.329421751294348, -12.371148935251988 ], [ -61.329421751294348, -12.37087944066675 ], [ -61.328882762123875, -12.370879440666751 ], [ -61.328882762123875, -12.371148935251986 ], [ -61.328074278368156, -12.371148935251995 ], [ -61.328074278368156, -12.371418429837226 ], [ -61.328343772953403, -12.37141842983722 ], [ -61.328343772953403, -12.372226913592936 ], [ -61.329152256709101, -12.372226913592925 ], [ -61.329152256709101, -12.37168792442246 ] ] ], [ [ [ -61.332386191731935, -12.366567527302987 ], [ -61.332386191731935, -12.367106516473459 ], [ -61.332655686317167, -12.367106516473447 ], [ -61.332655686317167, -12.366567527302983 ], [ -61.33319467548764, -12.366567527302985 ], [ -61.33319467548764, -12.366298032717747 ], [ -61.332925180902407, -12.366298032717738 ], [ -61.332925180902407, -12.365759043547275 ], [ -61.332116697146695, -12.36575904354728 ], [ -61.332116697146695, -12.366028538132509 ], [ -61.331847202561462, -12.366028538132506 ], [ -61.331847202561462, -12.366298032717737 ], [ -61.332116697146695, -12.366298032717745 ], [ -61.332116697146695, -12.366567527302973 ], [ -61.332386191731935, -12.366567527302987 ] ] ], [ [ [ -61.326996300027226, -12.36495055979157 ], [ -61.326996300027226, -12.364681065206334 ], [ -61.326726805441986, -12.364681065206335 ], [ -61.326726805441986, -12.364950559791559 ], [ -61.326996300027226, -12.36495055979157 ] ] ], [ [ [ -61.327265794612458, -12.364681065206328 ], [ -61.327265794612458, -12.364411570621083 ], [ -61.326996300027226, -12.364411570621094 ], [ -61.326996300027226, -12.364681065206334 ], [ -61.327265794612458, -12.364681065206328 ] ] ], [ [ [ -61.327804783782931, -12.364142076035861 ], [ -61.327265794612458, -12.364142076035847 ], [ -61.327265794612458, -12.364411570621083 ], [ -61.327804783782931, -12.364411570621092 ], [ -61.327804783782931, -12.364142076035861 ] ] ], [ [ [ -61.328343772953403, -12.36387258145062 ], [ -61.327804783782931, -12.363872581450625 ], [ -61.327804783782931, -12.364142076035861 ], [ -61.328343772953403, -12.364142076035847 ], [ -61.328343772953403, -12.36387258145062 ] ] ], [ [ [ -61.324031859589624, -12.363603086865391 ], [ -61.324031859589624, -12.363333592280146 ], [ -61.323762365004391, -12.363333592280147 ], [ -61.323762365004391, -12.363603086865391 ], [ -61.324031859589624, -12.363603086865391 ] ] ], [ [ [ -61.329421751294348, -12.363064097694917 ], [ -61.329421751294348, -12.363333592280146 ], [ -61.328882762123875, -12.363333592280153 ], [ -61.328882762123875, -12.363603086865378 ], [ -61.328343772953403, -12.363603086865385 ], [ -61.328343772953403, -12.36387258145062 ], [ -61.329152256709101, -12.36387258145062 ], [ -61.329152256709101, -12.364142076035854 ], [ -61.329421751294348, -12.364142076035856 ], [ -61.329421751294348, -12.363872581450625 ], [ -61.330230235050045, -12.363872581450625 ], [ -61.330230235050045, -12.36360308686538 ], [ -61.32996074046482, -12.363603086865389 ], [ -61.32996074046482, -12.363333592280153 ], [ -61.330230235050045, -12.363333592280146 ], [ -61.330230235050045, -12.363064097694908 ], [ -61.330499729635278, -12.363064097694902 ], [ -61.330499729635278, -12.362255613939199 ], [ -61.330230235050045, -12.362255613939196 ], [ -61.330230235050045, -12.362525108524441 ], [ -61.32996074046482, -12.362525108524435 ], [ -61.32996074046482, -12.362794603109677 ], [ -61.329691245879573, -12.36279460310968 ], [ -61.329691245879573, -12.363064097694911 ], [ -61.329421751294348, -12.363064097694917 ] ] ], [ [ [ -61.324301354174864, -12.363333592280151 ], [ -61.324301354174864, -12.362794603109682 ], [ -61.324031859589624, -12.36279460310968 ], [ -61.324031859589624, -12.363333592280146 ], [ -61.324301354174864, -12.363333592280151 ] ] ], [ [ [ -61.330769224220518, -12.361716624768725 ], [ -61.330499729635278, -12.361716624768727 ], [ -61.330499729635278, -12.362255613939199 ], [ -61.330769224220518, -12.362255613939205 ], [ -61.330769224220518, -12.361716624768725 ] ] ], [ [ [ -61.325109837930569, -12.361177635598253 ], [ -61.324840343345336, -12.361177635598265 ], [ -61.324840343345336, -12.361716624768734 ], [ -61.324570848760096, -12.361716624768734 ], [ -61.324570848760096, -12.362525108524444 ], [ -61.324301354174864, -12.362525108524432 ], [ -61.324301354174864, -12.362794603109682 ], [ -61.324840343345336, -12.36279460310968 ], [ -61.324840343345336, -12.362255613939206 ], [ -61.325379332515809, -12.362255613939201 ], [ -61.325379332515809, -12.361716624768736 ], [ -61.325918321686281, -12.361716624768739 ], [ -61.325918321686281, -12.361177635598262 ], [ -61.326457310856753, -12.361177635598269 ], [ -61.326457310856753, -12.360638646427788 ], [ -61.326996300027226, -12.360638646427789 ], [ -61.326996300027226, -12.360369151842553 ], [ -61.326187816271513, -12.36036915184256 ], [ -61.326187816271513, -12.360638646427789 ], [ -61.325918321686281, -12.360638646427789 ], [ -61.325918321686281, -12.360369151842557 ], [ -61.325648827101041, -12.360369151842551 ], [ -61.325648827101041, -12.3606386464278 ], [ -61.325109837930569, -12.360638646427791 ], [ -61.325109837930569, -12.361177635598253 ] ] ], [ [ [ -61.327265794612458, -12.360369151842548 ], [ -61.327265794612458, -12.360099657257313 ], [ -61.326996300027226, -12.360099657257326 ], [ -61.326996300027226, -12.360369151842553 ], [ -61.327265794612458, -12.360369151842548 ] ] ], [ [ [ -61.341818502215197, -12.359021678916374 ], [ -61.341818502215197, -12.359560668086839 ], [ -61.342087996800423, -12.359560668086852 ], [ -61.342087996800423, -12.360099657257326 ], [ -61.342357491385656, -12.360099657257313 ], [ -61.342357491385656, -12.360369151842548 ], [ -61.342626985970895, -12.360369151842555 ], [ -61.342626985970895, -12.360099657257315 ], [ -61.342896480556128, -12.360099657257319 ], [ -61.342896480556128, -12.359830162672079 ], [ -61.343165975141368, -12.359830162672077 ], [ -61.343165975141368, -12.360099657257328 ], [ -61.34370496431184, -12.360099657257326 ], [ -61.34370496431184, -12.359830162672081 ], [ -61.3434354697266, -12.359830162672084 ], [ -61.3434354697266, -12.359560668086839 ], [ -61.343165975141368, -12.359560668086852 ], [ -61.343165975141368, -12.359021678916378 ], [ -61.342896480556128, -12.359021678916365 ], [ -61.342896480556128, -12.358482689745905 ], [ -61.342357491385656, -12.358482689745895 ], [ -61.342357491385656, -12.358213195160667 ], [ -61.341279513044725, -12.358213195160666 ], [ -61.341279513044725, -12.358482689745902 ], [ -61.341818502215197, -12.3584826897459 ], [ -61.341818502215197, -12.358752184331134 ], [ -61.341549007629951, -12.358752184331138 ], [ -61.341549007629951, -12.359021678916374 ], [ -61.341818502215197, -12.359021678916374 ] ] ], [ [ [ -61.338045578021891, -12.359021678916374 ], [ -61.338045578021891, -12.358752184331138 ], [ -61.337776083436644, -12.358752184331138 ], [ -61.337776083436644, -12.359021678916367 ], [ -61.338045578021891, -12.359021678916374 ] ] ], [ [ [ -61.338315072607116, -12.358482689745896 ], [ -61.338045578021891, -12.358482689745909 ], [ -61.338045578021891, -12.358752184331138 ], [ -61.338315072607116, -12.358752184331131 ], [ -61.338315072607116, -12.358482689745896 ] ] ], [ [ [ -61.340471029289006, -12.357943700575435 ], [ -61.341010018459478, -12.357943700575428 ], [ -61.341010018459478, -12.357674205990197 ], [ -61.338854061777589, -12.357674205990197 ], [ -61.338854061777589, -12.358213195160662 ], [ -61.338315072607116, -12.358213195160669 ], [ -61.338315072607116, -12.358482689745896 ], [ -61.339123556362836, -12.358482689745911 ], [ -61.339123556362836, -12.358213195160669 ], [ -61.340471029289006, -12.358213195160664 ], [ -61.340471029289006, -12.357943700575435 ] ] ] ] } }
]
}
