{
"type": "FeatureCollection",
"name": "massaco",
"crs": { "type": "name", "properties": { "name": "urn:ogc:def:crs:OGC:1.3:CRS84" } },
"features": [
{ "type": "Feature", "properties": { "area_ha": 62.41 }, "geometry": { "type": "MultiPolygon", "coordinates": [ [ [ [ -62.234923557686813, -12.607226191918599 ], [ -62.234923557686813, -12.607495686503835 ], [ -62.23465406310158, -12.607495686503835 ], [ -62.23465406310158, -12.607765181089071 ], [ -62.234384568516347, -12.607765181089071 ], [ -62.234384568516347, -12.608304170259542 ], [ -62.234115073931108, -12.608304170259542 ], [ -62.234115073931108, -12.608843159430014 ], [ -62.233845579345875, -12.608843159430014 ], [ -62.233845579345875, -12.60911265401525 ], [ -62.234115073931108, -12.60911265401525 ], [ -62.234115073931108, -12.609651643185721 ], [ -62.23465406310158, -12.609651643185721 ], [ -62.23465406310158, -12.609921137770957 ], [ -62.235193052272052, -12.609921137770957 ], [ -62.235193052272052, -12.610190632356193 ], [ -62.235462546857285, -12.610190632356193 ], [ -62.235462546857285, -12.61046012694143 ], [ -62.235732041442525, -12.61046012694143 ], [ -62.235732041442525, -12.610729621526666 ], [ -62.23654052519823, -12.610729621526666 ], [ -62.23654052519823, -12.610190632356193 ], [ -62.236810019783469, -12.610190632356193 ], [ -62.236810019783469, -12.609921137770957 ], [ -62.23654052519823, -12.609921137770957 ], [ -62.23654052519823, -12.609651643185721 ], [ -62.236810019783469, -12.609651643185721 ], [ -62.236810019783469, -12.609382148600485 ], [ -62.23654052519823, -12.609382148600485 ], [ -62.23654052519823, -12.608843159430014 ], [ -62.236271030612997, -12.608843159430014 ], [ -62.236271030612997, -12.607226191918599 ], [ -62.236001536027757, -12.607226191918599 ], [ -62.236001536027757, -12.606956697333363 ], [ -62.235462546857285, -12.606956697333363 ], [ -62.235462546857285, -12.607226191918599 ], [ -62.234923557686813, -12.607226191918599 ] ] ], [ [ [ -62.203392691214219, -12.608304170259542 ], [ -62.202314712873275, -12.608304170259542 ], [ -62.202314712873275, -12.609382148600485 ], [ -62.202584207458514, -12.609382148600485 ], [ -62.202584207458514, -12.609651643185721 ], [ -62.202853702043747, -12.609651643185721 ], [ -62.202853702043747, -12.609921137770957 ], [ -62.203392691214219, -12.609921137770957 ], [ -62.203392691214219, -12.610190632356193 ], [ -62.204740164140404, -12.610190632356193 ], [ -62.204740164140404, -12.609921137770957 ], [ -62.205279153310869, -12.609921137770957 ], [ -62.205279153310869, -12.609651643185721 ], [ -62.205548647896109, -12.609651643185721 ], [ -62.205548647896109, -12.60911265401525 ], [ -62.205279153310869, -12.60911265401525 ], [ -62.205279153310869, -12.609382148600485 ], [ -62.205009658725636, -12.609382148600485 ], [ -62.205009658725636, -12.60911265401525 ], [ -62.204470669555164, -12.60911265401525 ], [ -62.204470669555164, -12.608843159430014 ], [ -62.203931680384692, -12.608843159430014 ], [ -62.203931680384692, -12.608304170259542 ], [ -62.204201174969924, -12.608304170259542 ], [ -62.204201174969924, -12.607765181089071 ], [ -62.204470669555164, -12.607765181089071 ], [ -62.204470669555164, -12.607495686503835 ], [ -62.204201174969924, -12.607495686503835 ], [ -62.204201174969924, -12.607226191918599 ], [ -62.203662185799459, -12.607226191918599 ], [ -62.203662185799459, -12.607765181089071 ], [ -62.203392691214219, -12.607765181089071 ], [ -62.203392691214219, -12.608304170259542 ] ] ], [ [ [ -62.23276760100493, -12.594559946412513 ], [ -62.23249810641969, -12.594559946412513 ], [ -62.23249810641969, -12.594829440997749 ], [ -62.232228611834458, -12.594829440997749 ], [ -62.232228611834458, -12.595098935582985 ], [ -62.231689622663986, -12.595098935582985 ], [ -62.231689622663986, -12.595368430168222 ], [ -62.231150633493513, -12.595368430168222 ], [ -62.231150633493513, -12.595637924753458 ], [ -62.230611644323041, -12.595637924753458 ], [ -62.230611644323041, -12.596176913923928 ], [ -62.230342149737808, -12.596176913923928 ], [ -62.230342149737808, -12.596715903094401 ], [ -62.230072655152568, -12.596715903094401 ], [ -62.230072655152568, -12.602375289384353 ], [ -62.229803160567336, -12.602375289384353 ], [ -62.229803160567336, -12.602644783969589 ], [ -62.230072655152568, -12.602644783969589 ], [ -62.230072655152568, -12.602914278554826 ], [ -62.229803160567336, -12.602914278554826 ], [ -62.229803160567336, -12.603183773140062 ], [ -62.230072655152568, -12.603183773140062 ], [ -62.230072655152568, -12.603453267725296 ], [ -62.229803160567336, -12.603453267725296 ], [ -62.229803160567336, -12.603722762310532 ], [ -62.230072655152568, -12.603722762310532 ], [ -62.230072655152568, -12.603992256895769 ], [ -62.229803160567336, -12.603992256895769 ], [ -62.229803160567336, -12.604261751481005 ], [ -62.230072655152568, -12.604261751481005 ], [ -62.230072655152568, -12.604531246066241 ], [ -62.229803160567336, -12.604531246066241 ], [ -62.229803160567336, -12.604800740651477 ], [ -62.230072655152568, -12.604800740651477 ], [ -62.230072655152568, -12.605070235236713 ], [ -62.229803160567336, -12.605070235236713 ], [ -62.229803160567336, -12.605339729821948 ], [ -62.230072655152568, -12.605339729821948 ], [ -62.230072655152568, -12.605609224407184 ], [ -62.229803160567336, -12.605609224407184 ], [ -62.229803160567336, -12.60587871899242 ], [ -62.230072655152568, -12.60587871899242 ], [ -62.230072655152568, -12.606148213577656 ], [ -62.229803160567336, -12.606148213577656 ], [ -62.229803160567336, -12.606417708162891 ], [ -62.230072655152568, -12.606417708162891 ], [ -62.230072655152568, -12.606956697333363 ], [ -62.230881138908281, -12.606956697333363 ], [ -62.230881138908281, -12.606687202748127 ], [ -62.231150633493513, -12.606687202748127 ], [ -62.231150633493513, -12.606417708162891 ], [ -62.231420128078753, -12.606417708162891 ], [ -62.231420128078753, -12.60587871899242 ], [ -62.231689622663986, -12.60587871899242 ], [ -62.231689622663986, -12.605339729821948 ], [ -62.231959117249218, -12.605339729821948 ], [ -62.231959117249218, -12.604800740651477 ], [ -62.232228611834458, -12.604800740651477 ], [ -62.232228611834458, -12.604261751481005 ], [ -62.23249810641969, -12.604261751481005 ], [ -62.23249810641969, -12.603453267725296 ], [ -62.23276760100493, -12.603453267725296 ], [ -62.23276760100493, -12.595368430168222 ], [ -62.233037095590163, -12.595368430168222 ], [ -62.233037095590163, -12.594829440997749 ], [ -62.233306590175403, -12.594829440997749 ], [ -62.233306590175403, -12.594020957242043 ], [ -62.233037095590163, -12.594020957242043 ], [ -62.233037095590163, -12.594290451827277 ], [ -62.23276760100493, -12.594290451827277 ], [ -62.23276760100493, -12.594559946412513 ] ] ], [ [ [ -62.222796301351202, -12.508052184551804 ], [ -62.223065795936435, -12.508052184551804 ], [ -62.223065795936435, -12.50832167913704 ], [ -62.223335290521675, -12.50832167913704 ], [ -62.223335290521675, -12.508860668307511 ], [ -62.223874279692147, -12.508860668307511 ], [ -62.223874279692147, -12.509130162892747 ], [ -62.224413268862619, -12.509130162892747 ], [ -62.224413268862619, -12.509399657477983 ], [ -62.224952258033092, -12.509399657477983 ], [ -62.224952258033092, -12.509669152063219 ], [ -62.225221752618324, -12.509669152063219 ], [ -62.225221752618324, -12.509399657477983 ], [ -62.225491247203564, -12.509399657477983 ], [ -62.225491247203564, -12.509669152063219 ], [ -62.227108214714974, -12.509669152063219 ], [ -62.227108214714974, -12.509938646648454 ], [ -62.227647203885446, -12.509938646648454 ], [ -62.227647203885446, -12.509669152063219 ], [ -62.227916698470686, -12.509669152063219 ], [ -62.227916698470686, -12.509399657477983 ], [ -62.227647203885446, -12.509399657477983 ], [ -62.227647203885446, -12.508860668307511 ], [ -62.227377709300214, -12.508860668307511 ], [ -62.227377709300214, -12.508591173722277 ], [ -62.226838720129741, -12.508591173722277 ], [ -62.226838720129741, -12.50832167913704 ], [ -62.226030236374029, -12.50832167913704 ], [ -62.226030236374029, -12.508052184551804 ], [ -62.225491247203564, -12.508052184551804 ], [ -62.225491247203564, -12.507782689966568 ], [ -62.225221752618324, -12.507782689966568 ], [ -62.225221752618324, -12.508052184551804 ], [ -62.224952258033092, -12.508052184551804 ], [ -62.224952258033092, -12.507782689966568 ], [ -62.224682763447852, -12.507782689966568 ], [ -62.224682763447852, -12.508052184551804 ], [ -62.224413268862619, -12.508052184551804 ], [ -62.224413268862619, -12.507782689966568 ], [ -62.223874279692147, -12.507782689966568 ], [ -62.223874279692147, -12.507513195381332 ], [ -62.223065795936435, -12.507513195381332 ], [ -62.223065795936435, -12.507782689966568 ], [ -62.222796301351202, -12.507782689966568 ], [ -62.222796301351202, -12.508052184551804 ] ] ], [ [ [ -62.215250452964597, -12.380311751150007 ], [ -62.214980958379364, -12.380311751150007 ], [ -62.214980958379364, -12.379772761979536 ], [ -62.214711463794124, -12.379772761979536 ], [ -62.214711463794124, -12.379233772809064 ], [ -62.214441969208892, -12.379233772809064 ], [ -62.214441969208892, -12.378694783638593 ], [ -62.214172474623652, -12.378694783638593 ], [ -62.214172474623652, -12.378425289053357 ], [ -62.213902980038419, -12.378425289053357 ], [ -62.213902980038419, -12.377886299882885 ], [ -62.213363990867947, -12.377886299882885 ], [ -62.213363990867947, -12.378702569538085 ], [ -62.213388672303211, -12.378765424633286 ], [ -62.213492297311937, -12.37896427822383 ], [ -62.213633485453187, -12.37896427822383 ], [ -62.213633485453187, -12.379235214450276 ], [ -62.213773171081129, -12.3795032673943 ], [ -62.213902980038419, -12.3795032673943 ], [ -62.213902980038419, -12.37975236727433 ], [ -62.214054044850322, -12.380042256564773 ], [ -62.214172474623652, -12.380042256564773 ], [ -62.214172474623652, -12.380269520098384 ], [ -62.214334918619514, -12.380581245735243 ], [ -62.214441969208892, -12.380581245735243 ], [ -62.214441969208892, -12.380792816347865 ], [ -62.214550613667562, -12.381120234905715 ], [ -62.215519947549836, -12.381120234905715 ], [ -62.215519947549836, -12.380850740320479 ], [ -62.215250452964597, -12.380850740320479 ], [ -62.215250452964597, -12.380311751150007 ] ] ], [ [ [ -62.361586012747665, -12.299463375579251 ], [ -62.3610470235772, -12.299463375579251 ], [ -62.3610470235772, -12.300541353920195 ], [ -62.361316518162432, -12.300541353920195 ], [ -62.361316518162432, -12.300271859334959 ], [ -62.361586012747665, -12.300271859334959 ], [ -62.361586012747665, -12.300541353920195 ], [ -62.361855507332905, -12.300541353920195 ], [ -62.361855507332905, -12.300271859334959 ], [ -62.362394496503377, -12.300271859334959 ], [ -62.362394496503377, -12.300541353920195 ], [ -62.36293348567385, -12.300541353920195 ], [ -62.36293348567385, -12.300271859334959 ], [ -62.36266399108861, -12.300271859334959 ], [ -62.36266399108861, -12.299463375579251 ], [ -62.362394496503377, -12.299463375579251 ], [ -62.362394496503377, -12.298924386408778 ], [ -62.362125001918137, -12.298924386408778 ], [ -62.362125001918137, -12.299193880994014 ], [ -62.361586012747665, -12.299193880994014 ], [ -62.361586012747665, -12.299463375579251 ] ] ], [ [ [ -62.362125001918137, -12.298654891823544 ], [ -62.361855507332905, -12.298654891823544 ], [ -62.361855507332905, -12.298924386408778 ], [ -62.362125001918137, -12.298924386408778 ], [ -62.362125001918137, -12.298654891823544 ] ] ] ] } }
]
}
