{
"type": "FeatureCollection",
"name": "pacaas_novas",
"crs": { "type": "name", "properties": { "name": "urn:ogc:def:crs:OGC:1.3:CRS84" } },
"features": [
{ "type": "Feature", "properties": { "DN": 3 }, "geometry": { "type": "Polygon", "coordinates": [ [ [ -65.131990348972266, -11.614138645324468 ], [ -65.131990348972266, -11.614408139909704 ], [ -65.132259843557506, -11.614408139909704 ], [ -65.132259843557506, -11.614138645324468 ], [ -65.131990348972266, -11.614138645324468 ] ] ] } },
{ "type": "Feature", "properties": { "DN": 3 }, "geometry": { "type": "Polygon", "coordinates": [ [ [ -65.131451359801801, -11.613330161568761 ], [ -65.131451359801801, -11.613869150739232 ], [ -65.131720854387041, -11.613869150739232 ], [ -65.131720854387041, -11.613599656153996 ], [ -65.131990348972266, -11.613599656153996 ], [ -65.131990348972266, -11.613869150739232 ], [ -65.132259843557506, -11.613869150739232 ], [ -65.132259843557506, -11.614138645324468 ], [ -65.132529338142746, -11.614138645324468 ], [ -65.132529338142746, -11.613869150739232 ], [ -65.133337821898451, -11.613869150739232 ], [ -65.133337821898451, -11.613599656153996 ], [ -65.13360731648369, -11.613599656153996 ], [ -65.13360731648369, -11.612791172398289 ], [ -65.133337821898451, -11.612791172398289 ], [ -65.133337821898451, -11.612521677813053 ], [ -65.133068327313211, -11.612521677813053 ], [ -65.133068327313211, -11.612791172398289 ], [ -65.132529338142746, -11.612791172398289 ], [ -65.132529338142746, -11.613060666983525 ], [ -65.132259843557506, -11.613060666983525 ], [ -65.132259843557506, -11.613330161568761 ], [ -65.131451359801801, -11.613330161568761 ] ], [ [ -65.132529338142746, -11.613330161568761 ], [ -65.132529338142746, -11.613599656153996 ], [ -65.132259843557506, -11.613599656153996 ], [ -65.132259843557506, -11.613330161568761 ], [ -65.132529338142746, -11.613330161568761 ] ] ] } },
{ "type": "Feature", "properties": { "DN": 3 }, "geometry": { "type": "Polygon", "coordinates": [ [ [ -65.11447320093194, -11.607131786108337 ], [ -65.11447320093194, -11.607401280693573 ], [ -65.1142037063467, -11.607401280693573 ], [ -65.1142037063467, -11.607670775278807 ], [ -65.11447320093194, -11.607670775278807 ], [ -65.11447320093194, -11.607940269864043 ], [ -65.11474269551718, -11.607940269864043 ], [ -65.11474269551718, -11.608209764449279 ], [ -65.115012190102419, -11.608209764449279 ], [ -65.115012190102419, -11.60874875361975 ], [ -65.115281684687645, -11.60874875361975 ], [ -65.115281684687645, -11.609018248204986 ], [ -65.11474269551718, -11.609018248204986 ], [ -65.11474269551718, -11.609287742790222 ], [ -65.115551179272884, -11.609287742790222 ], [ -65.115551179272884, -11.609018248204986 ], [ -65.115820673858124, -11.609018248204986 ], [ -65.115820673858124, -11.60874875361975 ], [ -65.115551179272884, -11.60874875361975 ], [ -65.115551179272884, -11.608209764449279 ], [ -65.115281684687645, -11.608209764449279 ], [ -65.115281684687645, -11.607940269864043 ], [ -65.115012190102419, -11.607940269864043 ], [ -65.115012190102419, -11.607401280693573 ], [ -65.115551179272884, -11.607401280693573 ], [ -65.115551179272884, -11.607131786108337 ], [ -65.11447320093194, -11.607131786108337 ] ] ] } },
{ "type": "Feature", "properties": { "DN": 3 }, "geometry": { "type": "Polygon", "coordinates": [ [ [ -65.143309121552178, -11.604436840255978 ], [ -65.143309121552178, -11.604975829426449 ], [ -65.142770132381713, -11.604975829426449 ], [ -65.142770132381713, -11.605514818596921 ], [ -65.142231143211234, -11.605514818596921 ], [ -65.142231143211234, -11.605784313182156 ], [ -65.142770132381713, -11.605784313182156 ], [ -65.142770132381713, -11.606053807767392 ], [ -65.142500637796473, -11.606053807767392 ], [ -65.142500637796473, -11.606592796937864 ], [ -65.142231143211234, -11.606592796937864 ], [ -65.142231143211234, -11.6068622915231 ], [ -65.142500637796473, -11.6068622915231 ], [ -65.142500637796473, -11.607401280693573 ], [ -65.142770132381713, -11.607401280693573 ], [ -65.142770132381713, -11.608479259034516 ], [ -65.142500637796473, -11.608479259034516 ], [ -65.142500637796473, -11.609018248204986 ], [ -65.143309121552178, -11.609018248204986 ], [ -65.143309121552178, -11.60874875361975 ], [ -65.143578616137418, -11.60874875361975 ], [ -65.143578616137418, -11.608479259034516 ], [ -65.143848110722644, -11.608479259034516 ], [ -65.143848110722644, -11.608209764449279 ], [ -65.144117605307883, -11.608209764449279 ], [ -65.144117605307883, -11.607670775278807 ], [ -65.144387099893123, -11.607670775278807 ], [ -65.144387099893123, -11.607131786108337 ], [ -65.144656594478363, -11.607131786108337 ], [ -65.144656594478363, -11.606592796937864 ], [ -65.144387099893123, -11.606592796937864 ], [ -65.144387099893123, -11.605784313182156 ], [ -65.144117605307883, -11.605784313182156 ], [ -65.144117605307883, -11.605514818596921 ], [ -65.143848110722644, -11.605514818596921 ], [ -65.143848110722644, -11.604436840255978 ], [ -65.143309121552178, -11.604436840255978 ] ] ] } },
{ "type": "Feature", "properties": { "DN": 3 }, "geometry": { "type": "Polygon", "coordinates": [ [ [ -65.139805691944119, -11.600933410647912 ], [ -65.139805691944119, -11.601202905233148 ], [ -65.139266702773639, -11.601202905233148 ], [ -65.139266702773639, -11.600933410647912 ], [ -65.1389972081884, -11.600933410647912 ], [ -65.1389972081884, -11.601202905233148 ], [ -65.138727713603174, -11.601202905233148 ], [ -65.138727713603174, -11.601472399818384 ], [ -65.138458219017934, -11.601472399818384 ], [ -65.138458219017934, -11.601741894403618 ], [ -65.138188724432695, -11.601741894403618 ], [ -65.138188724432695, -11.602011388988855 ], [ -65.1389972081884, -11.602011388988855 ], [ -65.1389972081884, -11.602280883574091 ], [ -65.139266702773639, -11.602280883574091 ], [ -65.139266702773639, -11.601741894403618 ], [ -65.139805691944119, -11.601741894403618 ], [ -65.139805691944119, -11.601472399818384 ], [ -65.140075186529344, -11.601472399818384 ], [ -65.140075186529344, -11.600933410647912 ], [ -65.139805691944119, -11.600933410647912 ] ] ] } },
{ "type": "Feature", "properties": { "DN": 3 }, "geometry": { "type": "Polygon", "coordinates": [ [ [ -65.121749554733313, -11.598777453966024 ], [ -65.121749554733313, -11.59904694855126 ], [ -65.121480060148073, -11.59904694855126 ], [ -65.121480060148073, -11.599316443136496 ], [ -65.120132587221889, -11.599316443136496 ], [ -65.120132587221889, -11.599585937721733 ], [ -65.119593598051424, -11.599585937721733 ], [ -65.119593598051424, -11.599855432306967 ], [ -65.119054608880944, -11.599855432306967 ], [ -65.119054608880944, -11.600124926892203 ], [ -65.118515619710479, -11.600124926892203 ], [ -65.118515619710479, -11.601202905233148 ], [ -65.118246125125239, -11.601202905233148 ], [ -65.118246125125239, -11.601741894403618 ], [ -65.117976630540014, -11.601741894403618 ], [ -65.117976630540014, -11.602011388988855 ], [ -65.117707135954774, -11.602011388988855 ], [ -65.117707135954774, -11.602819872744561 ], [ -65.117168146784294, -11.602819872744561 ], [ -65.117168146784294, -11.603089367329797 ], [ -65.117976630540014, -11.603089367329797 ], [ -65.117976630540014, -11.603358861915034 ], [ -65.118246125125239, -11.603358861915034 ], [ -65.118246125125239, -11.602819872744561 ], [ -65.118785114295719, -11.602819872744561 ], [ -65.118785114295719, -11.602011388988855 ], [ -65.119054608880944, -11.602011388988855 ], [ -65.119054608880944, -11.601741894403618 ], [ -65.119324103466184, -11.601741894403618 ], [ -65.119324103466184, -11.601472399818384 ], [ -65.119863092636663, -11.601472399818384 ], [ -65.119863092636663, -11.601202905233148 ], [ -65.120132587221889, -11.601202905233148 ], [ -65.120132587221889, -11.601472399818384 ], [ -65.120402081807129, -11.601472399818384 ], [ -65.120402081807129, -11.600933410647912 ], [ -65.120132587221889, -11.600933410647912 ], [ -65.120132587221889, -11.600663916062675 ], [ -65.120402081807129, -11.600663916062675 ], [ -65.120402081807129, -11.600394421477439 ], [ -65.120671576392368, -11.600394421477439 ], [ -65.120671576392368, -11.600663916062675 ], [ -65.120941070977608, -11.600663916062675 ], [ -65.120941070977608, -11.600933410647912 ], [ -65.122019049318538, -11.600933410647912 ], [ -65.122019049318538, -11.600663916062675 ], [ -65.122288543903778, -11.600663916062675 ], [ -65.122288543903778, -11.600394421477439 ], [ -65.122558038489018, -11.600394421477439 ], [ -65.122558038489018, -11.600663916062675 ], [ -65.122827533074258, -11.600663916062675 ], [ -65.122827533074258, -11.600394421477439 ], [ -65.123097027659483, -11.600394421477439 ], [ -65.123097027659483, -11.599316443136496 ], [ -65.122288543903778, -11.599316443136496 ], [ -65.122288543903778, -11.59904694855126 ], [ -65.122019049318538, -11.59904694855126 ], [ -65.122019049318538, -11.598777453966024 ], [ -65.121749554733313, -11.598777453966024 ] ] ] } },
{ "type": "Feature", "properties": { "DN": 3 }, "geometry": { "type": "Polygon", "coordinates": [ [ [ -65.130103886875617, -11.600124926892203 ], [ -65.130103886875617, -11.600663916062675 ], [ -65.129295403119912, -11.600663916062675 ], [ -65.129295403119912, -11.600124926892203 ], [ -65.128756413949446, -11.600124926892203 ], [ -65.128756413949446, -11.600394421477439 ], [ -65.129025908534672, -11.600394421477439 ], [ -65.129025908534672, -11.600663916062675 ], [ -65.128486919364207, -11.600663916062675 ], [ -65.128486919364207, -11.601202905233148 ], [ -65.129295403119912, -11.601202905233148 ], [ -65.129295403119912, -11.600933410647912 ], [ -65.130373381460856, -11.600933410647912 ], [ -65.130373381460856, -11.601202905233148 ], [ -65.130912370631336, -11.601202905233148 ], [ -65.130912370631336, -11.601472399818384 ], [ -65.131181865216561, -11.601472399818384 ], [ -65.131181865216561, -11.600933410647912 ], [ -65.130642876046096, -11.600933410647912 ], [ -65.130642876046096, -11.600124926892203 ], [ -65.130103886875617, -11.600124926892203 ] ] ] } },
{ "type": "Feature", "properties": { "DN": 3 }, "geometry": { "type": "Polygon", "coordinates": [ [ [ -65.148160024086422, -11.59850795938079 ], [ -65.148160024086422, -11.59904694855126 ], [ -65.147621034915957, -11.59904694855126 ], [ -65.147621034915957, -11.599316443136496 ], [ -65.147890529501183, -11.599316443136496 ], [ -65.147890529501183, -11.599585937721733 ], [ -65.147621034915957, -11.599585937721733 ], [ -65.147621034915957, -11.599855432306967 ], [ -65.147890529501183, -11.599855432306967 ], [ -65.147890529501183, -11.600394421477439 ], [ -65.148429518671662, -11.600394421477439 ], [ -65.148429518671662, -11.59904694855126 ], [ -65.148968507842127, -11.59904694855126 ], [ -65.148968507842127, -11.598777453966024 ], [ -65.148429518671662, -11.598777453966024 ], [ -65.148429518671662, -11.59850795938079 ], [ -65.148160024086422, -11.59850795938079 ] ] ] } },
{ "type": "Feature", "properties": { "DN": 3 }, "geometry": { "type": "Polygon", "coordinates": [ [ [ -65.142770132381713, -11.59850795938079 ], [ -65.142770132381713, -11.598777453966024 ], [ -65.142500637796473, -11.598777453966024 ], [ -65.142500637796473, -11.59850795938079 ], [ -65.142231143211234, -11.59850795938079 ], [ -65.142231143211234, -11.598777453966024 ], [ -65.141961648625994, -11.598777453966024 ], [ -65.141961648625994, -11.599316443136496 ], [ -65.142231143211234, -11.599316443136496 ], [ -65.142231143211234, -11.599585937721733 ], [ -65.142500637796473, -11.599585937721733 ], [ -65.142500637796473, -11.599316443136496 ], [ -65.143039626966939, -11.599316443136496 ], [ -65.143039626966939, -11.59904694855126 ], [ -65.143309121552178, -11.59904694855126 ], [ -65.143309121552178, -11.598777453966024 ], [ -65.143039626966939, -11.598777453966024 ], [ -65.143039626966939, -11.59850795938079 ], [ -65.142770132381713, -11.59850795938079 ] ] ] } },
{ "type": "Feature", "properties": { "DN": 3 }, "geometry": { "type": "Polygon", "coordinates": [ [ [ -64.970832587001226, -11.288319691774317 ], [ -64.970832587001226, -11.288589186359554 ], [ -64.970563092416, -11.288589186359554 ], [ -64.970563092416, -11.289128175530026 ], [ -64.970293597830761, -11.289128175530026 ], [ -64.970293597830761, -11.289667164700496 ], [ -64.970024103245521, -11.289667164700496 ], [ -64.970024103245521, -11.290206153870969 ], [ -64.969754608660281, -11.290206153870969 ], [ -64.969754608660281, -11.290745143041441 ], [ -64.969485114075056, -11.290745143041441 ], [ -64.969485114075056, -11.291284132211912 ], [ -64.969754608660281, -11.291284132211912 ], [ -64.969754608660281, -11.291823121382384 ], [ -64.970024103245521, -11.291823121382384 ], [ -64.970024103245521, -11.292362110552855 ], [ -64.970563092416, -11.292362110552855 ], [ -64.970563092416, -11.292901099723327 ], [ -64.971371576171705, -11.292901099723327 ], [ -64.971371576171705, -11.292362110552855 ], [ -64.971641070756931, -11.292362110552855 ], [ -64.971641070756931, -11.291823121382384 ], [ -64.971910565342171, -11.291823121382384 ], [ -64.971910565342171, -11.291553626797148 ], [ -64.97218005992741, -11.291553626797148 ], [ -64.97218005992741, -11.291284132211912 ], [ -64.97244955451265, -11.291284132211912 ], [ -64.97244955451265, -11.291014637626677 ], [ -64.972719049097876, -11.291014637626677 ], [ -64.972719049097876, -11.290475648456205 ], [ -64.972988543683115, -11.290475648456205 ], [ -64.972988543683115, -11.289667164700496 ], [ -64.972719049097876, -11.289667164700496 ], [ -64.972719049097876, -11.28939767011526 ], [ -64.97218005992741, -11.28939767011526 ], [ -64.97218005992741, -11.28885868094479 ], [ -64.971641070756931, -11.28885868094479 ], [ -64.971641070756931, -11.288589186359554 ], [ -64.971102081586466, -11.288589186359554 ], [ -64.971102081586466, -11.288319691774317 ], [ -64.970832587001226, -11.288319691774317 ] ] ] } },
{ "type": "Feature", "properties": { "DN": 3 }, "geometry": { "type": "Polygon", "coordinates": [ [ [ -64.97568348953547, -11.286163735092432 ], [ -64.97568348953547, -11.286433229677666 ], [ -64.975144500365005, -11.286433229677666 ], [ -64.975144500365005, -11.286702724262902 ], [ -64.974605511194525, -11.286702724262902 ], [ -64.974605511194525, -11.286972218848138 ], [ -64.9743360166093, -11.286972218848138 ], [ -64.9743360166093, -11.287241713433374 ], [ -64.97406652202406, -11.287241713433374 ], [ -64.97406652202406, -11.288050197189083 ], [ -64.974875005779765, -11.288050197189083 ], [ -64.974875005779765, -11.288319691774317 ], [ -64.975144500365005, -11.288319691774317 ], [ -64.975144500365005, -11.288050197189083 ], [ -64.976491973291189, -11.288050197189083 ], [ -64.976491973291189, -11.288319691774317 ], [ -64.976761467876415, -11.288319691774317 ], [ -64.976761467876415, -11.289667164700496 ], [ -64.976491973291189, -11.289667164700496 ], [ -64.976491973291189, -11.289936659285733 ], [ -64.976761467876415, -11.289936659285733 ], [ -64.976761467876415, -11.290206153870969 ], [ -64.976222478705949, -11.290206153870969 ], [ -64.976222478705949, -11.290475648456205 ], [ -64.977030962461654, -11.290475648456205 ], [ -64.977030962461654, -11.289936659285733 ], [ -64.97756995163212, -11.289936659285733 ], [ -64.97756995163212, -11.289667164700496 ], [ -64.978378435387839, -11.289667164700496 ], [ -64.978378435387839, -11.28939767011526 ], [ -64.978647929973064, -11.28939767011526 ], [ -64.978647929973064, -11.28885868094479 ], [ -64.978917424558304, -11.28885868094479 ], [ -64.978917424558304, -11.288319691774317 ], [ -64.978647929973064, -11.288319691774317 ], [ -64.978647929973064, -11.288050197189083 ], [ -64.978917424558304, -11.288050197189083 ], [ -64.978917424558304, -11.287780702603847 ], [ -64.978647929973064, -11.287780702603847 ], [ -64.978647929973064, -11.287511208018611 ], [ -64.978917424558304, -11.287511208018611 ], [ -64.978917424558304, -11.287241713433374 ], [ -64.978647929973064, -11.287241713433374 ], [ -64.978647929973064, -11.286972218848138 ], [ -64.978108940802599, -11.286972218848138 ], [ -64.978108940802599, -11.286702724262902 ], [ -64.97756995163212, -11.286702724262902 ], [ -64.97756995163212, -11.286433229677666 ], [ -64.977300457046894, -11.286433229677666 ], [ -64.977300457046894, -11.286702724262902 ], [ -64.977030962461654, -11.286702724262902 ], [ -64.977030962461654, -11.286433229677666 ], [ -64.97595298412071, -11.286433229677666 ], [ -64.97595298412071, -11.286163735092432 ], [ -64.97568348953547, -11.286163735092432 ] ] ] } },
{ "type": "Feature", "properties": { "DN": 3 }, "geometry": { "type": "Polygon", "coordinates": [ [ [ -65.081864356118402, -11.268107597881629 ], [ -65.081864356118402, -11.269185576222572 ], [ -65.082133850703642, -11.269185576222572 ], [ -65.082133850703642, -11.269455070807808 ], [ -65.081864356118402, -11.269455070807808 ], [ -65.081864356118402, -11.269724565393044 ], [ -65.082133850703642, -11.269724565393044 ], [ -65.082133850703642, -11.269994059978281 ], [ -65.081864356118402, -11.269994059978281 ], [ -65.081864356118402, -11.270263554563515 ], [ -65.082133850703642, -11.270263554563515 ], [ -65.082133850703642, -11.270533049148751 ], [ -65.081864356118402, -11.270533049148751 ], [ -65.081864356118402, -11.271341532904458 ], [ -65.082403345288881, -11.271341532904458 ], [ -65.082403345288881, -11.271611027489694 ], [ -65.082942334459347, -11.271611027489694 ], [ -65.082942334459347, -11.27188052207493 ], [ -65.083211829044586, -11.27188052207493 ], [ -65.083211829044586, -11.271611027489694 ], [ -65.083481323629812, -11.271611027489694 ], [ -65.083481323629812, -11.270263554563515 ], [ -65.083211829044586, -11.270263554563515 ], [ -65.083211829044586, -11.269455070807808 ], [ -65.082942334459347, -11.269455070807808 ], [ -65.082942334459347, -11.268916081637336 ], [ -65.082672839874107, -11.268916081637336 ], [ -65.082672839874107, -11.268377092466864 ], [ -65.082403345288881, -11.268377092466864 ], [ -65.082403345288881, -11.268107597881629 ], [ -65.081864356118402, -11.268107597881629 ] ] ] } },
{ "type": "Feature", "properties": { "DN": 3 }, "geometry": { "type": "Polygon", "coordinates": [ [ [ -64.987271756700622, -11.24331409603993 ], [ -64.987271756700622, -11.243583590625166 ], [ -64.987002262115382, -11.243583590625166 ], [ -64.987002262115382, -11.24331409603993 ], [ -64.986463272944903, -11.24331409603993 ], [ -64.986463272944903, -11.243583590625166 ], [ -64.986732767530142, -11.243583590625166 ], [ -64.986732767530142, -11.244122579795636 ], [ -64.987002262115382, -11.244122579795636 ], [ -64.987002262115382, -11.244392074380873 ], [ -64.987810745871087, -11.244392074380873 ], [ -64.987810745871087, -11.244122579795636 ], [ -64.988080240456327, -11.244122579795636 ], [ -64.988080240456327, -11.243853085210402 ], [ -64.987541251285847, -11.243853085210402 ], [ -64.987541251285847, -11.24331409603993 ], [ -64.987271756700622, -11.24331409603993 ] ] ] } },
{ "type": "Feature", "properties": { "DN": 3 }, "geometry": { "type": "Polygon", "coordinates": [ [ [ -64.986732767530142, -11.240349655602335 ], [ -64.986732767530142, -11.240619150187571 ], [ -64.986193778359677, -11.240619150187571 ], [ -64.986193778359677, -11.240888644772808 ], [ -64.985924283774438, -11.240888644772808 ], [ -64.985924283774438, -11.241966623113751 ], [ -64.986463272944903, -11.241966623113751 ], [ -64.986463272944903, -11.241697128528514 ], [ -64.986732767530142, -11.241697128528514 ], [ -64.986732767530142, -11.241427633943278 ], [ -64.987002262115382, -11.241427633943278 ], [ -64.987002262115382, -11.241158139358042 ], [ -64.987271756700622, -11.241158139358042 ], [ -64.987271756700622, -11.240349655602335 ], [ -64.986732767530142, -11.240349655602335 ] ] ] } },
{ "type": "Feature", "properties": { "DN": 3 }, "geometry": { "type": "Polygon", "coordinates": [ [ [ -65.055453886765292, -11.212861207908277 ], [ -65.055453886765292, -11.213130702493514 ], [ -65.055184392180053, -11.213130702493514 ], [ -65.055184392180053, -11.21340019707875 ], [ -65.054914897594813, -11.21340019707875 ], [ -65.054914897594813, -11.213669691663986 ], [ -65.054645403009587, -11.213669691663986 ], [ -65.054645403009587, -11.21393918624922 ], [ -65.054914897594813, -11.21393918624922 ], [ -65.054914897594813, -11.214208680834457 ], [ -65.055184392180053, -11.214208680834457 ], [ -65.055184392180053, -11.21393918624922 ], [ -65.055453886765292, -11.21393918624922 ], [ -65.055453886765292, -11.213669691663986 ], [ -65.056262370520997, -11.213669691663986 ], [ -65.056262370520997, -11.21340019707875 ], [ -65.055992875935758, -11.21340019707875 ], [ -65.055992875935758, -11.212861207908277 ], [ -65.055453886765292, -11.212861207908277 ] ] ] } },
{ "type": "Feature", "properties": { "DN": 3 }, "geometry": { "type": "Polygon", "coordinates": [ [ [ -65.098303525817784, -11.199925467816957 ], [ -65.098303525817784, -11.200194962402193 ], [ -65.097764536647318, -11.200194962402193 ], [ -65.097764536647318, -11.200464456987429 ], [ -65.097495042062079, -11.200464456987429 ], [ -65.097495042062079, -11.200733951572664 ], [ -65.097225547476853, -11.200733951572664 ], [ -65.097225547476853, -11.2010034461579 ], [ -65.096956052891613, -11.2010034461579 ], [ -65.096956052891613, -11.201272940743136 ], [ -65.096686558306374, -11.201272940743136 ], [ -65.096686558306374, -11.201542435328372 ], [ -65.096147569135908, -11.201542435328372 ], [ -65.096147569135908, -11.202081424498843 ], [ -65.095878074550669, -11.202081424498843 ], [ -65.095878074550669, -11.202350919084079 ], [ -65.098034031232558, -11.202350919084079 ], [ -65.098034031232558, -11.202081424498843 ], [ -65.098303525817784, -11.202081424498843 ], [ -65.098303525817784, -11.201811929913607 ], [ -65.098573020403023, -11.201811929913607 ], [ -65.098573020403023, -11.201542435328372 ], [ -65.098842514988263, -11.201542435328372 ], [ -65.098842514988263, -11.2010034461579 ], [ -65.099112009573503, -11.2010034461579 ], [ -65.099112009573503, -11.199925467816957 ], [ -65.098303525817784, -11.199925467816957 ] ] ] } },
{ "type": "Feature", "properties": { "DN": 3 }, "geometry": { "type": "Polygon", "coordinates": [ [ [ -65.057070854276702, -11.197769511135069 ], [ -65.057070854276702, -11.198577994890778 ], [ -65.057340348861942, -11.198577994890778 ], [ -65.057340348861942, -11.199116984061249 ], [ -65.057609843447182, -11.199116984061249 ], [ -65.057609843447182, -11.199655973231721 ], [ -65.057879338032407, -11.199655973231721 ], [ -65.057879338032407, -11.200194962402193 ], [ -65.058148832617647, -11.200194962402193 ], [ -65.058148832617647, -11.198847489476012 ], [ -65.057879338032407, -11.198847489476012 ], [ -65.057879338032407, -11.197769511135069 ], [ -65.057070854276702, -11.197769511135069 ] ] ] } },
{ "type": "Feature", "properties": { "DN": 3 }, "geometry": { "type": "Polygon", "coordinates": [ [ [ -65.150315980768312, -11.603358861915034 ], [ -65.150315980768312, -11.60362835650027 ], [ -65.150046486183072, -11.60362835650027 ], [ -65.150046486183072, -11.603897851085506 ], [ -65.149238002427367, -11.603897851085506 ], [ -65.149238002427367, -11.604167345670742 ], [ -65.148699013256902, -11.604167345670742 ], [ -65.148699013256902, -11.605245324011685 ], [ -65.148429518671662, -11.605245324011685 ], [ -65.148429518671662, -11.605514818596921 ], [ -65.148699013256902, -11.605514818596921 ], [ -65.148699013256902, -11.606053807767392 ], [ -65.148429518671662, -11.606053807767392 ], [ -65.148429518671662, -11.606323302352628 ], [ -65.148160024086422, -11.606323302352628 ], [ -65.148160024086422, -11.606592796937864 ], [ -65.147082045745478, -11.606592796937864 ], [ -65.147082045745478, -11.6068622915231 ], [ -65.146543056575013, -11.6068622915231 ], [ -65.146543056575013, -11.607131786108337 ], [ -65.146812551160238, -11.607131786108337 ], [ -65.146812551160238, -11.607670775278807 ], [ -65.147082045745478, -11.607670775278807 ], [ -65.147082045745478, -11.607131786108337 ], [ -65.147351540330718, -11.607131786108337 ], [ -65.147351540330718, -11.6068622915231 ], [ -65.147890529501183, -11.6068622915231 ], [ -65.147890529501183, -11.607401280693573 ], [ -65.148699013256902, -11.607401280693573 ], [ -65.148699013256902, -11.607131786108337 ], [ -65.148968507842127, -11.607131786108337 ], [ -65.148968507842127, -11.606592796937864 ], [ -65.149238002427367, -11.606592796937864 ], [ -65.149238002427367, -11.605784313182156 ], [ -65.149507497012607, -11.605784313182156 ], [ -65.149507497012607, -11.605245324011685 ], [ -65.149776991597832, -11.605245324011685 ], [ -65.149776991597832, -11.604706334841213 ], [ -65.150046486183072, -11.604706334841213 ], [ -65.150046486183072, -11.604436840255978 ], [ -65.150315980768312, -11.604436840255978 ], [ -65.150315980768312, -11.603897851085506 ], [ -65.150585475353552, -11.603897851085506 ], [ -65.150585475353552, -11.603358861915034 ], [ -65.150315980768312, -11.603358861915034 ] ] ] } },
{ "type": "Feature", "properties": { "DN": 3 }, "geometry": { "type": "Polygon", "coordinates": [ [ [ -65.290453165090952, -11.333055792923471 ], [ -65.290453165090952, -11.333325287508705 ], [ -65.290719994441432, -11.333325287508705 ], [ -65.290589574126159, -11.333055792923471 ], [ -65.290453165090952, -11.333055792923471 ] ] ] } },
{ "type": "Feature", "properties": { "DN": 3 }, "geometry": { "type": "Polygon", "coordinates": [ [ [ -65.290183670505726, -11.332516803752998 ], [ -65.290183670505726, -11.333055792923471 ], [ -65.290453165090952, -11.333055792923471 ], [ -65.290453165090952, -11.332773923520758 ], [ -65.290328733495627, -11.332516803752998 ], [ -65.290183670505726, -11.332516803752998 ] ] ] } },
{ "type": "Feature", "properties": { "DN": 3 }, "geometry": { "type": "Polygon", "coordinates": [ [ [ -65.289914175920487, -11.332247309167762 ], [ -65.289914175920487, -11.332516803752998 ], [ -65.290183670505726, -11.332516803752998 ], [ -65.290183670505726, -11.332247309167762 ], [ -65.289914175920487, -11.332247309167762 ] ] ] } },
{ "type": "Feature", "properties": { "DN": 3 }, "geometry": { "type": "Polygon", "coordinates": [ [ [ -65.31982807488167, -11.209088283714976 ], [ -65.31982807488167, -11.208549294544504 ], [ -65.31955858029643, -11.208549294544504 ], [ -65.31955858029643, -11.209088283714976 ], [ -65.319289085711191, -11.209088283714976 ], [ -65.319289085711191, -11.208549294544504 ], [ -65.318480601955486, -11.208549294544504 ], [ -65.318480601955486, -11.208010305374032 ], [ -65.318211107370246, -11.208010305374032 ], [ -65.318211107370246, -11.207740810788797 ], [ -65.317941612785006, -11.207740810788797 ], [ -65.317941612785006, -11.208279799959268 ], [ -65.317672118199781, -11.208279799959268 ], [ -65.317672118199781, -11.20881878912974 ], [ -65.317941612785006, -11.20881878912974 ], [ -65.317941612785006, -11.209088283714976 ], [ -65.318211107370246, -11.209088283714976 ], [ -65.318211107370246, -11.209357778300213 ], [ -65.318480601955486, -11.209357778300213 ], [ -65.318480601955486, -11.209627272885449 ], [ -65.31955858029643, -11.209627272885449 ], [ -65.31955858029643, -11.209357778300213 ], [ -65.320097569466895, -11.209357778300213 ], [ -65.320097569466895, -11.209193083142573 ], [ -65.320055945512621, -11.209088283714976 ], [ -65.31982807488167, -11.209088283714976 ] ] ] } },
{ "type": "Feature", "properties": { "DN": 3 }, "geometry": { "type": "Polygon", "coordinates": [ [ [ -65.306622840205108, -11.187259222310871 ], [ -65.306622840205108, -11.187528716896107 ], [ -65.306353345619868, -11.187528716896107 ], [ -65.306353345619868, -11.187798211481343 ], [ -65.305814356449403, -11.187798211481343 ], [ -65.305814356449403, -11.188337200651816 ], [ -65.305275367278924, -11.188337200651816 ], [ -65.305275367278924, -11.188606695237052 ], [ -65.305544861864163, -11.188606695237052 ], [ -65.305544861864163, -11.188876189822286 ], [ -65.305814356449403, -11.188876189822286 ], [ -65.305814356449403, -11.189954168163229 ], [ -65.306353345619868, -11.189954168163229 ], [ -65.306353345619868, -11.189415178992759 ], [ -65.306622840205108, -11.189415178992759 ], [ -65.306622840205108, -11.188606695237052 ], [ -65.306892334790348, -11.188606695237052 ], [ -65.306892334790348, -11.18806770606658 ], [ -65.307161829375573, -11.18806770606658 ], [ -65.307161829375573, -11.187798211481343 ], [ -65.306892334790348, -11.187798211481343 ], [ -65.306892334790348, -11.187259222310871 ], [ -65.306622840205108, -11.187259222310871 ] ] ] } },
{ "type": "Feature", "properties": { "DN": 3 }, "geometry": { "type": "Polygon", "coordinates": [ [ [ -65.324139988245435, -11.17567095514573 ], [ -65.324139988245435, -11.175940449730966 ], [ -65.323600999074969, -11.175940449730966 ], [ -65.323600999074969, -11.177018428071909 ], [ -65.324139988245435, -11.177018428071909 ], [ -65.324139988245435, -11.177287922657145 ], [ -65.324409482830674, -11.177287922657145 ], [ -65.324409482830674, -11.176748933486673 ], [ -65.324678977415914, -11.176748933486673 ], [ -65.324678977415914, -11.177018428071909 ], [ -65.32494847200114, -11.177018428071909 ], [ -65.32494847200114, -11.176748933486673 ], [ -65.325217966586379, -11.176748933486673 ], [ -65.325217966586379, -11.17567095514573 ], [ -65.324139988245435, -11.17567095514573 ] ] ] } },
{ "type": "Feature", "properties": { "DN": 3 }, "geometry": { "type": "Polygon", "coordinates": [ [ [ -65.327643417853508, -11.172437020122899 ], [ -65.327643417853508, -11.172706514708135 ], [ -65.327373923268269, -11.172706514708135 ], [ -65.327373923268269, -11.173514998463844 ], [ -65.327104428683029, -11.173514998463844 ], [ -65.327104428683029, -11.173784493049078 ], [ -65.327373923268269, -11.173784493049078 ], [ -65.327373923268269, -11.174053987634315 ], [ -65.327643417853508, -11.174053987634315 ], [ -65.327643417853508, -11.174323482219551 ], [ -65.327912912438734, -11.174323482219551 ], [ -65.327912912438734, -11.174053987634315 ], [ -65.328182407023974, -11.174053987634315 ], [ -65.328182407023974, -11.173245503878608 ], [ -65.328451901609213, -11.173245503878608 ], [ -65.328451901609213, -11.172976009293372 ], [ -65.328182407023974, -11.172976009293372 ], [ -65.328182407023974, -11.172706514708135 ], [ -65.328451901609213, -11.172706514708135 ], [ -65.328451901609213, -11.172437020122899 ], [ -65.327643417853508, -11.172437020122899 ] ] ] } },
{ "type": "Feature", "properties": { "DN": 3 }, "geometry": { "type": "Polygon", "coordinates": [ [ [ -65.280212370851999, -11.115304168052898 ], [ -65.280212370851999, -11.11584315722337 ], [ -65.280481865437224, -11.11584315722337 ], [ -65.280481865437224, -11.116382146393841 ], [ -65.280751360022464, -11.116382146393841 ], [ -65.280751360022464, -11.116651640979077 ], [ -65.280481865437224, -11.116651640979077 ], [ -65.280481865437224, -11.116921135564313 ], [ -65.281020854607704, -11.116921135564313 ], [ -65.281020854607704, -11.116112651808606 ], [ -65.280751360022464, -11.116112651808606 ], [ -65.280751360022464, -11.115573662638134 ], [ -65.280481865437224, -11.115573662638134 ], [ -65.280481865437224, -11.115304168052898 ], [ -65.280212370851999, -11.115304168052898 ] ] ] } },
{ "type": "Feature", "properties": { "DN": 3 }, "geometry": { "type": "Polygon", "coordinates": [ [ [ -65.279942876266759, -11.115034673467662 ], [ -65.279942876266759, -11.115304168052898 ], [ -65.280212370851999, -11.115304168052898 ], [ -65.280212370851999, -11.115034673467662 ], [ -65.279942876266759, -11.115034673467662 ] ] ] } },
{ "type": "Feature", "properties": { "DN": 3 }, "geometry": { "type": "Polygon", "coordinates": [ [ [ -64.968946124904576, -11.234690269312383 ], [ -64.968946124904576, -11.234959763897619 ], [ -64.969215619489816, -11.234959763897619 ], [ -64.969215619489816, -11.235498753068089 ], [ -64.969754608660281, -11.235498753068089 ], [ -64.969754608660281, -11.236037742238562 ], [ -64.970024103245521, -11.236037742238562 ], [ -64.970024103245521, -11.236307236823798 ], [ -64.970293597830761, -11.236307236823798 ], [ -64.970293597830761, -11.236576731409034 ], [ -64.970563092416, -11.236576731409034 ], [ -64.970563092416, -11.23684622599427 ], [ -64.971102081586466, -11.23684622599427 ], [ -64.971102081586466, -11.236576731409034 ], [ -64.970832587001226, -11.236576731409034 ], [ -64.970832587001226, -11.236307236823798 ], [ -64.970563092416, -11.236307236823798 ], [ -64.970563092416, -11.236037742238562 ], [ -64.970293597830761, -11.236037742238562 ], [ -64.970293597830761, -11.235229258482853 ], [ -64.970024103245521, -11.235229258482853 ], [ -64.970024103245521, -11.234690269312383 ], [ -64.968946124904576, -11.234690269312383 ] ] ] } },
{ "type": "Feature", "properties": { "DN": 3 }, "geometry": { "type": "Polygon", "coordinates": [ [ [ -64.965712189881742, -11.224718969658657 ], [ -64.965712189881742, -11.224988464243891 ], [ -64.965981684466982, -11.224988464243891 ], [ -64.965981684466982, -11.224718969658657 ], [ -64.965712189881742, -11.224718969658657 ] ] ] } },
{ "type": "Feature", "properties": { "DN": 3 }, "geometry": { "type": "Polygon", "coordinates": [ [ [ -64.965981684466982, -11.224449475073421 ], [ -64.965981684466982, -11.224718969658657 ], [ -64.966520673637461, -11.224718969658657 ], [ -64.966520673637461, -11.224449475073421 ], [ -64.965981684466982, -11.224449475073421 ] ] ] } },
{ "type": "Feature", "properties": { "DN": 3 }, "geometry": { "type": "Polygon", "coordinates": [ [ [ -64.967329157393166, -11.222832507562005 ], [ -64.967329157393166, -11.22310200214724 ], [ -64.967059662807927, -11.22310200214724 ], [ -64.967059662807927, -11.223640991317712 ], [ -64.966790168222687, -11.223640991317712 ], [ -64.966790168222687, -11.223910485902948 ], [ -64.966520673637461, -11.223910485902948 ], [ -64.966520673637461, -11.224449475073421 ], [ -64.967059662807927, -11.224449475073421 ], [ -64.967059662807927, -11.223910485902948 ], [ -64.967329157393166, -11.223910485902948 ], [ -64.967329157393166, -11.223371496732476 ], [ -64.967598651978406, -11.223371496732476 ], [ -64.967598651978406, -11.222832507562005 ], [ -64.967329157393166, -11.222832507562005 ] ] ] } },
{ "type": "Feature", "properties": { "DN": 3 }, "geometry": { "type": "Polygon", "coordinates": [ [ [ -64.967598651978406, -11.222024023806297 ], [ -64.967598651978406, -11.222832507562005 ], [ -64.967868146563632, -11.222832507562005 ], [ -64.967868146563632, -11.222024023806297 ], [ -64.967598651978406, -11.222024023806297 ] ] ] } },
{ "type": "Feature", "properties": { "DN": 3 }, "geometry": { "type": "Polygon", "coordinates": [ [ [ -64.967329157393166, -11.221754529221062 ], [ -64.967329157393166, -11.222024023806297 ], [ -64.967598651978406, -11.222024023806297 ], [ -64.967598651978406, -11.221754529221062 ], [ -64.967329157393166, -11.221754529221062 ] ] ] } },
{ "type": "Feature", "properties": { "DN": 3 }, "geometry": { "type": "Polygon", "coordinates": [ [ [ -64.993470132161036, -11.192649114015589 ], [ -64.993470132161036, -11.19318810318606 ], [ -64.993739626746276, -11.19318810318606 ], [ -64.993739626746276, -11.192649114015589 ], [ -64.993470132161036, -11.192649114015589 ] ] ] } },
{ "type": "Feature", "properties": { "DN": 3 }, "geometry": { "type": "Polygon", "coordinates": [ [ [ -64.99508709967246, -11.192110124845117 ], [ -64.995356594257686, -11.192110124845117 ], [ -64.995356594257686, -11.192379619430353 ], [ -64.99508709967246, -11.192379619430353 ], [ -64.99508709967246, -11.192918608600824 ], [ -64.994817605087221, -11.192918608600824 ], [ -64.994817605087221, -11.193457597771296 ], [ -64.994548110501981, -11.193457597771296 ], [ -64.994548110501981, -11.193727092356532 ], [ -64.994009121331516, -11.193727092356532 ], [ -64.994009121331516, -11.193996586941768 ], [ -64.994548110501981, -11.193996586941768 ], [ -64.994548110501981, -11.194266081527005 ], [ -64.99508709967246, -11.194266081527005 ], [ -64.99508709967246, -11.193727092356532 ], [ -64.995626088842926, -11.193727092356532 ], [ -64.995626088842926, -11.193457597771296 ], [ -64.995895583428165, -11.193457597771296 ], [ -64.995895583428165, -11.19318810318606 ], [ -64.996165078013405, -11.19318810318606 ], [ -64.996165078013405, -11.192918608600824 ], [ -64.996434572598631, -11.192918608600824 ], [ -64.996434572598631, -11.192649114015589 ], [ -64.99697356176911, -11.192649114015589 ], [ -64.99697356176911, -11.191571135674646 ], [ -64.996434572598631, -11.191571135674646 ], [ -64.996434572598631, -11.19130164108941 ], [ -64.995895583428165, -11.19130164108941 ], [ -64.995895583428165, -11.191032146504174 ], [ -64.994817605087221, -11.191032146504174 ], [ -64.994817605087221, -11.190762651918938 ], [ -64.994278615916755, -11.190762651918938 ], [ -64.994278615916755, -11.190493157333702 ], [ -64.993470132161036, -11.190493157333702 ], [ -64.993470132161036, -11.191840630259881 ], [ -64.994009121331516, -11.191840630259881 ], [ -64.994009121331516, -11.192110124845117 ], [ -64.993739626746276, -11.192110124845117 ], [ -64.993739626746276, -11.192649114015589 ], [ -64.994278615916755, -11.192649114015589 ], [ -64.994278615916755, -11.192379619430353 ], [ -64.994548110501981, -11.192379619430353 ], [ -64.994548110501981, -11.192110124845117 ], [ -64.994817605087221, -11.192110124845117 ], [ -64.994817605087221, -11.191840630259881 ], [ -64.99508709967246, -11.191840630259881 ], [ -64.99508709967246, -11.192110124845117 ] ], [ [ -64.994548110501981, -11.191840630259881 ], [ -64.994548110501981, -11.191571135674646 ], [ -64.994817605087221, -11.191571135674646 ], [ -64.994817605087221, -11.191840630259881 ], [ -64.994548110501981, -11.191840630259881 ] ], [ [ -64.99508709967246, -11.191571135674646 ], [ -64.995356594257686, -11.191571135674646 ], [ -64.995356594257686, -11.191840630259881 ], [ -64.99508709967246, -11.191840630259881 ], [ -64.99508709967246, -11.191571135674646 ] ] ] } },
{ "type": "Feature", "properties": { "DN": 3 }, "geometry": { "type": "Polygon", "coordinates": [ [ [ -65.005058399326188, -11.190493157333702 ], [ -65.005058399326188, -11.190762651918938 ], [ -65.004249915570483, -11.190762651918938 ], [ -65.004249915570483, -11.191032146504174 ], [ -65.004788904740948, -11.191032146504174 ], [ -65.004788904740948, -11.19130164108941 ], [ -65.005327893911414, -11.19130164108941 ], [ -65.005327893911414, -11.191571135674646 ], [ -65.005597388496653, -11.191571135674646 ], [ -65.005597388496653, -11.19130164108941 ], [ -65.006136377667133, -11.19130164108941 ], [ -65.006136377667133, -11.190493157333702 ], [ -65.005058399326188, -11.190493157333702 ] ] ] } },
{ "type": "Feature", "properties": { "DN": 3 }, "geometry": { "type": "Polygon", "coordinates": [ [ [ -65.005597388496653, -11.18806770606658 ], [ -65.005597388496653, -11.188876189822286 ], [ -65.005866883081893, -11.188876189822286 ], [ -65.005866883081893, -11.189145684407523 ], [ -65.006136377667133, -11.189145684407523 ], [ -65.006136377667133, -11.189415178992759 ], [ -65.006675366837598, -11.189415178992759 ], [ -65.006675366837598, -11.188606695237052 ], [ -65.006405872252358, -11.188606695237052 ], [ -65.006405872252358, -11.188337200651816 ], [ -65.006136377667133, -11.188337200651816 ], [ -65.006136377667133, -11.18806770606658 ], [ -65.005597388496653, -11.18806770606658 ] ] ] } },
{ "type": "Feature", "properties": { "DN": 3 }, "geometry": { "type": "Polygon", "coordinates": [ [ [ -65.007753345178543, -11.186989727725635 ], [ -65.007753345178543, -11.187528716896107 ], [ -65.007483850593303, -11.187528716896107 ], [ -65.007483850593303, -11.187798211481343 ], [ -65.007753345178543, -11.187798211481343 ], [ -65.007753345178543, -11.18806770606658 ], [ -65.008022839763782, -11.18806770606658 ], [ -65.008022839763782, -11.188337200651816 ], [ -65.008292334349008, -11.188337200651816 ], [ -65.008292334349008, -11.188606695237052 ], [ -65.008831323519487, -11.188606695237052 ], [ -65.008831323519487, -11.188337200651816 ], [ -65.009100818104727, -11.188337200651816 ], [ -65.009100818104727, -11.187528716896107 ], [ -65.008561828934248, -11.187528716896107 ], [ -65.008561828934248, -11.187259222310871 ], [ -65.008022839763782, -11.187259222310871 ], [ -65.008022839763782, -11.186989727725635 ], [ -65.007753345178543, -11.186989727725635 ] ] ] } },
{ "type": "Feature", "properties": { "DN": 3 }, "geometry": { "type": "Polygon", "coordinates": [ [ [ -65.005058399326188, -11.186720233140401 ], [ -65.005058399326188, -11.186989727725635 ], [ -65.004788904740948, -11.186989727725635 ], [ -65.004788904740948, -11.187259222310871 ], [ -65.004519410155709, -11.187259222310871 ], [ -65.004519410155709, -11.187798211481343 ], [ -65.005058399326188, -11.187798211481343 ], [ -65.005058399326188, -11.18806770606658 ], [ -65.005327893911414, -11.18806770606658 ], [ -65.005327893911414, -11.187798211481343 ], [ -65.005866883081893, -11.187798211481343 ], [ -65.005866883081893, -11.186989727725635 ], [ -65.005597388496653, -11.186989727725635 ], [ -65.005597388496653, -11.186720233140401 ], [ -65.005058399326188, -11.186720233140401 ] ] ] } },
{ "type": "Feature", "properties": { "DN": 3 }, "geometry": { "type": "Polygon", "coordinates": [ [ [ -64.994548110501981, -11.185642254799456 ], [ -64.994548110501981, -11.185911749384692 ], [ -64.994278615916755, -11.185911749384692 ], [ -64.994278615916755, -11.185642254799456 ], [ -64.994009121331516, -11.185642254799456 ], [ -64.994009121331516, -11.186450738555164 ], [ -64.993739626746276, -11.186450738555164 ], [ -64.993739626746276, -11.186720233140401 ], [ -64.993470132161036, -11.186720233140401 ], [ -64.993470132161036, -11.186989727725635 ], [ -64.993200637575811, -11.186989727725635 ], [ -64.993200637575811, -11.187528716896107 ], [ -64.992931142990571, -11.187528716896107 ], [ -64.992931142990571, -11.187798211481343 ], [ -64.993200637575811, -11.187798211481343 ], [ -64.993200637575811, -11.18806770606658 ], [ -64.993470132161036, -11.18806770606658 ], [ -64.993470132161036, -11.188337200651816 ], [ -64.994009121331516, -11.188337200651816 ], [ -64.994009121331516, -11.188606695237052 ], [ -64.994278615916755, -11.188606695237052 ], [ -64.994278615916755, -11.188337200651816 ], [ -64.994548110501981, -11.188337200651816 ], [ -64.994548110501981, -11.187798211481343 ], [ -64.994817605087221, -11.187798211481343 ], [ -64.994817605087221, -11.187528716896107 ], [ -64.994548110501981, -11.187528716896107 ], [ -64.994548110501981, -11.187259222310871 ], [ -64.99508709967246, -11.187259222310871 ], [ -64.99508709967246, -11.186989727725635 ], [ -64.994548110501981, -11.186989727725635 ], [ -64.994548110501981, -11.186720233140401 ], [ -64.995356594257686, -11.186720233140401 ], [ -64.995356594257686, -11.186989727725635 ], [ -64.995626088842926, -11.186989727725635 ], [ -64.995626088842926, -11.186720233140401 ], [ -64.995895583428165, -11.186720233140401 ], [ -64.995895583428165, -11.186181243969928 ], [ -64.995626088842926, -11.186181243969928 ], [ -64.995626088842926, -11.185642254799456 ], [ -64.994548110501981, -11.185642254799456 ] ] ] } },
{ "type": "Feature", "properties": { "DN": 3 }, "geometry": { "type": "Polygon", "coordinates": [ [ [ -65.001554969718114, -11.184294781873277 ], [ -65.001554969718114, -11.184564276458513 ], [ -65.001015980547649, -11.184564276458513 ], [ -65.001015980547649, -11.185372760214221 ], [ -65.001554969718114, -11.185372760214221 ], [ -65.001554969718114, -11.185642254799456 ], [ -65.001824464303354, -11.185642254799456 ], [ -65.001824464303354, -11.185911749384692 ], [ -65.002363453473819, -11.185911749384692 ], [ -65.002363453473819, -11.185642254799456 ], [ -65.002902442644299, -11.185642254799456 ], [ -65.002902442644299, -11.185911749384692 ], [ -65.003171937229538, -11.185911749384692 ], [ -65.003171937229538, -11.185642254799456 ], [ -65.003441431814764, -11.185642254799456 ], [ -65.003441431814764, -11.184833771043749 ], [ -65.003171937229538, -11.184833771043749 ], [ -65.003171937229538, -11.185103265628985 ], [ -65.002363453473819, -11.185103265628985 ], [ -65.002363453473819, -11.184833771043749 ], [ -65.002093958888594, -11.184833771043749 ], [ -65.002093958888594, -11.184294781873277 ], [ -65.001554969718114, -11.184294781873277 ] ] ] } },
{ "type": "Feature", "properties": { "DN": 3 }, "geometry": { "type": "Polygon", "coordinates": [ [ [ -65.006405872252358, -11.181599836020919 ], [ -65.006405872252358, -11.181869330606155 ], [ -65.006136377667133, -11.181869330606155 ], [ -65.006136377667133, -11.182408319776627 ], [ -65.005866883081893, -11.182408319776627 ], [ -65.005866883081893, -11.182947308947098 ], [ -65.005597388496653, -11.182947308947098 ], [ -65.005597388496653, -11.183216803532334 ], [ -65.005866883081893, -11.183216803532334 ], [ -65.005866883081893, -11.183755792702804 ], [ -65.006136377667133, -11.183755792702804 ], [ -65.006136377667133, -11.183216803532334 ], [ -65.006405872252358, -11.183216803532334 ], [ -65.006405872252358, -11.184025287288041 ], [ -65.006944861422838, -11.184025287288041 ], [ -65.006944861422838, -11.184294781873277 ], [ -65.007753345178543, -11.184294781873277 ], [ -65.007753345178543, -11.184025287288041 ], [ -65.008022839763782, -11.184025287288041 ], [ -65.008022839763782, -11.18348629811757 ], [ -65.007483850593303, -11.18348629811757 ], [ -65.007483850593303, -11.183216803532334 ], [ -65.007214356008078, -11.183216803532334 ], [ -65.007214356008078, -11.182408319776627 ], [ -65.006944861422838, -11.182408319776627 ], [ -65.006944861422838, -11.181869330606155 ], [ -65.006675366837598, -11.181869330606155 ], [ -65.006675366837598, -11.181599836020919 ], [ -65.006405872252358, -11.181599836020919 ] ] ] } },
{ "type": "Feature", "properties": { "DN": 3 }, "geometry": { "type": "Polygon", "coordinates": [ [ [ -65.013682226053731, -11.180252363094739 ], [ -65.013682226053731, -11.18079135226521 ], [ -65.013412731468492, -11.18079135226521 ], [ -65.013412731468492, -11.181060846850446 ], [ -65.013143236883266, -11.181060846850446 ], [ -65.013143236883266, -11.181330341435682 ], [ -65.012604247712787, -11.181330341435682 ], [ -65.012604247712787, -11.181869330606155 ], [ -65.012873742298027, -11.181869330606155 ], [ -65.012873742298027, -11.182408319776627 ], [ -65.013143236883266, -11.182408319776627 ], [ -65.013143236883266, -11.182138825191391 ], [ -65.013682226053731, -11.182138825191391 ], [ -65.013682226053731, -11.181599836020919 ], [ -65.013951720638971, -11.181599836020919 ], [ -65.013951720638971, -11.181330341435682 ], [ -65.014221215224197, -11.181330341435682 ], [ -65.014221215224197, -11.180252363094739 ], [ -65.013682226053731, -11.180252363094739 ] ] ] } },
{ "type": "Feature", "properties": { "DN": 3 }, "geometry": { "type": "Polygon", "coordinates": [ [ [ -65.009909301860432, -11.179174384753797 ], [ -65.009909301860432, -11.179443879339033 ], [ -65.009639807275192, -11.179443879339033 ], [ -65.009639807275192, -11.179174384753797 ], [ -65.009370312689953, -11.179174384753797 ], [ -65.009370312689953, -11.179443879339033 ], [ -65.008831323519487, -11.179443879339033 ], [ -65.008831323519487, -11.179982868509503 ], [ -65.009370312689953, -11.179982868509503 ], [ -65.009370312689953, -11.180252363094739 ], [ -65.009100818104727, -11.180252363094739 ], [ -65.009100818104727, -11.180521857679976 ], [ -65.009370312689953, -11.180521857679976 ], [ -65.009370312689953, -11.18079135226521 ], [ -65.008831323519487, -11.18079135226521 ], [ -65.008831323519487, -11.181330341435682 ], [ -65.008561828934248, -11.181330341435682 ], [ -65.008561828934248, -11.181599836020919 ], [ -65.008831323519487, -11.181599836020919 ], [ -65.008831323519487, -11.182138825191391 ], [ -65.009100818104727, -11.182138825191391 ], [ -65.009100818104727, -11.182408319776627 ], [ -65.010717785616137, -11.182408319776627 ], [ -65.010717785616137, -11.182947308947098 ], [ -65.011256774786602, -11.182947308947098 ], [ -65.011256774786602, -11.182408319776627 ], [ -65.011795763957082, -11.182408319776627 ], [ -65.011795763957082, -11.182138825191391 ], [ -65.011256774786602, -11.182138825191391 ], [ -65.011256774786602, -11.181869330606155 ], [ -65.010987280201377, -11.181869330606155 ], [ -65.010987280201377, -11.181599836020919 ], [ -65.010448291030897, -11.181599836020919 ], [ -65.010448291030897, -11.181330341435682 ], [ -65.010178796445672, -11.181330341435682 ], [ -65.010178796445672, -11.181060846850446 ], [ -65.009909301860432, -11.181060846850446 ], [ -65.009909301860432, -11.18079135226521 ], [ -65.010178796445672, -11.18079135226521 ], [ -65.010178796445672, -11.180252363094739 ], [ -65.010448291030897, -11.180252363094739 ], [ -65.010448291030897, -11.179713373924267 ], [ -65.010717785616137, -11.179713373924267 ], [ -65.010717785616137, -11.179443879339033 ], [ -65.010178796445672, -11.179443879339033 ], [ -65.010178796445672, -11.179174384753797 ], [ -65.009909301860432, -11.179174384753797 ] ] ] } },
{ "type": "Feature", "properties": { "DN": 3 }, "geometry": { "type": "Polygon", "coordinates": [ [ [ -65.012604247712787, -11.177287922657145 ], [ -65.012604247712787, -11.177557417242381 ], [ -65.012334753127547, -11.177557417242381 ], [ -65.012334753127547, -11.177826911827616 ], [ -65.011795763957082, -11.177826911827616 ], [ -65.011795763957082, -11.178096406412852 ], [ -65.011256774786602, -11.178096406412852 ], [ -65.011256774786602, -11.178365900998088 ], [ -65.010717785616137, -11.178365900998088 ], [ -65.010717785616137, -11.17890489016856 ], [ -65.010448291030897, -11.17890489016856 ], [ -65.010448291030897, -11.179174384753797 ], [ -65.012334753127547, -11.179174384753797 ], [ -65.012334753127547, -11.17890489016856 ], [ -65.012873742298027, -11.17890489016856 ], [ -65.012873742298027, -11.178635395583324 ], [ -65.013143236883266, -11.178635395583324 ], [ -65.013143236883266, -11.178365900998088 ], [ -65.013412731468492, -11.178365900998088 ], [ -65.013412731468492, -11.177557417242381 ], [ -65.012873742298027, -11.177557417242381 ], [ -65.012873742298027, -11.177287922657145 ], [ -65.012604247712787, -11.177287922657145 ] ] ] } },
{ "type": "Feature", "properties": { "DN": 3 }, "geometry": { "type": "Polygon", "coordinates": [ [ [ -65.013412731468492, -11.172437020122899 ], [ -65.013412731468492, -11.172167525537663 ], [ -65.013143236883266, -11.172167525537663 ], [ -65.013143236883266, -11.172437020122899 ], [ -65.012873742298027, -11.172437020122899 ], [ -65.012873742298027, -11.172706514708135 ], [ -65.012604247712787, -11.172706514708135 ], [ -65.012604247712787, -11.172437020122899 ], [ -65.012065258542322, -11.172437020122899 ], [ -65.012065258542322, -11.171898030952427 ], [ -65.011526269371842, -11.171898030952427 ], [ -65.011526269371842, -11.171628536367193 ], [ -65.011256774786602, -11.171628536367193 ], [ -65.011256774786602, -11.171898030952427 ], [ -65.010987280201377, -11.171898030952427 ], [ -65.010987280201377, -11.172167525537663 ], [ -65.010717785616137, -11.172167525537663 ], [ -65.010717785616137, -11.172437020122899 ], [ -65.010448291030897, -11.172437020122899 ], [ -65.010448291030897, -11.171628536367193 ], [ -65.010178796445672, -11.171628536367193 ], [ -65.010178796445672, -11.172167525537663 ], [ -65.009909301860432, -11.172167525537663 ], [ -65.009909301860432, -11.17567095514573 ], [ -65.010178796445672, -11.17567095514573 ], [ -65.010178796445672, -11.175940449730966 ], [ -65.009909301860432, -11.175940449730966 ], [ -65.009909301860432, -11.176748933486673 ], [ -65.010178796445672, -11.176748933486673 ], [ -65.010178796445672, -11.177557417242381 ], [ -65.010448291030897, -11.177557417242381 ], [ -65.010448291030897, -11.177287922657145 ], [ -65.010717785616137, -11.177287922657145 ], [ -65.010717785616137, -11.177557417242381 ], [ -65.010987280201377, -11.177557417242381 ], [ -65.010987280201377, -11.177018428071909 ], [ -65.011526269371842, -11.177018428071909 ], [ -65.011526269371842, -11.176479438901438 ], [ -65.010987280201377, -11.176479438901438 ], [ -65.010987280201377, -11.175940449730966 ], [ -65.010717785616137, -11.175940449730966 ], [ -65.010717785616137, -11.175401460560494 ], [ -65.011256774786602, -11.175401460560494 ], [ -65.011256774786602, -11.175131965975257 ], [ -65.011526269371842, -11.175131965975257 ], [ -65.011526269371842, -11.175401460560494 ], [ -65.012065258542322, -11.175401460560494 ], [ -65.012065258542322, -11.175940449730966 ], [ -65.012604247712787, -11.175940449730966 ], [ -65.012604247712787, -11.176209944316202 ], [ -65.012873742298027, -11.176209944316202 ], [ -65.012873742298027, -11.175940449730966 ], [ -65.013951720638971, -11.175940449730966 ], [ -65.013951720638971, -11.175401460560494 ], [ -65.013682226053731, -11.175401460560494 ], [ -65.013682226053731, -11.175131965975257 ], [ -65.012873742298027, -11.175131965975257 ], [ -65.012873742298027, -11.174862471390021 ], [ -65.012604247712787, -11.174862471390021 ], [ -65.012604247712787, -11.174592976804787 ], [ -65.012334753127547, -11.174592976804787 ], [ -65.012334753127547, -11.174053987634315 ], [ -65.012604247712787, -11.174053987634315 ], [ -65.012604247712787, -11.173784493049078 ], [ -65.012873742298027, -11.173784493049078 ], [ -65.012873742298027, -11.173514998463844 ], [ -65.013682226053731, -11.173514998463844 ], [ -65.013682226053731, -11.173245503878608 ], [ -65.013951720638971, -11.173245503878608 ], [ -65.013951720638971, -11.173514998463844 ], [ -65.014221215224197, -11.173514998463844 ], [ -65.014221215224197, -11.173784493049078 ], [ -65.014490709809436, -11.173784493049078 ], [ -65.014490709809436, -11.174053987634315 ], [ -65.014760204394676, -11.174053987634315 ], [ -65.014760204394676, -11.174323482219551 ], [ -65.015029698979916, -11.174323482219551 ], [ -65.015029698979916, -11.174592976804787 ], [ -65.015299193565141, -11.174592976804787 ], [ -65.015299193565141, -11.176479438901438 ], [ -65.014760204394676, -11.176479438901438 ], [ -65.014760204394676, -11.176748933486673 ], [ -65.014221215224197, -11.176748933486673 ], [ -65.014221215224197, -11.177018428071909 ], [ -65.014490709809436, -11.177018428071909 ], [ -65.014490709809436, -11.177557417242381 ], [ -65.014760204394676, -11.177557417242381 ], [ -65.014760204394676, -11.177018428071909 ], [ -65.015029698979916, -11.177018428071909 ], [ -65.015029698979916, -11.177287922657145 ], [ -65.015299193565141, -11.177287922657145 ], [ -65.015299193565141, -11.177018428071909 ], [ -65.015568688150381, -11.177018428071909 ], [ -65.015568688150381, -11.175401460560494 ], [ -65.015838182735621, -11.175401460560494 ], [ -65.015838182735621, -11.174592976804787 ], [ -65.015568688150381, -11.174592976804787 ], [ -65.015568688150381, -11.174323482219551 ], [ -65.015299193565141, -11.174323482219551 ], [ -65.015299193565141, -11.174053987634315 ], [ -65.015029698979916, -11.174053987634315 ], [ -65.015029698979916, -11.173784493049078 ], [ -65.015299193565141, -11.173784493049078 ], [ -65.015299193565141, -11.173514998463844 ], [ -65.015029698979916, -11.173514998463844 ], [ -65.015029698979916, -11.173245503878608 ], [ -65.015299193565141, -11.173245503878608 ], [ -65.015299193565141, -11.172976009293372 ], [ -65.015029698979916, -11.172976009293372 ], [ -65.015029698979916, -11.172706514708135 ], [ -65.015299193565141, -11.172706514708135 ], [ -65.015299193565141, -11.172167525537663 ], [ -65.015568688150381, -11.172167525537663 ], [ -65.015568688150381, -11.171898030952427 ], [ -65.014760204394676, -11.171898030952427 ], [ -65.014760204394676, -11.172167525537663 ], [ -65.014490709809436, -11.172167525537663 ], [ -65.014490709809436, -11.171898030952427 ], [ -65.013951720638971, -11.171898030952427 ], [ -65.013951720638971, -11.172167525537663 ], [ -65.013682226053731, -11.172167525537663 ], [ -65.013682226053731, -11.172437020122899 ], [ -65.013412731468492, -11.172437020122899 ] ], [ [ -65.013951720638971, -11.172437020122899 ], [ -65.013951720638971, -11.172706514708135 ], [ -65.013682226053731, -11.172706514708135 ], [ -65.013682226053731, -11.172437020122899 ], [ -65.013951720638971, -11.172437020122899 ] ] ] } },
{ "type": "Feature", "properties": { "DN": 3 }, "geometry": { "type": "Polygon", "coordinates": [ [ [ -65.01934161234368, -11.173784493049078 ], [ -65.01934161234368, -11.174053987634315 ], [ -65.018802623173215, -11.174053987634315 ], [ -65.018802623173215, -11.174592976804787 ], [ -65.019072117758455, -11.174592976804787 ], [ -65.019072117758455, -11.174862471390021 ], [ -65.01934161234368, -11.174862471390021 ], [ -65.01934161234368, -11.175131965975257 ], [ -65.01988060151416, -11.175131965975257 ], [ -65.01988060151416, -11.174862471390021 ], [ -65.020150096099385, -11.174862471390021 ], [ -65.020150096099385, -11.174053987634315 ], [ -65.01961110692892, -11.174053987634315 ], [ -65.01961110692892, -11.173784493049078 ], [ -65.01934161234368, -11.173784493049078 ] ] ] } },
{ "type": "Feature", "properties": { "DN": 3 }, "geometry": { "type": "Polygon", "coordinates": [ [ [ -65.048447027549159, -11.171898030952427 ], [ -65.048447027549159, -11.172167525537663 ], [ -65.048177532963919, -11.172167525537663 ], [ -65.048177532963919, -11.172437020122899 ], [ -65.047908038378679, -11.172437020122899 ], [ -65.047908038378679, -11.172706514708135 ], [ -65.048177532963919, -11.172706514708135 ], [ -65.048177532963919, -11.172976009293372 ], [ -65.048447027549159, -11.172976009293372 ], [ -65.048447027549159, -11.173514998463844 ], [ -65.048716522134399, -11.173514998463844 ], [ -65.048716522134399, -11.173784493049078 ], [ -65.049255511304864, -11.173784493049078 ], [ -65.049255511304864, -11.173514998463844 ], [ -65.049525005890104, -11.173514998463844 ], [ -65.049525005890104, -11.173245503878608 ], [ -65.049794500475329, -11.173245503878608 ], [ -65.049794500475329, -11.172976009293372 ], [ -65.050063995060569, -11.172976009293372 ], [ -65.050063995060569, -11.172706514708135 ], [ -65.049525005890104, -11.172706514708135 ], [ -65.049525005890104, -11.172437020122899 ], [ -65.049255511304864, -11.172437020122899 ], [ -65.049255511304864, -11.172167525537663 ], [ -65.048986016719624, -11.172167525537663 ], [ -65.048986016719624, -11.171898030952427 ], [ -65.048447027549159, -11.171898030952427 ] ] ] } },
{ "type": "Feature", "properties": { "DN": 3 }, "geometry": { "type": "Polygon", "coordinates": [ [ [ -65.019072117758455, -11.172976009293372 ], [ -65.019072117758455, -11.173245503878608 ], [ -65.01961110692892, -11.173245503878608 ], [ -65.01961110692892, -11.173514998463844 ], [ -65.01988060151416, -11.173514998463844 ], [ -65.01988060151416, -11.173245503878608 ], [ -65.020150096099385, -11.173245503878608 ], [ -65.020150096099385, -11.173514998463844 ], [ -65.020419590684625, -11.173514998463844 ], [ -65.020419590684625, -11.172976009293372 ], [ -65.020150096099385, -11.172976009293372 ], [ -65.020150096099385, -11.172437020122899 ], [ -65.01961110692892, -11.172437020122899 ], [ -65.01961110692892, -11.172167525537663 ], [ -65.01934161234368, -11.172167525537663 ], [ -65.01934161234368, -11.171898030952427 ], [ -65.018802623173215, -11.171898030952427 ], [ -65.018802623173215, -11.171359041781956 ], [ -65.018263634002736, -11.171359041781956 ], [ -65.018263634002736, -11.17108954719672 ], [ -65.017724644832271, -11.17108954719672 ], [ -65.017724644832271, -11.171628536367193 ], [ -65.017455150247031, -11.171628536367193 ], [ -65.017455150247031, -11.171898030952427 ], [ -65.017185655661791, -11.171898030952427 ], [ -65.017185655661791, -11.172167525537663 ], [ -65.016916161076566, -11.172167525537663 ], [ -65.016916161076566, -11.172437020122899 ], [ -65.016646666491326, -11.172437020122899 ], [ -65.016646666491326, -11.172706514708135 ], [ -65.016377171906086, -11.172706514708135 ], [ -65.016377171906086, -11.172976009293372 ], [ -65.016646666491326, -11.172976009293372 ], [ -65.016646666491326, -11.173514998463844 ], [ -65.017185655661791, -11.173514998463844 ], [ -65.017185655661791, -11.173245503878608 ], [ -65.017455150247031, -11.173245503878608 ], [ -65.017455150247031, -11.173514998463844 ], [ -65.017724644832271, -11.173514998463844 ], [ -65.017724644832271, -11.173245503878608 ], [ -65.01799413941751, -11.173245503878608 ], [ -65.01799413941751, -11.173514998463844 ], [ -65.018533128587976, -11.173514998463844 ], [ -65.018533128587976, -11.173245503878608 ], [ -65.018802623173215, -11.173245503878608 ], [ -65.018802623173215, -11.172976009293372 ], [ -65.019072117758455, -11.172976009293372 ] ], [ [ -65.018533128587976, -11.172976009293372 ], [ -65.018533128587976, -11.172706514708135 ], [ -65.018802623173215, -11.172706514708135 ], [ -65.018802623173215, -11.172976009293372 ], [ -65.018533128587976, -11.172976009293372 ] ] ] } },
{ "type": "Feature", "properties": { "DN": 3 }, "geometry": { "type": "Polygon", "coordinates": [ [ [ -65.013682226053731, -11.171628536367193 ], [ -65.013682226053731, -11.171898030952427 ], [ -65.013951720638971, -11.171898030952427 ], [ -65.013951720638971, -11.171628536367193 ], [ -65.013682226053731, -11.171628536367193 ] ] ] } },
{ "type": "Feature", "properties": { "DN": 3 }, "geometry": { "type": "Polygon", "coordinates": [ [ [ -65.013412731468492, -11.171359041781956 ], [ -65.013412731468492, -11.171628536367193 ], [ -65.013682226053731, -11.171628536367193 ], [ -65.013682226053731, -11.171359041781956 ], [ -65.013412731468492, -11.171359041781956 ] ] ] } },
{ "type": "Feature", "properties": { "DN": 3 }, "geometry": { "type": "Polygon", "coordinates": [ [ [ -65.011795763957082, -11.167586117588653 ], [ -65.011256774786602, -11.167586117588653 ], [ -65.011256774786602, -11.16785561217389 ], [ -65.010178796445672, -11.16785561217389 ], [ -65.010178796445672, -11.169203085100069 ], [ -65.010448291030897, -11.169203085100069 ], [ -65.010448291030897, -11.169742074270541 ], [ -65.010717785616137, -11.169742074270541 ], [ -65.010717785616137, -11.170011568855777 ], [ -65.011256774786602, -11.170011568855777 ], [ -65.011256774786602, -11.170281063441013 ], [ -65.011795763957082, -11.170281063441013 ], [ -65.011795763957082, -11.170820052611484 ], [ -65.012065258542322, -11.170820052611484 ], [ -65.012065258542322, -11.170281063441013 ], [ -65.012334753127547, -11.170281063441013 ], [ -65.012334753127547, -11.169742074270541 ], [ -65.012065258542322, -11.169742074270541 ], [ -65.012065258542322, -11.168933590514833 ], [ -65.011795763957082, -11.168933590514833 ], [ -65.011795763957082, -11.16785561217389 ], [ -65.012065258542322, -11.16785561217389 ], [ -65.012065258542322, -11.167316623003419 ], [ -65.011965087095561, -11.167316623003419 ], [ -65.011795763957082, -11.167381420913898 ], [ -65.011795763957082, -11.167586117588653 ] ] ] } },
{ "type": "Feature", "properties": { "DN": 3 }, "geometry": { "type": "Polygon", "coordinates": [ [ [ -65.046291070867269, -11.167316623003419 ], [ -65.046291070867269, -11.168125106759126 ], [ -65.04602157628203, -11.168125106759126 ], [ -65.04602157628203, -11.169203085100069 ], [ -65.046560565452509, -11.169203085100069 ], [ -65.046560565452509, -11.168933590514833 ], [ -65.046830060037735, -11.168933590514833 ], [ -65.046830060037735, -11.168664095929596 ], [ -65.047099554622974, -11.168664095929596 ], [ -65.047099554622974, -11.16785561217389 ], [ -65.046830060037735, -11.16785561217389 ], [ -65.046830060037735, -11.167316623003419 ], [ -65.046291070867269, -11.167316623003419 ] ] ] } },
{ "type": "Feature", "properties": { "DN": 3 }, "geometry": { "type": "Polygon", "coordinates": [ [ [ -65.04602157628203, -11.167047128418183 ], [ -65.04602157628203, -11.167316623003419 ], [ -65.046291070867269, -11.167316623003419 ], [ -65.046291070867269, -11.167047128418183 ], [ -65.04602157628203, -11.167047128418183 ] ] ] } },
{ "type": "Feature", "properties": { "DN": 3 }, "geometry": { "type": "Polygon", "coordinates": [ [ [ -65.024192514877925, -11.166777633832947 ], [ -65.024192514877925, -11.167047128418183 ], [ -65.024462009463164, -11.167047128418183 ], [ -65.024462009463164, -11.166777633832947 ], [ -65.024192514877925, -11.166777633832947 ] ] ] } },
{ "type": "Feature", "properties": { "DN": 3 }, "geometry": { "type": "Polygon", "coordinates": [ [ [ -65.024462009463164, -11.165969150077238 ], [ -65.024462009463164, -11.166238644662474 ], [ -65.024731504048404, -11.166238644662474 ], [ -65.024731504048404, -11.166508139247711 ], [ -65.024462009463164, -11.166508139247711 ], [ -65.024462009463164, -11.166777633832947 ], [ -65.024731504048404, -11.166777633832947 ], [ -65.024731504048404, -11.167047128418183 ], [ -65.025000998633644, -11.167047128418183 ], [ -65.025000998633644, -11.166777633832947 ], [ -65.025270493218869, -11.166777633832947 ], [ -65.025270493218869, -11.167316623003419 ], [ -65.026078976974574, -11.167316623003419 ], [ -65.026078976974574, -11.166777633832947 ], [ -65.026348471559814, -11.166777633832947 ], [ -65.026348471559814, -11.166508139247711 ], [ -65.025809482389349, -11.166508139247711 ], [ -65.025809482389349, -11.166238644662474 ], [ -65.025539987804109, -11.166238644662474 ], [ -65.025539987804109, -11.166508139247711 ], [ -65.025270493218869, -11.166508139247711 ], [ -65.025270493218869, -11.166238644662474 ], [ -65.025000998633644, -11.166238644662474 ], [ -65.025000998633644, -11.165969150077238 ], [ -65.024462009463164, -11.165969150077238 ] ] ] } },
{ "type": "Feature", "properties": { "DN": 3 }, "geometry": { "type": "Polygon", "coordinates": [ [ [ -65.023653525707459, -11.162196225883937 ], [ -65.023923020292699, -11.162196225883937 ], [ -65.023923020292699, -11.162465720469173 ], [ -65.024192514877925, -11.162465720469173 ], [ -65.024192514877925, -11.162196225883937 ], [ -65.024731504048404, -11.162196225883937 ], [ -65.024731504048404, -11.16138774212823 ], [ -65.025270493218869, -11.16138774212823 ], [ -65.025270493218869, -11.160848752957758 ], [ -65.025539987804109, -11.160848752957758 ], [ -65.025539987804109, -11.158962290861107 ], [ -65.025270493218869, -11.158962290861107 ], [ -65.025270493218869, -11.15869279627587 ], [ -65.025000998633644, -11.15869279627587 ], [ -65.025000998633644, -11.158962290861107 ], [ -65.024462009463164, -11.158962290861107 ], [ -65.024462009463164, -11.159231785446343 ], [ -65.023923020292699, -11.159231785446343 ], [ -65.023923020292699, -11.159501280031579 ], [ -65.023653525707459, -11.159501280031579 ], [ -65.023653525707459, -11.159231785446343 ], [ -65.02338403112222, -11.159231785446343 ], [ -65.02338403112222, -11.159501280031579 ], [ -65.022575547366515, -11.159501280031579 ], [ -65.022575547366515, -11.16004026920205 ], [ -65.02311453653698, -11.16004026920205 ], [ -65.02311453653698, -11.160848752957758 ], [ -65.022845041951754, -11.160848752957758 ], [ -65.022845041951754, -11.161118247542994 ], [ -65.022036558196049, -11.161118247542994 ], [ -65.022036558196049, -11.16138774212823 ], [ -65.022575547366515, -11.16138774212823 ], [ -65.022575547366515, -11.161657236713465 ], [ -65.02338403112222, -11.161657236713465 ], [ -65.02338403112222, -11.161926731298701 ], [ -65.023653525707459, -11.161926731298701 ], [ -65.023653525707459, -11.162196225883937 ] ], [ [ -65.023653525707459, -11.161657236713465 ], [ -65.023923020292699, -11.161657236713465 ], [ -65.023923020292699, -11.161926731298701 ], [ -65.023653525707459, -11.161926731298701 ], [ -65.023653525707459, -11.161657236713465 ] ] ] } },
{ "type": "Feature", "properties": { "DN": 3 }, "geometry": { "type": "Polygon", "coordinates": [ [ [ -65.017724644832271, -11.157884312520164 ], [ -65.017724644832271, -11.159501280031579 ], [ -65.017455150247031, -11.159501280031579 ], [ -65.017455150247031, -11.16004026920205 ], [ -65.017185655661791, -11.16004026920205 ], [ -65.017185655661791, -11.160309763787286 ], [ -65.017455150247031, -11.160309763787286 ], [ -65.017455150247031, -11.160579258372522 ], [ -65.018263634002736, -11.160579258372522 ], [ -65.018263634002736, -11.160309763787286 ], [ -65.018533128587976, -11.160309763787286 ], [ -65.018533128587976, -11.160579258372522 ], [ -65.01988060151416, -11.160579258372522 ], [ -65.01988060151416, -11.160309763787286 ], [ -65.020150096099385, -11.160309763787286 ], [ -65.020150096099385, -11.160579258372522 ], [ -65.020419590684625, -11.160579258372522 ], [ -65.020419590684625, -11.160848752957758 ], [ -65.020958579855105, -11.160848752957758 ], [ -65.020958579855105, -11.160579258372522 ], [ -65.02149756902557, -11.160579258372522 ], [ -65.02149756902557, -11.160309763787286 ], [ -65.02176706361081, -11.160309763787286 ], [ -65.02176706361081, -11.159770774616813 ], [ -65.02149756902557, -11.159770774616813 ], [ -65.02149756902557, -11.16004026920205 ], [ -65.02122807444033, -11.16004026920205 ], [ -65.02122807444033, -11.159770774616813 ], [ -65.020958579855105, -11.159770774616813 ], [ -65.020958579855105, -11.16004026920205 ], [ -65.020689085269865, -11.16004026920205 ], [ -65.020689085269865, -11.159770774616813 ], [ -65.020419590684625, -11.159770774616813 ], [ -65.020419590684625, -11.16004026920205 ], [ -65.020150096099385, -11.16004026920205 ], [ -65.020150096099385, -11.159770774616813 ], [ -65.01988060151416, -11.159770774616813 ], [ -65.01988060151416, -11.159501280031579 ], [ -65.019072117758455, -11.159501280031579 ], [ -65.019072117758455, -11.158962290861107 ], [ -65.018533128587976, -11.158962290861107 ], [ -65.018533128587976, -11.158423301690634 ], [ -65.01799413941751, -11.158423301690634 ], [ -65.01799413941751, -11.157884312520164 ], [ -65.017724644832271, -11.157884312520164 ] ] ] } },
{ "type": "Feature", "properties": { "DN": 3 }, "geometry": { "type": "Polygon", "coordinates": [ [ [ -65.100189987914447, -11.105063373813936 ], [ -65.100189987914447, -11.105332868399172 ], [ -65.099920493329208, -11.105332868399172 ], [ -65.099920493329208, -11.106410846740115 ], [ -65.100189987914447, -11.106410846740115 ], [ -65.100189987914447, -11.106949835910587 ], [ -65.100998471670152, -11.106949835910587 ], [ -65.100998471670152, -11.106680341325351 ], [ -65.101537460840618, -11.106680341325351 ], [ -65.101537460840618, -11.106410846740115 ], [ -65.101806955425857, -11.106410846740115 ], [ -65.101806955425857, -11.105602362984406 ], [ -65.101537460840618, -11.105602362984406 ], [ -65.101537460840618, -11.105332868399172 ], [ -65.100998471670152, -11.105332868399172 ], [ -65.100998471670152, -11.105063373813936 ], [ -65.100189987914447, -11.105063373813936 ] ] ] } },
{ "type": "Feature", "properties": { "DN": 3 }, "geometry": { "type": "Polygon", "coordinates": [ [ [ -65.279403887096279, -11.114765178882426 ], [ -65.279403887096279, -11.115034673467662 ], [ -65.279942876266759, -11.115034673467662 ], [ -65.279942876266759, -11.114765178882426 ], [ -65.279403887096279, -11.114765178882426 ] ] ] } },
{ "type": "Feature", "properties": { "DN": 3 }, "geometry": { "type": "Polygon", "coordinates": [ [ [ -65.278595403340574, -11.107758319666294 ], [ -65.278595403340574, -11.108566803422001 ], [ -65.278864897925814, -11.108566803422001 ], [ -65.278864897925814, -11.109375287177709 ], [ -65.279134392511054, -11.109375287177709 ], [ -65.279134392511054, -11.109644781762945 ], [ -65.278595403340574, -11.109644781762945 ], [ -65.278595403340574, -11.109914276348182 ], [ -65.278056414170109, -11.109914276348182 ], [ -65.278056414170109, -11.110183770933416 ], [ -65.27751742499963, -11.110183770933416 ], [ -65.27751742499963, -11.109914276348182 ], [ -65.277247930414404, -11.109914276348182 ], [ -65.277247930414404, -11.109105792592473 ], [ -65.27751742499963, -11.109105792592473 ], [ -65.27751742499963, -11.108836298007237 ], [ -65.276978435829164, -11.108836298007237 ], [ -65.276978435829164, -11.108566803422001 ], [ -65.276708941243925, -11.108566803422001 ], [ -65.276708941243925, -11.109105792592473 ], [ -65.276439446658685, -11.109105792592473 ], [ -65.276439446658685, -11.109375287177709 ], [ -65.27616995207346, -11.109375287177709 ], [ -65.27616995207346, -11.109644781762945 ], [ -65.276439446658685, -11.109644781762945 ], [ -65.276439446658685, -11.110992254689124 ], [ -65.276708941243925, -11.110992254689124 ], [ -65.276708941243925, -11.111261749274361 ], [ -65.276439446658685, -11.111261749274361 ], [ -65.276439446658685, -11.111800738444831 ], [ -65.27590045748822, -11.111800738444831 ], [ -65.27590045748822, -11.112070233030067 ], [ -65.27563096290298, -11.112070233030067 ], [ -65.27563096290298, -11.111800738444831 ], [ -65.275361468317755, -11.111800738444831 ], [ -65.275361468317755, -11.112070233030067 ], [ -65.275091973732515, -11.112070233030067 ], [ -65.275091973732515, -11.112339727615304 ], [ -65.274822479147275, -11.112339727615304 ], [ -65.274822479147275, -11.113417705956246 ], [ -65.275361468317755, -11.113417705956246 ], [ -65.275361468317755, -11.113687200541483 ], [ -65.27563096290298, -11.113687200541483 ], [ -65.27563096290298, -11.113956695126719 ], [ -65.27590045748822, -11.113956695126719 ], [ -65.27590045748822, -11.114226189711955 ], [ -65.276439446658685, -11.114226189711955 ], [ -65.276439446658685, -11.114495684297191 ], [ -65.276708941243925, -11.114495684297191 ], [ -65.276708941243925, -11.114765178882426 ], [ -65.277247930414404, -11.114765178882426 ], [ -65.277247930414404, -11.115034673467662 ], [ -65.278595403340574, -11.115034673467662 ], [ -65.278595403340574, -11.114765178882426 ], [ -65.279403887096279, -11.114765178882426 ], [ -65.279403887096279, -11.114495684297191 ], [ -65.278864897925814, -11.114495684297191 ], [ -65.278864897925814, -11.114226189711955 ], [ -65.276978435829164, -11.114226189711955 ], [ -65.276978435829164, -11.113956695126719 ], [ -65.276708941243925, -11.113956695126719 ], [ -65.276708941243925, -11.113687200541483 ], [ -65.276439446658685, -11.113687200541483 ], [ -65.276439446658685, -11.113148211371012 ], [ -65.276708941243925, -11.113148211371012 ], [ -65.276708941243925, -11.11260922220054 ], [ -65.276978435829164, -11.11260922220054 ], [ -65.276978435829164, -11.112339727615304 ], [ -65.277247930414404, -11.112339727615304 ], [ -65.277247930414404, -11.111800738444831 ], [ -65.27751742499963, -11.111800738444831 ], [ -65.27751742499963, -11.111531243859595 ], [ -65.278056414170109, -11.111531243859595 ], [ -65.278056414170109, -11.111261749274361 ], [ -65.278595403340574, -11.111261749274361 ], [ -65.278595403340574, -11.110992254689124 ], [ -65.279403887096279, -11.110992254689124 ], [ -65.279403887096279, -11.110722760103888 ], [ -65.279673381681519, -11.110722760103888 ], [ -65.279673381681519, -11.109375287177709 ], [ -65.279403887096279, -11.109375287177709 ], [ -65.279403887096279, -11.108297308836766 ], [ -65.279134392511054, -11.108297308836766 ], [ -65.279134392511054, -11.10802781425153 ], [ -65.278864897925814, -11.10802781425153 ], [ -65.278864897925814, -11.107758319666294 ], [ -65.278595403340574, -11.107758319666294 ] ], [ [ -65.27590045748822, -11.113148211371012 ], [ -65.27563096290298, -11.113148211371012 ], [ -65.27563096290298, -11.112878716785776 ], [ -65.27590045748822, -11.112878716785776 ], [ -65.27590045748822, -11.113148211371012 ] ] ] } },
{ "type": "Feature", "properties": { "DN": 3 }, "geometry": { "type": "Polygon", "coordinates": [ [ [ -65.155975367058261, -11.091588644552143 ], [ -65.155975367058261, -11.091858139137379 ], [ -65.155436377887796, -11.091858139137379 ], [ -65.155436377887796, -11.091588644552143 ], [ -65.154897388717316, -11.091588644552143 ], [ -65.154897388717316, -11.091858139137379 ], [ -65.155166883302556, -11.091858139137379 ], [ -65.155166883302556, -11.09239712830785 ], [ -65.155705872473021, -11.09239712830785 ], [ -65.155705872473021, -11.092666622893086 ], [ -65.156244861643501, -11.092666622893086 ], [ -65.156244861643501, -11.09239712830785 ], [ -65.15651435622874, -11.09239712830785 ], [ -65.15651435622874, -11.091858139137379 ], [ -65.156244861643501, -11.091858139137379 ], [ -65.156244861643501, -11.091588644552143 ], [ -65.155975367058261, -11.091588644552143 ] ] ] } },
{ "type": "Feature", "properties": { "DN": 3 }, "geometry": { "type": "Polygon", "coordinates": [ [ [ -65.154627894132091, -11.091319149966907 ], [ -65.154627894132091, -11.091588644552143 ], [ -65.154897388717316, -11.091588644552143 ], [ -65.154897388717316, -11.091319149966907 ], [ -65.154627894132091, -11.091319149966907 ] ] ] } },
{ "type": "Feature", "properties": { "DN": 3 }, "geometry": { "type": "Polygon", "coordinates": [ [ [ -65.196938544014117, -11.071915539829925 ], [ -65.196938544014117, -11.072185034415162 ], [ -65.196399554843637, -11.072185034415162 ], [ -65.196399554843637, -11.072993518170868 ], [ -65.196669049428877, -11.072993518170868 ], [ -65.196669049428877, -11.073263012756104 ], [ -65.196938544014117, -11.073263012756104 ], [ -65.196938544014117, -11.073532507341341 ], [ -65.197208038599342, -11.073532507341341 ], [ -65.197208038599342, -11.073802001926577 ], [ -65.197477533184582, -11.073802001926577 ], [ -65.197477533184582, -11.074071496511811 ], [ -65.197747027769822, -11.074071496511811 ], [ -65.197747027769822, -11.074340991097047 ], [ -65.197477533184582, -11.074340991097047 ], [ -65.197477533184582, -11.074610485682284 ], [ -65.197208038599342, -11.074610485682284 ], [ -65.197208038599342, -11.07487998026752 ], [ -65.197477533184582, -11.07487998026752 ], [ -65.197477533184582, -11.075149474852756 ], [ -65.197208038599342, -11.075149474852756 ], [ -65.197208038599342, -11.07541896943799 ], [ -65.197747027769822, -11.07541896943799 ], [ -65.197747027769822, -11.075688464023226 ], [ -65.198825006110766, -11.075688464023226 ], [ -65.198825006110766, -11.07541896943799 ], [ -65.199094500696006, -11.07541896943799 ], [ -65.199094500696006, -11.075149474852756 ], [ -65.199363995281232, -11.075149474852756 ], [ -65.199363995281232, -11.074071496511811 ], [ -65.199094500696006, -11.074071496511811 ], [ -65.199094500696006, -11.073532507341341 ], [ -65.198825006110766, -11.073532507341341 ], [ -65.198825006110766, -11.073263012756104 ], [ -65.198286016940287, -11.073263012756104 ], [ -65.198286016940287, -11.072993518170868 ], [ -65.198016522355061, -11.072993518170868 ], [ -65.198016522355061, -11.072724023585632 ], [ -65.197747027769822, -11.072724023585632 ], [ -65.197747027769822, -11.072185034415162 ], [ -65.197208038599342, -11.072185034415162 ], [ -65.197208038599342, -11.071915539829925 ], [ -65.196938544014117, -11.071915539829925 ] ] ] } },
{ "type": "Feature", "properties": { "DN": 3 }, "geometry": { "type": "Polygon", "coordinates": [ [ [ -65.225235475463876, -11.056554348471481 ], [ -65.225235475463876, -11.056823843056717 ], [ -65.224965980878636, -11.056823843056717 ], [ -65.224965980878636, -11.057093337641954 ], [ -65.224696486293411, -11.057093337641954 ], [ -65.224696486293411, -11.057632326812424 ], [ -65.224426991708171, -11.057632326812424 ], [ -65.224426991708171, -11.05790182139766 ], [ -65.224696486293411, -11.05790182139766 ], [ -65.224696486293411, -11.058171315982896 ], [ -65.224965980878636, -11.058171315982896 ], [ -65.224965980878636, -11.058440810568133 ], [ -65.225504970049116, -11.058440810568133 ], [ -65.225504970049116, -11.058171315982896 ], [ -65.225774464634355, -11.058171315982896 ], [ -65.225774464634355, -11.05790182139766 ], [ -65.226043959219581, -11.05790182139766 ], [ -65.226043959219581, -11.057362832227188 ], [ -65.226313453804821, -11.057362832227188 ], [ -65.226313453804821, -11.056823843056717 ], [ -65.226043959219581, -11.056823843056717 ], [ -65.226043959219581, -11.056554348471481 ], [ -65.225235475463876, -11.056554348471481 ] ] ] } },
{ "type": "Feature", "properties": { "DN": 3 }, "geometry": { "type": "Polygon", "coordinates": [ [ [ -65.286141251727187, -11.043888102965395 ], [ -65.286141251727187, -11.044157597550631 ], [ -65.285871757141948, -11.044157597550631 ], [ -65.285871757141948, -11.044427092135868 ], [ -65.285602262556708, -11.044427092135868 ], [ -65.285602262556708, -11.045505070476811 ], [ -65.285871757141948, -11.045505070476811 ], [ -65.285871757141948, -11.045774565062047 ], [ -65.286410746312413, -11.045774565062047 ], [ -65.286410746312413, -11.045235575891574 ], [ -65.286680240897653, -11.045235575891574 ], [ -65.286680240897653, -11.04496608130634 ], [ -65.286949735482892, -11.04496608130634 ], [ -65.286949735482892, -11.044696586721104 ], [ -65.287219230068132, -11.044696586721104 ], [ -65.287219230068132, -11.044157597550631 ], [ -65.286949735482892, -11.044157597550631 ], [ -65.286949735482892, -11.043888102965395 ], [ -65.286141251727187, -11.043888102965395 ] ] ] } },
{ "type": "Feature", "properties": { "DN": 3 }, "geometry": { "type": "Polygon", "coordinates": [ [ [ -65.178612912218071, -11.042810124624452 ], [ -65.178612912218071, -11.043349113794925 ], [ -65.178882406803311, -11.043349113794925 ], [ -65.178882406803311, -11.042810124624452 ], [ -65.178612912218071, -11.042810124624452 ] ] ] } },
{ "type": "Feature", "properties": { "DN": 3 }, "geometry": { "type": "Polygon", "coordinates": [ [ [ -65.180229879729495, -11.041462651698273 ], [ -65.180229879729495, -11.040923662527801 ], [ -65.180499374314721, -11.040923662527801 ], [ -65.180499374314721, -11.040115178772094 ], [ -65.180229879729495, -11.040115178772094 ], [ -65.180229879729495, -11.039576189601622 ], [ -65.179960385144255, -11.039576189601622 ], [ -65.179960385144255, -11.039845684186858 ], [ -65.179690890559016, -11.039845684186858 ], [ -65.179690890559016, -11.04038467335733 ], [ -65.179421395973776, -11.04038467335733 ], [ -65.179421395973776, -11.040923662527801 ], [ -65.179151901388551, -11.040923662527801 ], [ -65.179151901388551, -11.041193157113037 ], [ -65.179421395973776, -11.041193157113037 ], [ -65.179421395973776, -11.041732146283509 ], [ -65.178882406803311, -11.041732146283509 ], [ -65.178882406803311, -11.04227113545398 ], [ -65.178612912218071, -11.04227113545398 ], [ -65.178612912218071, -11.042540630039216 ], [ -65.178882406803311, -11.042540630039216 ], [ -65.178882406803311, -11.042810124624452 ], [ -65.179151901388551, -11.042810124624452 ], [ -65.179151901388551, -11.042540630039216 ], [ -65.179421395973776, -11.042540630039216 ], [ -65.179421395973776, -11.042001640868746 ], [ -65.179960385144255, -11.042001640868746 ], [ -65.179960385144255, -11.041462651698273 ], [ -65.180229879729495, -11.041462651698273 ] ], [ [ -65.179690890559016, -11.041462651698273 ], [ -65.179690890559016, -11.041193157113037 ], [ -65.179960385144255, -11.041193157113037 ], [ -65.179960385144255, -11.041462651698273 ], [ -65.179690890559016, -11.041462651698273 ] ] ] } },
{ "type": "Feature", "properties": { "DN": 3 }, "geometry": { "type": "Polygon", "coordinates": [ [ [ -65.188853706457039, -11.031221857459311 ], [ -65.188853706457039, -11.031491352044547 ], [ -65.188314717286573, -11.031491352044547 ], [ -65.188314717286573, -11.031760846629783 ], [ -65.187775728116094, -11.031760846629783 ], [ -65.187775728116094, -11.032299835800254 ], [ -65.187236738945629, -11.032299835800254 ], [ -65.187236738945629, -11.03256933038549 ], [ -65.186967244360389, -11.03256933038549 ], [ -65.186967244360389, -11.032838824970726 ], [ -65.187506233530854, -11.032838824970726 ], [ -65.187506233530854, -11.03256933038549 ], [ -65.187775728116094, -11.03256933038549 ], [ -65.187775728116094, -11.032838824970726 ], [ -65.188045222701334, -11.032838824970726 ], [ -65.188045222701334, -11.03256933038549 ], [ -65.188314717286573, -11.03256933038549 ], [ -65.188314717286573, -11.032838824970726 ], [ -65.188584211871799, -11.032838824970726 ], [ -65.188584211871799, -11.03256933038549 ], [ -65.188853706457039, -11.03256933038549 ], [ -65.188853706457039, -11.032838824970726 ], [ -65.189123201042278, -11.032838824970726 ], [ -65.189123201042278, -11.03256933038549 ], [ -65.189662190212744, -11.03256933038549 ], [ -65.189662190212744, -11.032299835800254 ], [ -65.190201179383223, -11.032299835800254 ], [ -65.190201179383223, -11.032030341215018 ], [ -65.189662190212744, -11.032030341215018 ], [ -65.189662190212744, -11.031491352044547 ], [ -65.189123201042278, -11.031491352044547 ], [ -65.189123201042278, -11.031221857459311 ], [ -65.188853706457039, -11.031221857459311 ] ] ] } },
{ "type": "Feature", "properties": { "DN": 3 }, "geometry": { "type": "Polygon", "coordinates": [ [ [ -65.197747027769822, -11.028257417021717 ], [ -65.197747027769822, -11.028526911606953 ], [ -65.196669049428877, -11.028526911606953 ], [ -65.196669049428877, -11.028796406192187 ], [ -65.196399554843637, -11.028796406192187 ], [ -65.196399554843637, -11.029065900777423 ], [ -65.195860565673172, -11.029065900777423 ], [ -65.195860565673172, -11.02933539536266 ], [ -65.195052081917467, -11.02933539536266 ], [ -65.195052081917467, -11.029065900777423 ], [ -65.194782587332227, -11.029065900777423 ], [ -65.194782587332227, -11.029604889947896 ], [ -65.195052081917467, -11.029604889947896 ], [ -65.195052081917467, -11.029874384533132 ], [ -65.196130060258412, -11.029874384533132 ], [ -65.196130060258412, -11.029604889947896 ], [ -65.197747027769822, -11.029604889947896 ], [ -65.197747027769822, -11.030143879118366 ], [ -65.198016522355061, -11.030143879118366 ], [ -65.198016522355061, -11.02933539536266 ], [ -65.197747027769822, -11.02933539536266 ], [ -65.197747027769822, -11.028796406192187 ], [ -65.198016522355061, -11.028796406192187 ], [ -65.198016522355061, -11.028257417021717 ], [ -65.197747027769822, -11.028257417021717 ] ] ] } },
{ "type": "Feature", "properties": { "DN": 3 }, "geometry": { "type": "Polygon", "coordinates": [ [ [ -65.198016522355061, -11.027987922436481 ], [ -65.198016522355061, -11.028257417021717 ], [ -65.198286016940287, -11.028257417021717 ], [ -65.198286016940287, -11.027987922436481 ], [ -65.198016522355061, -11.027987922436481 ] ] ] } },
{ "type": "Feature", "properties": { "DN": 3 }, "geometry": { "type": "Polygon", "coordinates": [ [ [ -65.189662190212744, -11.023676009072707 ], [ -65.189662190212744, -11.023945503657943 ], [ -65.189123201042278, -11.023945503657943 ], [ -65.189123201042278, -11.024214998243178 ], [ -65.188853706457039, -11.024214998243178 ], [ -65.188853706457039, -11.024484492828414 ], [ -65.188584211871799, -11.024484492828414 ], [ -65.188584211871799, -11.02475398741365 ], [ -65.188045222701334, -11.02475398741365 ], [ -65.188045222701334, -11.025292976584122 ], [ -65.187775728116094, -11.025292976584122 ], [ -65.187775728116094, -11.025562471169359 ], [ -65.187506233530854, -11.025562471169359 ], [ -65.187506233530854, -11.026101460339829 ], [ -65.187236738945629, -11.026101460339829 ], [ -65.187236738945629, -11.026370954925065 ], [ -65.187775728116094, -11.026370954925065 ], [ -65.187775728116094, -11.025831965754593 ], [ -65.188314717286573, -11.025831965754593 ], [ -65.188314717286573, -11.025562471169359 ], [ -65.188853706457039, -11.025562471169359 ], [ -65.188853706457039, -11.025292976584122 ], [ -65.189392695627504, -11.025292976584122 ], [ -65.189392695627504, -11.025023481998886 ], [ -65.189662190212744, -11.025023481998886 ], [ -65.189662190212744, -11.02475398741365 ], [ -65.190201179383223, -11.02475398741365 ], [ -65.190201179383223, -11.024214998243178 ], [ -65.190740168553688, -11.024214998243178 ], [ -65.190740168553688, -11.023945503657943 ], [ -65.190470673968449, -11.023945503657943 ], [ -65.190470673968449, -11.023676009072707 ], [ -65.189662190212744, -11.023676009072707 ] ] ] } },
{ "type": "Feature", "properties": { "DN": 3 }, "geometry": { "type": "Polygon", "coordinates": [ [ [ -65.222001540441042, -11.015321676930395 ], [ -65.222001540441042, -11.015591171515631 ], [ -65.222540529611521, -11.015591171515631 ], [ -65.222540529611521, -11.015860666100867 ], [ -65.222271035026282, -11.015860666100867 ], [ -65.222271035026282, -11.016130160686103 ], [ -65.222001540441042, -11.016130160686103 ], [ -65.222001540441042, -11.016399655271339 ], [ -65.222271035026282, -11.016399655271339 ], [ -65.222271035026282, -11.01693864444181 ], [ -65.223079518781987, -11.01693864444181 ], [ -65.223079518781987, -11.016399655271339 ], [ -65.223349013367226, -11.016399655271339 ], [ -65.223349013367226, -11.016130160686103 ], [ -65.223079518781987, -11.016130160686103 ], [ -65.223079518781987, -11.015591171515631 ], [ -65.222810024196761, -11.015591171515631 ], [ -65.222810024196761, -11.015321676930395 ], [ -65.222001540441042, -11.015321676930395 ] ] ] } },
{ "type": "Feature", "properties": { "DN": 3 }, "geometry": { "type": "Polygon", "coordinates": [ [ [ -65.215264175810148, -11.008045323129027 ], [ -65.215264175810148, -11.008314817714263 ], [ -65.214994681224923, -11.008314817714263 ], [ -65.214994681224923, -11.008584312299499 ], [ -65.214725186639683, -11.008584312299499 ], [ -65.214725186639683, -11.008853806884735 ], [ -65.214455692054443, -11.008853806884735 ], [ -65.214455692054443, -11.00912330146997 ], [ -65.213916702883978, -11.00912330146997 ], [ -65.213916702883978, -11.009392796055206 ], [ -65.213647208298738, -11.009392796055206 ], [ -65.213647208298738, -11.009662290640442 ], [ -65.213377713713498, -11.009662290640442 ], [ -65.213377713713498, -11.009931785225678 ], [ -65.213108219128259, -11.009931785225678 ], [ -65.213108219128259, -11.010201279810914 ], [ -65.212838724543033, -11.010201279810914 ], [ -65.212838724543033, -11.010470774396151 ], [ -65.212569229957793, -11.010470774396151 ], [ -65.212569229957793, -11.010740268981385 ], [ -65.212299735372554, -11.010740268981385 ], [ -65.212299735372554, -11.011009763566621 ], [ -65.211760746202089, -11.011009763566621 ], [ -65.211760746202089, -11.011279258151857 ], [ -65.211491251616849, -11.011279258151857 ], [ -65.211491251616849, -11.011548752737093 ], [ -65.211221757031609, -11.011548752737093 ], [ -65.211221757031609, -11.01181824732233 ], [ -65.210413273275904, -11.01181824732233 ], [ -65.210413273275904, -11.0123572364928 ], [ -65.210952262446384, -11.0123572364928 ], [ -65.210952262446384, -11.012626731078036 ], [ -65.210682767861144, -11.012626731078036 ], [ -65.210682767861144, -11.013435214833745 ], [ -65.211491251616849, -11.013435214833745 ], [ -65.211491251616849, -11.013704709418981 ], [ -65.212299735372554, -11.013704709418981 ], [ -65.212299735372554, -11.013435214833745 ], [ -65.212569229957793, -11.013435214833745 ], [ -65.212569229957793, -11.013165720248509 ], [ -65.212299735372554, -11.013165720248509 ], [ -65.212299735372554, -11.012626731078036 ], [ -65.212030240787328, -11.012626731078036 ], [ -65.212030240787328, -11.0123572364928 ], [ -65.212569229957793, -11.0123572364928 ], [ -65.212569229957793, -11.012087741907564 ], [ -65.213108219128259, -11.012087741907564 ], [ -65.213108219128259, -11.01181824732233 ], [ -65.213377713713498, -11.01181824732233 ], [ -65.213377713713498, -11.011548752737093 ], [ -65.214725186639683, -11.011548752737093 ], [ -65.214725186639683, -11.011279258151857 ], [ -65.214994681224923, -11.011279258151857 ], [ -65.214994681224923, -11.010470774396151 ], [ -65.214725186639683, -11.010470774396151 ], [ -65.214725186639683, -11.010201279810914 ], [ -65.214994681224923, -11.010201279810914 ], [ -65.214994681224923, -11.009662290640442 ], [ -65.216072659565853, -11.009662290640442 ], [ -65.216072659565853, -11.008314817714263 ], [ -65.215533670395388, -11.008314817714263 ], [ -65.215533670395388, -11.008045323129027 ], [ -65.215264175810148, -11.008045323129027 ] ] ] } },
{ "type": "Feature", "properties": { "DN": 3 }, "geometry": { "type": "Polygon", "coordinates": [ [ [ -65.216342154151093, -11.007506333958556 ], [ -65.216342154151093, -11.007775828543791 ], [ -65.216072659565853, -11.007775828543791 ], [ -65.216072659565853, -11.008314817714263 ], [ -65.216611648736333, -11.008314817714263 ], [ -65.216611648736333, -11.008584312299499 ], [ -65.216881143321572, -11.008584312299499 ], [ -65.216881143321572, -11.007506333958556 ], [ -65.216342154151093, -11.007506333958556 ] ] ] } },
{ "type": "Feature", "properties": { "DN": 3 }, "geometry": { "type": "Polygon", "coordinates": [ [ [ -65.238440710140438, -10.998882507231007 ], [ -65.238440710140438, -10.999152001816244 ], [ -65.237901720969958, -10.999152001816244 ], [ -65.237901720969958, -10.99942149640148 ], [ -65.237632226384733, -10.99942149640148 ], [ -65.237632226384733, -10.999960485571952 ], [ -65.237901720969958, -10.999960485571952 ], [ -65.237901720969958, -11.001038463912895 ], [ -65.237362731799493, -11.001038463912895 ], [ -65.237362731799493, -11.001307958498131 ], [ -65.236554248043788, -11.001307958498131 ], [ -65.236554248043788, -11.001577453083367 ], [ -65.237093237214253, -11.001577453083367 ], [ -65.237093237214253, -11.001846947668602 ], [ -65.237632226384733, -11.001846947668602 ], [ -65.237632226384733, -11.002116442253838 ], [ -65.238171215555198, -11.002116442253838 ], [ -65.238171215555198, -11.00265543142431 ], [ -65.238710204725677, -11.00265543142431 ], [ -65.238710204725677, -11.002924926009547 ], [ -65.238979699310903, -11.002924926009547 ], [ -65.238979699310903, -11.003194420594781 ], [ -65.239249193896143, -11.003194420594781 ], [ -65.239249193896143, -11.004541893520962 ], [ -65.238979699310903, -11.004541893520962 ], [ -65.238979699310903, -11.004811388106196 ], [ -65.238710204725677, -11.004811388106196 ], [ -65.238710204725677, -11.005080882691432 ], [ -65.238440710140438, -11.005080882691432 ], [ -65.238440710140438, -11.005889366447141 ], [ -65.238710204725677, -11.005889366447141 ], [ -65.238710204725677, -11.005619871861905 ], [ -65.241405150578032, -11.005619871861905 ], [ -65.241405150578032, -11.005350377276669 ], [ -65.241944139748497, -11.005350377276669 ], [ -65.241944139748497, -11.005080882691432 ], [ -65.242213634333737, -11.005080882691432 ], [ -65.242213634333737, -11.003733409765253 ], [ -65.241674645163272, -11.003733409765253 ], [ -65.241674645163272, -11.003463915180017 ], [ -65.240866161407553, -11.003463915180017 ], [ -65.240866161407553, -11.002924926009547 ], [ -65.240596666822327, -11.002924926009547 ], [ -65.240596666822327, -11.002385936839074 ], [ -65.239249193896143, -11.002385936839074 ], [ -65.239249193896143, -11.002116442253838 ], [ -65.239518688481382, -11.002116442253838 ], [ -65.239518688481382, -11.001846947668602 ], [ -65.239249193896143, -11.001846947668602 ], [ -65.239249193896143, -11.001577453083367 ], [ -65.239518688481382, -11.001577453083367 ], [ -65.239518688481382, -11.001307958498131 ], [ -65.239788183066608, -11.001307958498131 ], [ -65.239788183066608, -11.001038463912895 ], [ -65.239518688481382, -11.001038463912895 ], [ -65.239518688481382, -11.000768969327659 ], [ -65.240327172237087, -11.000768969327659 ], [ -65.240327172237087, -11.000229980157187 ], [ -65.239788183066608, -11.000229980157187 ], [ -65.239788183066608, -10.999690990986716 ], [ -65.239249193896143, -10.999690990986716 ], [ -65.239249193896143, -10.999152001816244 ], [ -65.238710204725677, -10.999152001816244 ], [ -65.238710204725677, -10.998882507231007 ], [ -65.238440710140438, -10.998882507231007 ] ] ] } },
{ "type": "Feature", "properties": { "DN": 3 }, "geometry": { "type": "Polygon", "coordinates": [ [ [ -65.222810024196761, -10.992684131770583 ], [ -65.222810024196761, -10.992953626355819 ], [ -65.223079518781987, -10.992953626355819 ], [ -65.223079518781987, -10.992684131770583 ], [ -65.222810024196761, -10.992684131770583 ] ] ] } },
{ "type": "Feature", "properties": { "DN": 3 }, "geometry": { "type": "Polygon", "coordinates": [ [ [ -65.224696486293411, -10.990528175088697 ], [ -65.224696486293411, -10.990797669673933 ], [ -65.224426991708171, -10.990797669673933 ], [ -65.224426991708171, -10.991067164259167 ], [ -65.224157497122931, -10.991067164259167 ], [ -65.224157497122931, -10.991336658844403 ], [ -65.223888002537706, -10.991336658844403 ], [ -65.223888002537706, -10.99160615342964 ], [ -65.223618507952466, -10.99160615342964 ], [ -65.223618507952466, -10.991875648014876 ], [ -65.223349013367226, -10.991875648014876 ], [ -65.223349013367226, -10.992414637185348 ], [ -65.223079518781987, -10.992414637185348 ], [ -65.223079518781987, -10.992684131770583 ], [ -65.223349013367226, -10.992684131770583 ], [ -65.223349013367226, -10.992953626355819 ], [ -65.223079518781987, -10.992953626355819 ], [ -65.223079518781987, -10.993223120941055 ], [ -65.223349013367226, -10.993223120941055 ], [ -65.223349013367226, -10.993492615526291 ], [ -65.223618507952466, -10.993492615526291 ], [ -65.223618507952466, -10.992953626355819 ], [ -65.223888002537706, -10.992953626355819 ], [ -65.223888002537706, -10.992684131770583 ], [ -65.224157497122931, -10.992684131770583 ], [ -65.224157497122931, -10.992414637185348 ], [ -65.224426991708171, -10.992414637185348 ], [ -65.224426991708171, -10.991875648014876 ], [ -65.224696486293411, -10.991875648014876 ], [ -65.224696486293411, -10.991336658844403 ], [ -65.225235475463876, -10.991336658844403 ], [ -65.225235475463876, -10.990797669673933 ], [ -65.225504970049116, -10.990797669673933 ], [ -65.225504970049116, -10.990528175088697 ], [ -65.224696486293411, -10.990528175088697 ] ] ] } }
]
}
