{
"type": "FeatureCollection",
"name": "rio_negro_ocaia",
"crs": { "type": "name", "properties": { "name": "urn:ogc:def:crs:OGC:1.3:CRS84" } },
"features": [
{ "type": "Feature", "properties": { "DN": 3 }, "geometry": { "type": "Polygon", "coordinates": [ [ [ -64.515656232537864, -11.237115720579505 ], [ -64.515656232537864, -11.238463193505684 ], [ -64.515925727123104, -11.238463193505684 ], [ -64.515925727123104, -11.23873268809092 ], [ -64.516464716293569, -11.23873268809092 ], [ -64.516464716293569, -11.239002182676156 ], [ -64.516734210878809, -11.239002182676156 ], [ -64.516734210878809, -11.238463193505684 ], [ -64.517003705464049, -11.238463193505684 ], [ -64.517003705464049, -11.238193698920448 ], [ -64.516734210878809, -11.238193698920448 ], [ -64.516734210878809, -11.237654709749977 ], [ -64.516464716293569, -11.237654709749977 ], [ -64.516464716293569, -11.237385215164741 ], [ -64.516195221708344, -11.237385215164741 ], [ -64.516195221708344, -11.237115720579505 ], [ -64.515656232537864, -11.237115720579505 ] ] ] } },
{ "type": "Feature", "properties": { "DN": 3 }, "geometry": { "type": "Polygon", "coordinates": [ [ [ -64.374980059044745, -11.212322218737807 ], [ -64.374980059044745, -11.212861207908277 ], [ -64.375249553629985, -11.212861207908277 ], [ -64.375249553629985, -11.21340019707875 ], [ -64.375519048215224, -11.21340019707875 ], [ -64.375519048215224, -11.213669691663986 ], [ -64.37605803738569, -11.213669691663986 ], [ -64.37605803738569, -11.21393918624922 ], [ -64.376327531970929, -11.21393918624922 ], [ -64.376327531970929, -11.21340019707875 ], [ -64.376597026556169, -11.21340019707875 ], [ -64.376597026556169, -11.213130702493514 ], [ -64.376327531970929, -11.213130702493514 ], [ -64.376327531970929, -11.212861207908277 ], [ -64.375788542800464, -11.212861207908277 ], [ -64.375788542800464, -11.212591713323043 ], [ -64.375519048215224, -11.212591713323043 ], [ -64.375519048215224, -11.212322218737807 ], [ -64.374980059044745, -11.212322218737807 ] ] ] } },
{ "type": "Feature", "properties": { "DN": 3 }, "geometry": { "type": "Polygon", "coordinates": [ [ [ -64.320272658241876, -11.192379619430353 ], [ -64.320272658241876, -11.192918608600824 ], [ -64.320003163656637, -11.192918608600824 ], [ -64.320003163656637, -11.193457597771296 ], [ -64.319733669071397, -11.193457597771296 ], [ -64.319733669071397, -11.193727092356532 ], [ -64.319464174486171, -11.193727092356532 ], [ -64.319464174486171, -11.193996586941768 ], [ -64.319194679900932, -11.193996586941768 ], [ -64.319194679900932, -11.194805070697475 ], [ -64.319464174486171, -11.194805070697475 ], [ -64.319464174486171, -11.195074565282711 ], [ -64.319733669071397, -11.195074565282711 ], [ -64.319733669071397, -11.195344059867947 ], [ -64.320272658241876, -11.195344059867947 ], [ -64.320272658241876, -11.195613554453184 ], [ -64.320811647412341, -11.195613554453184 ], [ -64.320811647412341, -11.195883049038418 ], [ -64.321889625753286, -11.195883049038418 ], [ -64.321889625753286, -11.195613554453184 ], [ -64.322159120338526, -11.195613554453184 ], [ -64.322159120338526, -11.195344059867947 ], [ -64.322428614923766, -11.195344059867947 ], [ -64.322428614923766, -11.194805070697475 ], [ -64.322698109508991, -11.194805070697475 ], [ -64.322698109508991, -11.194535576112241 ], [ -64.322428614923766, -11.194535576112241 ], [ -64.322428614923766, -11.193727092356532 ], [ -64.322159120338526, -11.193727092356532 ], [ -64.322159120338526, -11.193457597771296 ], [ -64.321350636582821, -11.193457597771296 ], [ -64.321350636582821, -11.19318810318606 ], [ -64.321081141997581, -11.19318810318606 ], [ -64.321081141997581, -11.192379619430353 ], [ -64.320272658241876, -11.192379619430353 ] ], [ [ -64.321889625753286, -11.194535576112241 ], [ -64.322159120338526, -11.194535576112241 ], [ -64.322159120338526, -11.194805070697475 ], [ -64.321620131168046, -11.194805070697475 ], [ -64.321620131168046, -11.194266081527005 ], [ -64.321889625753286, -11.194266081527005 ], [ -64.321889625753286, -11.194535576112241 ] ] ] } },
{ "type": "Feature", "properties": { "DN": 3 }, "geometry": { "type": "Polygon", "coordinates": [ [ [ -64.307336918150554, -11.191032146504174 ], [ -64.307336918150554, -11.190493157333702 ], [ -64.307067423565314, -11.190493157333702 ], [ -64.307067423565314, -11.190223662748465 ], [ -64.306258939809609, -11.190223662748465 ], [ -64.306258939809609, -11.190493157333702 ], [ -64.30598944522437, -11.190493157333702 ], [ -64.30598944522437, -11.190223662748465 ], [ -64.30571995063913, -11.190223662748465 ], [ -64.30571995063913, -11.190493157333702 ], [ -64.305450456053904, -11.190493157333702 ], [ -64.305450456053904, -11.189954168163229 ], [ -64.304911466883425, -11.189954168163229 ], [ -64.304911466883425, -11.189684673577995 ], [ -64.30410298312772, -11.189684673577995 ], [ -64.30410298312772, -11.189954168163229 ], [ -64.303563993957255, -11.189954168163229 ], [ -64.303563993957255, -11.190223662748465 ], [ -64.303294499372015, -11.190223662748465 ], [ -64.303294499372015, -11.190493157333702 ], [ -64.303025004786775, -11.190493157333702 ], [ -64.303025004786775, -11.19130164108941 ], [ -64.303294499372015, -11.19130164108941 ], [ -64.303294499372015, -11.191840630259881 ], [ -64.303563993957255, -11.191840630259881 ], [ -64.303563993957255, -11.192379619430353 ], [ -64.30383348854248, -11.192379619430353 ], [ -64.30383348854248, -11.192918608600824 ], [ -64.30410298312772, -11.192918608600824 ], [ -64.30410298312772, -11.19318810318606 ], [ -64.304911466883425, -11.19318810318606 ], [ -64.304911466883425, -11.192918608600824 ], [ -64.305450456053904, -11.192918608600824 ], [ -64.305450456053904, -11.192649114015589 ], [ -64.30598944522437, -11.192649114015589 ], [ -64.30598944522437, -11.192379619430353 ], [ -64.306528434394849, -11.192379619430353 ], [ -64.306528434394849, -11.192110124845117 ], [ -64.307067423565314, -11.192110124845117 ], [ -64.307067423565314, -11.191571135674646 ], [ -64.307336918150554, -11.191571135674646 ], [ -64.307336918150554, -11.19130164108941 ], [ -64.307534055162463, -11.19130164108941 ], [ -64.307536303737436, -11.191075807947755 ], [ -64.307522575688665, -11.191032146504174 ], [ -64.307336918150554, -11.191032146504174 ] ] ] } },
{ "type": "Feature", "properties": { "DN": 3 }, "geometry": { "type": "Polygon", "coordinates": [ [ [ -64.638276268820178, -11.231725828874788 ], [ -64.638276268820178, -11.232264818045259 ], [ -64.638006774234952, -11.232264818045259 ], [ -64.638006774234952, -11.23361229097144 ], [ -64.637737279649713, -11.23361229097144 ], [ -64.637737279649713, -11.234690269312383 ], [ -64.638006774234952, -11.234690269312383 ], [ -64.638006774234952, -11.235229258482853 ], [ -64.638815257990657, -11.235229258482853 ], [ -64.638815257990657, -11.234959763897619 ], [ -64.639084752575897, -11.234959763897619 ], [ -64.639084752575897, -11.233073301800967 ], [ -64.639354247161123, -11.233073301800967 ], [ -64.639354247161123, -11.232534312630495 ], [ -64.639623741746362, -11.232534312630495 ], [ -64.639623741746362, -11.232264818045259 ], [ -64.639354247161123, -11.232264818045259 ], [ -64.639354247161123, -11.231995323460023 ], [ -64.639084752575897, -11.231995323460023 ], [ -64.639084752575897, -11.231725828874788 ], [ -64.638276268820178, -11.231725828874788 ] ] ] } },
{ "type": "Feature", "properties": { "DN": 3 }, "geometry": { "type": "Polygon", "coordinates": [ [ [ -64.658488362712873, -11.228491893851958 ], [ -64.658488362712873, -11.228761388437194 ], [ -64.657949373542394, -11.228761388437194 ], [ -64.657949373542394, -11.229030883022428 ], [ -64.657679878957168, -11.229030883022428 ], [ -64.657679878957168, -11.229839366778137 ], [ -64.657949373542394, -11.229839366778137 ], [ -64.657949373542394, -11.230108861363373 ], [ -64.658218868127634, -11.230108861363373 ], [ -64.658218868127634, -11.230378355948609 ], [ -64.659027351883338, -11.230378355948609 ], [ -64.659027351883338, -11.230108861363373 ], [ -64.659296846468578, -11.230108861363373 ], [ -64.659296846468578, -11.229569872192901 ], [ -64.659566341053818, -11.229569872192901 ], [ -64.659566341053818, -11.229300377607665 ], [ -64.659027351883338, -11.229300377607665 ], [ -64.659027351883338, -11.228761388437194 ], [ -64.658757857298113, -11.228761388437194 ], [ -64.658757857298113, -11.228491893851958 ], [ -64.658488362712873, -11.228491893851958 ] ] ] } },
{ "type": "Feature", "properties": { "DN": 3 }, "geometry": { "type": "Polygon", "coordinates": [ [ [ -64.915047207857413, -11.201811929913607 ], [ -64.915047207857413, -11.202081424498843 ], [ -64.915316702442638, -11.202081424498843 ], [ -64.915316702442638, -11.201811929913607 ], [ -64.915047207857413, -11.201811929913607 ] ] ] } },
{ "type": "Feature", "properties": { "DN": 3 }, "geometry": { "type": "Polygon", "coordinates": [ [ [ -64.914777713272173, -11.201542435328372 ], [ -64.914777713272173, -11.201811929913607 ], [ -64.915047207857413, -11.201811929913607 ], [ -64.915047207857413, -11.201542435328372 ], [ -64.914777713272173, -11.201542435328372 ] ] ] } },
{ "type": "Feature", "properties": { "DN": 3 }, "geometry": { "type": "Polygon", "coordinates": [ [ [ -64.915855691613118, -11.198847489476012 ], [ -64.915855691613118, -11.199116984061249 ], [ -64.915586197027878, -11.199116984061249 ], [ -64.915586197027878, -11.198847489476012 ], [ -64.915316702442638, -11.198847489476012 ], [ -64.915316702442638, -11.199116984061249 ], [ -64.914508218686933, -11.199116984061249 ], [ -64.914508218686933, -11.199386478646485 ], [ -64.914238724101693, -11.199386478646485 ], [ -64.914238724101693, -11.199655973231721 ], [ -64.913969229516468, -11.199655973231721 ], [ -64.913969229516468, -11.199925467816957 ], [ -64.914238724101693, -11.199925467816957 ], [ -64.914238724101693, -11.200194962402193 ], [ -64.913969229516468, -11.200194962402193 ], [ -64.913969229516468, -11.200733951572664 ], [ -64.914508218686933, -11.200733951572664 ], [ -64.914508218686933, -11.2010034461579 ], [ -64.914777713272173, -11.2010034461579 ], [ -64.914777713272173, -11.201272940743136 ], [ -64.915047207857413, -11.201272940743136 ], [ -64.915047207857413, -11.201542435328372 ], [ -64.915586197027878, -11.201542435328372 ], [ -64.915586197027878, -11.2010034461579 ], [ -64.915855691613118, -11.2010034461579 ], [ -64.915855691613118, -11.200733951572664 ], [ -64.916664175368822, -11.200733951572664 ], [ -64.916664175368822, -11.2010034461579 ], [ -64.916933669954062, -11.2010034461579 ], [ -64.916933669954062, -11.200733951572664 ], [ -64.917203164539288, -11.200733951572664 ], [ -64.917203164539288, -11.200464456987429 ], [ -64.917472659124527, -11.200464456987429 ], [ -64.917472659124527, -11.199386478646485 ], [ -64.916933669954062, -11.199386478646485 ], [ -64.916933669954062, -11.199116984061249 ], [ -64.916125186198357, -11.199116984061249 ], [ -64.916125186198357, -11.198847489476012 ], [ -64.915855691613118, -11.198847489476012 ] ] ] } },
{ "type": "Feature", "properties": { "DN": 3 }, "geometry": { "type": "Polygon", "coordinates": [ [ [ -64.910465799908394, -11.197500016549835 ], [ -64.910465799908394, -11.197769511135069 ], [ -64.910196305323169, -11.197769511135069 ], [ -64.910196305323169, -11.198308500305542 ], [ -64.909657316152689, -11.198308500305542 ], [ -64.909657316152689, -11.198577994890778 ], [ -64.910196305323169, -11.198577994890778 ], [ -64.910196305323169, -11.198847489476012 ], [ -64.910465799908394, -11.198847489476012 ], [ -64.910465799908394, -11.199116984061249 ], [ -64.911004789078874, -11.199116984061249 ], [ -64.911004789078874, -11.199386478646485 ], [ -64.911274283664099, -11.199386478646485 ], [ -64.911274283664099, -11.199655973231721 ], [ -64.911543778249339, -11.199655973231721 ], [ -64.911543778249339, -11.199925467816957 ], [ -64.911813272834578, -11.199925467816957 ], [ -64.911813272834578, -11.200194962402193 ], [ -64.912082767419818, -11.200194962402193 ], [ -64.912082767419818, -11.200464456987429 ], [ -64.912352262005044, -11.200464456987429 ], [ -64.912352262005044, -11.200194962402193 ], [ -64.912621756590283, -11.200194962402193 ], [ -64.912621756590283, -11.199655973231721 ], [ -64.912082767419818, -11.199655973231721 ], [ -64.912082767419818, -11.199116984061249 ], [ -64.911813272834578, -11.199116984061249 ], [ -64.911813272834578, -11.198847489476012 ], [ -64.911543778249339, -11.198847489476012 ], [ -64.911543778249339, -11.198308500305542 ], [ -64.911274283664099, -11.198308500305542 ], [ -64.911274283664099, -11.197769511135069 ], [ -64.911004789078874, -11.197769511135069 ], [ -64.911004789078874, -11.197500016549835 ], [ -64.910465799908394, -11.197500016549835 ] ] ] } },
{ "type": "Feature", "properties": { "DN": 3 }, "geometry": { "type": "Polygon", "coordinates": [ [ [ -64.894296124794252, -11.193996586941768 ], [ -64.894296124794252, -11.194266081527005 ], [ -64.894565619379478, -11.194266081527005 ], [ -64.894565619379478, -11.193996586941768 ], [ -64.894296124794252, -11.193996586941768 ] ] ] } },
{ "type": "Feature", "properties": { "DN": 3 }, "geometry": { "type": "Polygon", "coordinates": [ [ [ -64.895643597720422, -11.19130164108941 ], [ -64.895643597720422, -11.191571135674646 ], [ -64.895374103135197, -11.191571135674646 ], [ -64.895374103135197, -11.19130164108941 ], [ -64.895104608549957, -11.19130164108941 ], [ -64.895104608549957, -11.191840630259881 ], [ -64.894835113964717, -11.191840630259881 ], [ -64.894835113964717, -11.192110124845117 ], [ -64.894565619379478, -11.192110124845117 ], [ -64.894565619379478, -11.192379619430353 ], [ -64.894296124794252, -11.192379619430353 ], [ -64.894296124794252, -11.193457597771296 ], [ -64.894565619379478, -11.193457597771296 ], [ -64.894565619379478, -11.193996586941768 ], [ -64.894835113964717, -11.193996586941768 ], [ -64.894835113964717, -11.194266081527005 ], [ -64.895374103135197, -11.194266081527005 ], [ -64.895374103135197, -11.194535576112241 ], [ -64.895643597720422, -11.194535576112241 ], [ -64.895643597720422, -11.194266081527005 ], [ -64.895913092305662, -11.194266081527005 ], [ -64.895913092305662, -11.193996586941768 ], [ -64.896182586890902, -11.193996586941768 ], [ -64.896182586890902, -11.193727092356532 ], [ -64.896721576061367, -11.193727092356532 ], [ -64.896721576061367, -11.193457597771296 ], [ -64.896991070646607, -11.193457597771296 ], [ -64.896991070646607, -11.192918608600824 ], [ -64.897260565231846, -11.192918608600824 ], [ -64.897260565231846, -11.192379619430353 ], [ -64.896991070646607, -11.192379619430353 ], [ -64.896991070646607, -11.191840630259881 ], [ -64.896452081476127, -11.191840630259881 ], [ -64.896452081476127, -11.191571135674646 ], [ -64.895913092305662, -11.191571135674646 ], [ -64.895913092305662, -11.19130164108941 ], [ -64.895643597720422, -11.19130164108941 ] ] ] } },
{ "type": "Feature", "properties": { "DN": 3 }, "geometry": { "type": "Polygon", "coordinates": [ [ [ -64.889175727674768, -11.19130164108941 ], [ -64.889175727674768, -11.191571135674646 ], [ -64.889445222260008, -11.191571135674646 ], [ -64.889445222260008, -11.191840630259881 ], [ -64.890253706015713, -11.191840630259881 ], [ -64.890253706015713, -11.192110124845117 ], [ -64.890523200600938, -11.192110124845117 ], [ -64.890523200600938, -11.192379619430353 ], [ -64.890792695186178, -11.192379619430353 ], [ -64.890792695186178, -11.192649114015589 ], [ -64.891062189771418, -11.192649114015589 ], [ -64.891062189771418, -11.192918608600824 ], [ -64.891601178941883, -11.192918608600824 ], [ -64.891601178941883, -11.192110124845117 ], [ -64.891062189771418, -11.192110124845117 ], [ -64.891062189771418, -11.191571135674646 ], [ -64.890792695186178, -11.191571135674646 ], [ -64.890792695186178, -11.191032146504174 ], [ -64.889714716845234, -11.191032146504174 ], [ -64.889714716845234, -11.190762651918938 ], [ -64.889445222260008, -11.190762651918938 ], [ -64.889445222260008, -11.190493157333702 ], [ -64.889175727674768, -11.190493157333702 ], [ -64.889175727674768, -11.189684673577995 ], [ -64.889714716845234, -11.189684673577995 ], [ -64.889714716845234, -11.189145684407523 ], [ -64.890253706015713, -11.189145684407523 ], [ -64.890253706015713, -11.188876189822286 ], [ -64.889984211430473, -11.188876189822286 ], [ -64.889984211430473, -11.188606695237052 ], [ -64.890253706015713, -11.188606695237052 ], [ -64.890253706015713, -11.186989727725635 ], [ -64.889714716845234, -11.186989727725635 ], [ -64.889714716845234, -11.187259222310871 ], [ -64.889984211430473, -11.187259222310871 ], [ -64.889984211430473, -11.187528716896107 ], [ -64.889714716845234, -11.187528716896107 ], [ -64.889714716845234, -11.18806770606658 ], [ -64.889445222260008, -11.18806770606658 ], [ -64.889445222260008, -11.188337200651816 ], [ -64.889714716845234, -11.188337200651816 ], [ -64.889714716845234, -11.188876189822286 ], [ -64.888906233089529, -11.188876189822286 ], [ -64.888906233089529, -11.189145684407523 ], [ -64.887289265578119, -11.189145684407523 ], [ -64.887289265578119, -11.189415178992759 ], [ -64.887019770992879, -11.189415178992759 ], [ -64.887019770992879, -11.189954168163229 ], [ -64.887558760163344, -11.189954168163229 ], [ -64.887558760163344, -11.190493157333702 ], [ -64.888097749333824, -11.190493157333702 ], [ -64.888097749333824, -11.190762651918938 ], [ -64.888367243919063, -11.190762651918938 ], [ -64.888367243919063, -11.191032146504174 ], [ -64.888636738504289, -11.191032146504174 ], [ -64.888636738504289, -11.191257577163691 ], [ -64.888698984360843, -11.19130164108941 ], [ -64.889175727674768, -11.19130164108941 ] ] ] } },
{ "type": "Feature", "properties": { "DN": 3 }, "geometry": { "type": "Polygon", "coordinates": [ [ [ -64.886750276407639, -11.189145684407523 ], [ -64.886750276407639, -11.189415178992759 ], [ -64.887019770992879, -11.189415178992759 ], [ -64.887019770992879, -11.189145684407523 ], [ -64.886750276407639, -11.189145684407523 ] ] ] } },
{ "type": "Feature", "properties": { "DN": 3 }, "geometry": { "type": "Polygon", "coordinates": [ [ [ -64.833120853945701, -11.182408319776627 ], [ -64.833120853945701, -11.184294781873277 ], [ -64.834198832286646, -11.184294781873277 ], [ -64.834198832286646, -11.184025287288041 ], [ -64.83392933770142, -11.184025287288041 ], [ -64.83392933770142, -11.18348629811757 ], [ -64.834198832286646, -11.18348629811757 ], [ -64.834198832286646, -11.183216803532334 ], [ -64.83392933770142, -11.183216803532334 ], [ -64.83392933770142, -11.182677814361861 ], [ -64.83365984311618, -11.182677814361861 ], [ -64.83365984311618, -11.182408319776627 ], [ -64.833120853945701, -11.182408319776627 ] ] ] } },
{ "type": "Feature", "properties": { "DN": 3 }, "geometry": { "type": "Polygon", "coordinates": [ [ [ -64.820454608439618, -11.182138825191391 ], [ -64.820454608439618, -11.182408319776627 ], [ -64.820724103024858, -11.182408319776627 ], [ -64.820724103024858, -11.182138825191391 ], [ -64.820454608439618, -11.182138825191391 ] ] ] } },
{ "type": "Feature", "properties": { "DN": 3 }, "geometry": { "type": "Polygon", "coordinates": [ [ [ -64.820185113854393, -11.181599836020919 ], [ -64.820185113854393, -11.182138825191391 ], [ -64.820454608439618, -11.182138825191391 ], [ -64.820454608439618, -11.181599836020919 ], [ -64.820185113854393, -11.181599836020919 ] ] ] } },
{ "type": "Feature", "properties": { "DN": 3 }, "geometry": { "type": "Polygon", "coordinates": [ [ [ -64.819915619269153, -11.181060846850446 ], [ -64.819915619269153, -11.181599836020919 ], [ -64.820185113854393, -11.181599836020919 ], [ -64.820185113854393, -11.181060846850446 ], [ -64.819915619269153, -11.181060846850446 ] ] ] } },
{ "type": "Feature", "properties": { "DN": 3 }, "geometry": { "type": "Polygon", "coordinates": [ [ [ -65.015299193565141, -11.141445142820777 ], [ -65.015299193565141, -11.140906153650304 ], [ -65.015029698979916, -11.140906153650304 ], [ -65.015029698979916, -11.141445142820777 ], [ -65.014760204394676, -11.141445142820777 ], [ -65.014760204394676, -11.141714637406011 ], [ -65.015029698979916, -11.141714637406011 ], [ -65.015029698979916, -11.141984131991247 ], [ -65.014760204394676, -11.141984131991247 ], [ -65.014760204394676, -11.14252312116172 ], [ -65.015029698979916, -11.14252312116172 ], [ -65.015029698979916, -11.142792615746956 ], [ -65.015299193565141, -11.142792615746956 ], [ -65.015299193565141, -11.14252312116172 ], [ -65.015568688150381, -11.14252312116172 ], [ -65.015568688150381, -11.142253626576483 ], [ -65.015838182735621, -11.142253626576483 ], [ -65.015838182735621, -11.142121424562738 ], [ -65.015811711327615, -11.142105647261531 ], [ -65.015686119411527, -11.141984131991247 ], [ -65.015568688150381, -11.141984131991247 ], [ -65.015568688150381, -11.141870512485456 ], [ -65.015554902908377, -11.141857174704967 ], [ -65.015393994427541, -11.141480820728532 ], [ -65.015391008272303, -11.141445142820777 ], [ -65.015299193565141, -11.141445142820777 ] ] ] } },
{ "type": "Feature", "properties": { "DN": 3 }, "geometry": { "type": "Polygon", "coordinates": [ [ [ -65.026887460730293, -11.127431424388512 ], [ -65.026887460730293, -11.127700918973748 ], [ -65.027156955315519, -11.127700918973748 ], [ -65.027156955315519, -11.127431424388512 ], [ -65.026887460730293, -11.127431424388512 ] ] ] } },
{ "type": "Feature", "properties": { "DN": 3 }, "geometry": { "type": "Polygon", "coordinates": [ [ [ -65.027426449900759, -11.126622940632803 ], [ -65.027426449900759, -11.126892435218039 ], [ -65.026887460730293, -11.126892435218039 ], [ -65.026887460730293, -11.127161929803275 ], [ -65.027156955315519, -11.127161929803275 ], [ -65.027156955315519, -11.127431424388512 ], [ -65.027426449900759, -11.127431424388512 ], [ -65.027426449900759, -11.127161929803275 ], [ -65.027695944485998, -11.127161929803275 ], [ -65.027695944485998, -11.126622940632803 ], [ -65.027426449900759, -11.126622940632803 ] ] ] } },
{ "type": "Feature", "properties": { "DN": 3 }, "geometry": { "type": "Polygon", "coordinates": [ [ [ -65.027426449900759, -11.123927994780445 ], [ -65.027426449900759, -11.124197489365681 ], [ -65.026617966145054, -11.124197489365681 ], [ -65.026617966145054, -11.124466983950917 ], [ -65.026078976974574, -11.124466983950917 ], [ -65.026078976974574, -11.124736478536153 ], [ -65.025270493218869, -11.124736478536153 ], [ -65.025270493218869, -11.12500597312139 ], [ -65.024731504048404, -11.12500597312139 ], [ -65.024731504048404, -11.125814456877096 ], [ -65.024192514877925, -11.125814456877096 ], [ -65.024192514877925, -11.126353446047569 ], [ -65.023923020292699, -11.126353446047569 ], [ -65.023923020292699, -11.126622940632803 ], [ -65.023653525707459, -11.126622940632803 ], [ -65.023653525707459, -11.127161929803275 ], [ -65.02338403112222, -11.127161929803275 ], [ -65.02338403112222, -11.127431424388512 ], [ -65.023923020292699, -11.127431424388512 ], [ -65.023923020292699, -11.127700918973748 ], [ -65.024192514877925, -11.127700918973748 ], [ -65.024192514877925, -11.127431424388512 ], [ -65.024731504048404, -11.127431424388512 ], [ -65.024731504048404, -11.127161929803275 ], [ -65.025000998633644, -11.127161929803275 ], [ -65.025000998633644, -11.126892435218039 ], [ -65.025270493218869, -11.126892435218039 ], [ -65.025270493218869, -11.126622940632803 ], [ -65.025539987804109, -11.126622940632803 ], [ -65.025539987804109, -11.126083951462332 ], [ -65.025809482389349, -11.126083951462332 ], [ -65.025809482389349, -11.125814456877096 ], [ -65.026348471559814, -11.125814456877096 ], [ -65.026348471559814, -11.126083951462332 ], [ -65.026617966145054, -11.126083951462332 ], [ -65.026617966145054, -11.126353446047569 ], [ -65.027156955315519, -11.126353446047569 ], [ -65.027156955315519, -11.126622940632803 ], [ -65.027426449900759, -11.126622940632803 ], [ -65.027426449900759, -11.126083951462332 ], [ -65.027965439071238, -11.126083951462332 ], [ -65.027965439071238, -11.125814456877096 ], [ -65.027695944485998, -11.125814456877096 ], [ -65.027695944485998, -11.12554496229186 ], [ -65.027965439071238, -11.12554496229186 ], [ -65.027965439071238, -11.124466983950917 ], [ -65.027695944485998, -11.124466983950917 ], [ -65.027695944485998, -11.123927994780445 ], [ -65.027426449900759, -11.123927994780445 ] ] ] } },
{ "type": "Feature", "properties": { "DN": 3 }, "geometry": { "type": "Polygon", "coordinates": [ [ [ -64.819107135513448, -11.179443879339033 ], [ -64.819107135513448, -11.179713373924267 ], [ -64.819376630098674, -11.179713373924267 ], [ -64.819376630098674, -11.180252363094739 ], [ -64.819646124683914, -11.180252363094739 ], [ -64.819646124683914, -11.181060846850446 ], [ -64.819915619269153, -11.181060846850446 ], [ -64.819915619269153, -11.179713373924267 ], [ -64.819646124683914, -11.179713373924267 ], [ -64.819646124683914, -11.179443879339033 ], [ -64.819107135513448, -11.179443879339033 ] ] ] } },
{ "type": "Feature", "properties": { "DN": 3 }, "geometry": { "type": "Polygon", "coordinates": [ [ [ -64.896182586890902, -11.178365900998088 ], [ -64.896182586890902, -11.17890489016856 ], [ -64.895913092305662, -11.17890489016856 ], [ -64.895913092305662, -11.179713373924267 ], [ -64.896182586890902, -11.179713373924267 ], [ -64.896182586890902, -11.179174384753797 ], [ -64.896452081476127, -11.179174384753797 ], [ -64.896452081476127, -11.178365900998088 ], [ -64.896182586890902, -11.178365900998088 ] ] ] } },
{ "type": "Feature", "properties": { "DN": 3 }, "geometry": { "type": "Polygon", "coordinates": [ [ [ -64.896452081476127, -11.176209944316202 ], [ -64.896452081476127, -11.178365900998088 ], [ -64.896721576061367, -11.178365900998088 ], [ -64.896721576061367, -11.177826911827616 ], [ -64.896991070646607, -11.177826911827616 ], [ -64.896991070646607, -11.177287922657145 ], [ -64.897260565231846, -11.177287922657145 ], [ -64.897260565231846, -11.177018428071909 ], [ -64.896991070646607, -11.177018428071909 ], [ -64.896991070646607, -11.176748933486673 ], [ -64.896721576061367, -11.176748933486673 ], [ -64.896721576061367, -11.176209944316202 ], [ -64.896452081476127, -11.176209944316202 ] ] ] } },
{ "type": "Feature", "properties": { "DN": 3 }, "geometry": { "type": "Polygon", "coordinates": [ [ [ -64.833390348530941, -11.164082687980589 ], [ -64.833390348530941, -11.164352182565825 ], [ -64.833120853945701, -11.164352182565825 ], [ -64.833120853945701, -11.164891171736295 ], [ -64.833390348530941, -11.164891171736295 ], [ -64.833390348530941, -11.165160666321531 ], [ -64.83392933770142, -11.165160666321531 ], [ -64.83392933770142, -11.164891171736295 ], [ -64.834198832286646, -11.164891171736295 ], [ -64.834198832286646, -11.164621677151059 ], [ -64.834468326871885, -11.164621677151059 ], [ -64.834468326871885, -11.164352182565825 ], [ -64.834198832286646, -11.164352182565825 ], [ -64.834198832286646, -11.164082687980589 ], [ -64.833390348530941, -11.164082687980589 ] ] ] } },
{ "type": "Feature", "properties": { "DN": 3 }, "geometry": { "type": "Polygon", "coordinates": [ [ [ -65.002902442644299, -11.089702182455492 ], [ -65.003171937229538, -11.089702182455492 ], [ -65.003171937229538, -11.089432687870255 ], [ -65.003710926400004, -11.089432687870255 ], [ -65.003710926400004, -11.089163193285019 ], [ -65.004519410155709, -11.089163193285019 ], [ -65.004519410155709, -11.088893698699785 ], [ -65.004788904740948, -11.088893698699785 ], [ -65.004788904740948, -11.089163193285019 ], [ -65.005058399326188, -11.089163193285019 ], [ -65.005058399326188, -11.088893698699785 ], [ -65.005327893911414, -11.088893698699785 ], [ -65.005327893911414, -11.089163193285019 ], [ -65.005866883081893, -11.089163193285019 ], [ -65.005866883081893, -11.088893698699785 ], [ -65.006136377667133, -11.088893698699785 ], [ -65.006136377667133, -11.088354709529312 ], [ -65.006405872252358, -11.088354709529312 ], [ -65.006405872252358, -11.088085214944076 ], [ -65.006675366837598, -11.088085214944076 ], [ -65.006675366837598, -11.08781572035884 ], [ -65.006944861422838, -11.08781572035884 ], [ -65.006944861422838, -11.087546225773604 ], [ -65.006675366837598, -11.087546225773604 ], [ -65.006675366837598, -11.08727673118837 ], [ -65.005597388496653, -11.08727673118837 ], [ -65.005597388496653, -11.087546225773604 ], [ -65.005327893911414, -11.087546225773604 ], [ -65.005327893911414, -11.08781572035884 ], [ -65.004519410155709, -11.08781572035884 ], [ -65.004519410155709, -11.088085214944076 ], [ -65.003980420985243, -11.088085214944076 ], [ -65.003980420985243, -11.088354709529312 ], [ -65.003710926400004, -11.088354709529312 ], [ -65.003710926400004, -11.088624204114549 ], [ -65.003388553475816, -11.088624204114549 ], [ -65.003375661168263, -11.08864144521965 ], [ -65.003171937229538, -11.088806934424646 ], [ -65.003171937229538, -11.088893698699785 ], [ -65.003065126879747, -11.088893698699785 ], [ -65.002902442644299, -11.089025850497743 ], [ -65.002902442644299, -11.089702182455492 ] ] ] } }
]
}
