{
"type": "FeatureCollection",
"name": "rio_guapore",
"crs": { "type": "name", "properties": { "name": "urn:ogc:def:crs:OGC:1.3:CRS84" } },
"features": [
{ "type": "Feature", "properties": { "area_ha": 145.87 }, "geometry": { "type": "MultiPolygon", "coordinates": [ [ [ [ -64.924479518340661, -12.01406860981448 ], [ -64.923940529170196, -12.01406860981448 ], [ -64.923940529170196, -12.014338104399716 ], [ -64.923401539999716, -12.014338104399716 ], [ -64.923401539999716, -12.01460759898495 ], [ -64.923132045414476, -12.01460759898495 ], [ -64.923132045414476, -12.015685577325893 ], [ -64.922862550829251, -12.015685577325893 ], [ -64.922862550829251, -12.015146588155423 ], [ -64.922593056244011, -12.015146588155423 ], [ -64.922593056244011, -12.016224566496366 ], [ -64.922323561658771, -12.016224566496366 ], [ -64.922323561658771, -12.015955071911129 ], [ -64.922054067073546, -12.015955071911129 ], [ -64.922054067073546, -12.016494061081602 ], [ -64.921784572488306, -12.016494061081602 ], [ -64.921784572488306, -12.016763555666838 ], [ -64.921245583317827, -12.016763555666838 ], [ -64.921245583317827, -12.017033050252074 ], [ -64.920976088732601, -12.017033050252074 ], [ -64.920976088732601, -12.01730254483731 ], [ -64.920706594147362, -12.01730254483731 ], [ -64.920706594147362, -12.017572039422545 ], [ -64.920437099562122, -12.017572039422545 ], [ -64.920437099562122, -12.017841534007781 ], [ -64.920706594147362, -12.017841534007781 ], [ -64.920706594147362, -12.018111028593017 ], [ -64.920976088732601, -12.018111028593017 ], [ -64.920976088732601, -12.018380523178253 ], [ -64.921515077903067, -12.018380523178253 ], [ -64.921515077903067, -12.018650017763488 ], [ -64.921784572488306, -12.018650017763488 ], [ -64.921784572488306, -12.018380523178253 ], [ -64.922054067073546, -12.018380523178253 ], [ -64.922054067073546, -12.018111028593017 ], [ -64.922593056244011, -12.018111028593017 ], [ -64.922593056244011, -12.017572039422545 ], [ -64.922862550829251, -12.017572039422545 ], [ -64.922862550829251, -12.01730254483731 ], [ -64.922593056244011, -12.01730254483731 ], [ -64.922593056244011, -12.017033050252074 ], [ -64.922862550829251, -12.017033050252074 ], [ -64.922862550829251, -12.016224566496366 ], [ -64.923132045414476, -12.016224566496366 ], [ -64.923132045414476, -12.015955071911129 ], [ -64.923401539999716, -12.015955071911129 ], [ -64.923401539999716, -12.015416082740659 ], [ -64.923940529170196, -12.015416082740659 ], [ -64.923940529170196, -12.014877093570187 ], [ -64.924479518340661, -12.014877093570187 ], [ -64.924479518340661, -12.014338104399716 ], [ -64.92501850751114, -12.014338104399716 ], [ -64.92501850751114, -12.013799115229244 ], [ -64.925557496681606, -12.013799115229244 ], [ -64.925557496681606, -12.013260126058771 ], [ -64.92501850751114, -12.013260126058771 ], [ -64.92501850751114, -12.013529620644007 ], [ -64.924749012925901, -12.013529620644007 ], [ -64.924749012925901, -12.013799115229244 ], [ -64.924479518340661, -12.013799115229244 ], [ -64.924479518340661, -12.01406860981448 ] ] ], [ [ [ -64.811830781712075, -12.01460759898495 ], [ -64.811830781712075, -12.014877093570187 ], [ -64.811561287126835, -12.014877093570187 ], [ -64.811561287126835, -12.015146588155423 ], [ -64.812100276297315, -12.015146588155423 ], [ -64.812100276297315, -12.01460759898495 ], [ -64.81236977088254, -12.01460759898495 ], [ -64.81236977088254, -12.013799115229244 ], [ -64.812100276297315, -12.013799115229244 ], [ -64.812100276297315, -12.013529620644007 ], [ -64.81075280337113, -12.013529620644007 ], [ -64.81075280337113, -12.013799115229244 ], [ -64.81102229795637, -12.013799115229244 ], [ -64.81102229795637, -12.01406860981448 ], [ -64.811561287126835, -12.01406860981448 ], [ -64.811561287126835, -12.01460759898495 ], [ -64.811830781712075, -12.01460759898495 ] ] ], [ [ [ -64.830156413508107, -12.014338104399716 ], [ -64.830289050947528, -12.014338104399716 ], [ -64.830425908093346, -12.014185081177308 ], [ -64.830425908093346, -12.01406860981448 ], [ -64.830530074886042, -12.01406860981448 ], [ -64.830695402678586, -12.013883752886358 ], [ -64.830695402678586, -12.013799115229244 ], [ -64.83077109882457, -12.013799115229244 ], [ -64.830964897263826, -12.013582424595407 ], [ -64.830964897263826, -12.013529620644007 ], [ -64.830425908093346, -12.013529620644007 ], [ -64.830425908093346, -12.013260126058771 ], [ -64.829886918922881, -12.013260126058771 ], [ -64.829886918922881, -12.01406860981448 ], [ -64.830156413508107, -12.01406860981448 ], [ -64.830156413508107, -12.014338104399716 ] ] ], [ [ [ -64.810483308785891, -12.011643158547356 ], [ -64.810213814200665, -12.011643158547356 ], [ -64.810213814200665, -12.011912653132592 ], [ -64.809944319615425, -12.011912653132592 ], [ -64.809944319615425, -12.012182147717828 ], [ -64.810213814200665, -12.012182147717828 ], [ -64.810213814200665, -12.012451642303065 ], [ -64.809944319615425, -12.012451642303065 ], [ -64.809944319615425, -12.012721136888299 ], [ -64.810213814200665, -12.012721136888299 ], [ -64.810213814200665, -12.013260126058771 ], [ -64.810483308785891, -12.013260126058771 ], [ -64.810483308785891, -12.013529620644007 ], [ -64.81075280337113, -12.013529620644007 ], [ -64.81075280337113, -12.012990631473535 ], [ -64.81102229795637, -12.012990631473535 ], [ -64.81102229795637, -12.012451642303065 ], [ -64.81129179254161, -12.012451642303065 ], [ -64.81129179254161, -12.012182147717828 ], [ -64.811561287126835, -12.012182147717828 ], [ -64.811561287126835, -12.011104169376885 ], [ -64.81129179254161, -12.011104169376885 ], [ -64.81129179254161, -12.010834674791649 ], [ -64.81102229795637, -12.010834674791649 ], [ -64.81102229795637, -12.011104169376885 ], [ -64.81075280337113, -12.011104169376885 ], [ -64.81075280337113, -12.011373663962122 ], [ -64.810483308785891, -12.011373663962122 ], [ -64.810483308785891, -12.011643158547356 ] ] ], [ [ [ -64.822610565121508, -12.008948212694998 ], [ -64.822610565121508, -12.008678718109762 ], [ -64.822341070536268, -12.008678718109762 ], [ -64.822341070536268, -12.008948212694998 ], [ -64.822071575951043, -12.008948212694998 ], [ -64.822071575951043, -12.00948720186547 ], [ -64.823149554291987, -12.00948720186547 ], [ -64.823149554291987, -12.009217707280234 ], [ -64.823958038047692, -12.009217707280234 ], [ -64.823958038047692, -12.008948212694998 ], [ -64.823688543462453, -12.008948212694998 ], [ -64.823688543462453, -12.008678718109762 ], [ -64.823419048877213, -12.008678718109762 ], [ -64.823419048877213, -12.008948212694998 ], [ -64.823149554291987, -12.008948212694998 ], [ -64.823149554291987, -12.008678718109762 ], [ -64.822880059706748, -12.008678718109762 ], [ -64.822880059706748, -12.008948212694998 ], [ -64.822610565121508, -12.008948212694998 ] ] ], [ [ [ -64.832581864775236, -12.005714277672167 ], [ -64.832581864775236, -12.006522761427876 ], [ -64.832851359360475, -12.006522761427876 ], [ -64.832851359360475, -12.00679225601311 ], [ -64.833390348530941, -12.00679225601311 ], [ -64.833390348530941, -12.007061750598346 ], [ -64.83365984311618, -12.007061750598346 ], [ -64.83365984311618, -12.007331245183583 ], [ -64.83392933770142, -12.007331245183583 ], [ -64.83392933770142, -12.007061750598346 ], [ -64.834198832286646, -12.007061750598346 ], [ -64.834198832286646, -12.007331245183583 ], [ -64.834737821457125, -12.007331245183583 ], [ -64.834737821457125, -12.007600739768819 ], [ -64.835007316042365, -12.007600739768819 ], [ -64.835007316042365, -12.007870234354055 ], [ -64.83527681062759, -12.007870234354055 ], [ -64.83527681062759, -12.007331245183583 ], [ -64.835007316042365, -12.007331245183583 ], [ -64.835007316042365, -12.00679225601311 ], [ -64.834737821457125, -12.00679225601311 ], [ -64.834737821457125, -12.005175288501697 ], [ -64.834468326871885, -12.005175288501697 ], [ -64.834468326871885, -12.004636299331224 ], [ -64.83392933770142, -12.004636299331224 ], [ -64.83392933770142, -12.004366804745988 ], [ -64.833120853945701, -12.004366804745988 ], [ -64.833120853945701, -12.004097310160752 ], [ -64.832851359360475, -12.004097310160752 ], [ -64.832851359360475, -12.004366804745988 ], [ -64.832581864775236, -12.004366804745988 ], [ -64.832581864775236, -12.004636299331224 ], [ -64.832312370189996, -12.004636299331224 ], [ -64.832312370189996, -12.005714277672167 ], [ -64.832581864775236, -12.005714277672167 ] ] ], [ [ [ -64.81075280337113, -12.005983772257403 ], [ -64.811561287126835, -12.005983772257403 ], [ -64.811561287126835, -12.005714277672167 ], [ -64.812100276297315, -12.005714277672167 ], [ -64.812100276297315, -12.005444783086931 ], [ -64.811561287126835, -12.005444783086931 ], [ -64.811561287126835, -12.005175288501697 ], [ -64.81075280337113, -12.005175288501697 ], [ -64.81075280337113, -12.005444783086931 ], [ -64.810483308785891, -12.005444783086931 ], [ -64.810483308785891, -12.005714277672167 ], [ -64.81075280337113, -12.005714277672167 ], [ -64.81075280337113, -12.005983772257403 ] ] ], [ [ [ -64.815334211320135, -12.005983772257403 ], [ -64.815334211320135, -12.005714277672167 ], [ -64.815873200490614, -12.005714277672167 ], [ -64.815873200490614, -12.005175288501697 ], [ -64.816142695075854, -12.005175288501697 ], [ -64.816142695075854, -12.005444783086931 ], [ -64.816412189661079, -12.005444783086931 ], [ -64.816412189661079, -12.005714277672167 ], [ -64.817220673416799, -12.005714277672167 ], [ -64.817220673416799, -12.005444783086931 ], [ -64.817490168002024, -12.005444783086931 ], [ -64.817490168002024, -12.005175288501697 ], [ -64.817220673416799, -12.005175288501697 ], [ -64.817220673416799, -12.004905793916461 ], [ -64.816681684246319, -12.004905793916461 ], [ -64.816681684246319, -12.004636299331224 ], [ -64.815334211320135, -12.004636299331224 ], [ -64.815334211320135, -12.004905793916461 ], [ -64.814795222149669, -12.004905793916461 ], [ -64.814795222149669, -12.005714277672167 ], [ -64.815064716734909, -12.005714277672167 ], [ -64.815064716734909, -12.005983772257403 ], [ -64.815334211320135, -12.005983772257403 ] ] ], [ [ [ -64.827461467655752, -12.005175288501697 ], [ -64.827461467655752, -12.004905793916461 ], [ -64.827191973070512, -12.004905793916461 ], [ -64.827191973070512, -12.005175288501697 ], [ -64.827461467655752, -12.005175288501697 ] ] ], [ [ [ -64.827461467655752, -12.004366804745988 ], [ -64.827191973070512, -12.004366804745988 ], [ -64.827191973070512, -12.004636299331224 ], [ -64.827461467655752, -12.004636299331224 ], [ -64.827461467655752, -12.004905793916461 ], [ -64.827730962240992, -12.004905793916461 ], [ -64.827730962240992, -12.004636299331224 ], [ -64.828000456826231, -12.004636299331224 ], [ -64.828000456826231, -12.003827815575516 ], [ -64.828269951411457, -12.003827815575516 ], [ -64.828269951411457, -12.00355832099028 ], [ -64.828808940581936, -12.00355832099028 ], [ -64.828808940581936, -12.003288826405045 ], [ -64.828269951411457, -12.003288826405045 ], [ -64.828269951411457, -12.003019331819809 ], [ -64.828000456826231, -12.003019331819809 ], [ -64.828000456826231, -12.003288826405045 ], [ -64.827730962240992, -12.003288826405045 ], [ -64.827730962240992, -12.003827815575516 ], [ -64.827461467655752, -12.003827815575516 ], [ -64.827461467655752, -12.004366804745988 ] ] ], [ [ [ -64.830964897263826, -12.00167185889363 ], [ -64.830964897263826, -12.001941353478866 ], [ -64.831503886434291, -12.001941353478866 ], [ -64.831503886434291, -12.002210848064102 ], [ -64.83204287560477, -12.002210848064102 ], [ -64.83204287560477, -12.002480342649337 ], [ -64.831773381019531, -12.002480342649337 ], [ -64.831773381019531, -12.002749837234573 ], [ -64.83204287560477, -12.002749837234573 ], [ -64.83204287560477, -12.003288826405045 ], [ -64.832581864775236, -12.003288826405045 ], [ -64.832581864775236, -12.00355832099028 ], [ -64.833390348530941, -12.00355832099028 ], [ -64.833390348530941, -12.003288826405045 ], [ -64.83392933770142, -12.003288826405045 ], [ -64.83392933770142, -12.002749837234573 ], [ -64.834198832286646, -12.002749837234573 ], [ -64.834198832286646, -12.001941353478866 ], [ -64.83392933770142, -12.001941353478866 ], [ -64.83392933770142, -12.00167185889363 ], [ -64.833390348530941, -12.00167185889363 ], [ -64.833390348530941, -12.001402364308394 ], [ -64.832581864775236, -12.001402364308394 ], [ -64.832581864775236, -12.001132869723158 ], [ -64.83204287560477, -12.001132869723158 ], [ -64.83204287560477, -12.000863375137921 ], [ -64.831773381019531, -12.000863375137921 ], [ -64.831773381019531, -12.000593880552685 ], [ -64.831503886434291, -12.000593880552685 ], [ -64.831503886434291, -12.000324385967451 ], [ -64.830695402678586, -12.000324385967451 ], [ -64.830695402678586, -12.000593880552685 ], [ -64.830425908093346, -12.000593880552685 ], [ -64.830425908093346, -12.001132869723158 ], [ -64.830695402678586, -12.001132869723158 ], [ -64.830695402678586, -12.00167185889363 ], [ -64.830964897263826, -12.00167185889363 ] ] ], [ [ [ -64.808057857518776, -11.999785396796979 ], [ -64.808057857518776, -12.000324385967451 ], [ -64.808327352104016, -12.000324385967451 ], [ -64.808327352104016, -12.000054891382215 ], [ -64.808596846689241, -12.000054891382215 ], [ -64.808596846689241, -11.999785396796979 ], [ -64.808057857518776, -11.999785396796979 ] ] ], [ [ [ -64.894296124794252, -11.962595144034431 ], [ -64.893757135623773, -11.962595144034431 ], [ -64.893757135623773, -11.963134133204903 ], [ -64.894026630209012, -11.963134133204903 ], [ -64.894026630209012, -11.963403627790138 ], [ -64.895643597720422, -11.963403627790138 ], [ -64.895643597720422, -11.963673122375374 ], [ -64.89603187477492, -11.963673122375374 ], [ -64.896182586890902, -11.963491324188332 ], [ -64.896182586890902, -11.963403627790138 ], [ -64.896255287889474, -11.963403627790138 ], [ -64.896452081476127, -11.963166243310196 ], [ -64.896452081476127, -11.963134133204903 ], [ -64.896478701004028, -11.963134133204903 ], [ -64.896702114118597, -11.962864638619667 ], [ -64.895913092305662, -11.962864638619667 ], [ -64.895913092305662, -11.963134133204903 ], [ -64.895643597720422, -11.963134133204903 ], [ -64.895643597720422, -11.962864638619667 ], [ -64.894296124794252, -11.962864638619667 ], [ -64.894296124794252, -11.962595144034431 ] ] ], [ [ [ -64.896991070646607, -11.962325649449195 ], [ -64.896991070646607, -11.962595144034431 ], [ -64.897014444809614, -11.962595144034431 ], [ -64.897260565231846, -11.962405034103247 ], [ -64.897260565231846, -11.962325649449195 ], [ -64.896991070646607, -11.962325649449195 ] ] ], [ [ [ -64.88459431972575, -11.958013736085421 ], [ -64.88459431972575, -11.958283230670657 ], [ -64.884863814310989, -11.958283230670657 ], [ -64.884863814310989, -11.958552725255892 ], [ -64.885133308896229, -11.958552725255892 ], [ -64.885133308896229, -11.958822219841128 ], [ -64.885402803481469, -11.958822219841128 ], [ -64.885402803481469, -11.958013736085421 ], [ -64.885133308896229, -11.958013736085421 ], [ -64.885133308896229, -11.957474746914949 ], [ -64.884863814310989, -11.957474746914949 ], [ -64.884863814310989, -11.957205252329713 ], [ -64.88459431972575, -11.957205252329713 ], [ -64.88459431972575, -11.957474746914949 ], [ -64.884055330555285, -11.957474746914949 ], [ -64.884055330555285, -11.957744241500185 ], [ -64.884324825140524, -11.957744241500185 ], [ -64.884324825140524, -11.958013736085421 ], [ -64.88459431972575, -11.958013736085421 ] ] ], [ [ [ -64.85818385037264, -11.957744241500185 ], [ -64.85845334495788, -11.957744241500185 ], [ -64.85845334495788, -11.957474746914949 ], [ -64.85818385037264, -11.957474746914949 ], [ -64.85818385037264, -11.957744241500185 ] ] ], [ [ [ -64.857644861202175, -11.956666263159242 ], [ -64.857644861202175, -11.956935757744478 ], [ -64.8579143557874, -11.956935757744478 ], [ -64.8579143557874, -11.957474746914949 ], [ -64.85818385037264, -11.957474746914949 ], [ -64.85818385037264, -11.957205252329713 ], [ -64.85845334495788, -11.957205252329713 ], [ -64.85845334495788, -11.956935757744478 ], [ -64.858992334128345, -11.956935757744478 ], [ -64.858992334128345, -11.957474746914949 ], [ -64.859261828713585, -11.957474746914949 ], [ -64.859261828713585, -11.957205252329713 ], [ -64.859531323298825, -11.957205252329713 ], [ -64.859531323298825, -11.956666263159242 ], [ -64.858992334128345, -11.956666263159242 ], [ -64.858992334128345, -11.956396768574006 ], [ -64.85872283954312, -11.956396768574006 ], [ -64.85872283954312, -11.956666263159242 ], [ -64.85845334495788, -11.956666263159242 ], [ -64.85845334495788, -11.956396768574006 ], [ -64.8579143557874, -11.956396768574006 ], [ -64.8579143557874, -11.956666263159242 ], [ -64.857644861202175, -11.956666263159242 ] ] ], [ [ [ -64.787306774455615, -12.034280703707168 ], [ -64.787306774455615, -12.034011209121932 ], [ -64.786228796114671, -12.034011209121932 ], [ -64.786228796114671, -12.034280703707168 ], [ -64.787306774455615, -12.034280703707168 ] ] ], [ [ [ -64.795391612012693, -12.032933230780989 ], [ -64.795661106597919, -12.032933230780989 ], [ -64.795661106597919, -12.033472219951461 ], [ -64.796200095768398, -12.033472219951461 ], [ -64.796200095768398, -12.033741714536696 ], [ -64.796469590353638, -12.033741714536696 ], [ -64.796469590353638, -12.033472219951461 ], [ -64.796739084938864, -12.033472219951461 ], [ -64.796739084938864, -12.033202725366225 ], [ -64.797008579524103, -12.033202725366225 ], [ -64.797008579524103, -12.032933230780989 ], [ -64.796739084938864, -12.032933230780989 ], [ -64.796739084938864, -12.032394241610518 ], [ -64.796469590353638, -12.032394241610518 ], [ -64.796469590353638, -12.031855252440046 ], [ -64.795930601183159, -12.031855252440046 ], [ -64.795930601183159, -12.032124747025282 ], [ -64.795661106597919, -12.032124747025282 ], [ -64.795661106597919, -12.032663736195753 ], [ -64.795391612012693, -12.032663736195753 ], [ -64.795391612012693, -12.032933230780989 ] ] ], [ [ [ -64.806440890007352, -12.022961931127263 ], [ -64.806440890007352, -12.023231425712499 ], [ -64.806171395422126, -12.023231425712499 ], [ -64.806171395422126, -12.023500920297733 ], [ -64.806440890007352, -12.023500920297733 ], [ -64.806440890007352, -12.02377041488297 ], [ -64.806171395422126, -12.02377041488297 ], [ -64.806171395422126, -12.024039909468206 ], [ -64.806979879177831, -12.024039909468206 ], [ -64.806979879177831, -12.02377041488297 ], [ -64.807249373763071, -12.02377041488297 ], [ -64.807249373763071, -12.023500920297733 ], [ -64.807518868348296, -12.023500920297733 ], [ -64.807518868348296, -12.023231425712499 ], [ -64.807788362933536, -12.023231425712499 ], [ -64.807788362933536, -12.022422941956791 ], [ -64.807518868348296, -12.022422941956791 ], [ -64.807518868348296, -12.022961931127263 ], [ -64.807249373763071, -12.022961931127263 ], [ -64.807249373763071, -12.023231425712499 ], [ -64.806710384592591, -12.023231425712499 ], [ -64.806710384592591, -12.022961931127263 ], [ -64.806440890007352, -12.022961931127263 ] ] ], [ [ [ -64.806440890007352, -12.020536479860139 ], [ -64.806440890007352, -12.020805974445375 ], [ -64.806710384592591, -12.020805974445375 ], [ -64.806710384592591, -12.021344963615848 ], [ -64.806979879177831, -12.021344963615848 ], [ -64.806979879177831, -12.021075469030611 ], [ -64.807249373763071, -12.021075469030611 ], [ -64.807249373763071, -12.019997490689668 ], [ -64.806979879177831, -12.019997490689668 ], [ -64.806979879177831, -12.019458501519196 ], [ -64.806440890007352, -12.019458501519196 ], [ -64.806440890007352, -12.019727996104432 ], [ -64.806710384592591, -12.019727996104432 ], [ -64.806710384592591, -12.019997490689668 ], [ -64.806171395422126, -12.019997490689668 ], [ -64.806171395422126, -12.020536479860139 ], [ -64.806440890007352, -12.020536479860139 ] ] ], [ [ [ -64.797817063279808, -12.017033050252074 ], [ -64.798086557865048, -12.017033050252074 ], [ -64.798086557865048, -12.016224566496366 ], [ -64.798356052450288, -12.016224566496366 ], [ -64.798356052450288, -12.015685577325893 ], [ -64.797817063279808, -12.015685577325893 ], [ -64.797817063279808, -12.015955071911129 ], [ -64.797547568694569, -12.015955071911129 ], [ -64.797547568694569, -12.016763555666838 ], [ -64.797817063279808, -12.016763555666838 ], [ -64.797817063279808, -12.017033050252074 ] ] ], [ [ [ -64.798356052450288, -12.015146588155423 ], [ -64.798356052450288, -12.015685577325893 ], [ -64.798625547035513, -12.015685577325893 ], [ -64.798625547035513, -12.015416082740659 ], [ -64.798895041620753, -12.015416082740659 ], [ -64.798895041620753, -12.015146588155423 ], [ -64.798356052450288, -12.015146588155423 ] ] ], [ [ [ -64.799164536205993, -12.015146588155423 ], [ -64.799164536205993, -12.013529620644007 ], [ -64.798895041620753, -12.013529620644007 ], [ -64.798895041620753, -12.015146588155423 ], [ -64.799164536205993, -12.015146588155423 ] ] ], [ [ [ -64.797547568694569, -12.00625326684264 ], [ -64.798625547035513, -12.00625326684264 ], [ -64.798625547035513, -12.005714277672167 ], [ -64.798895041620753, -12.005714277672167 ], [ -64.798895041620753, -12.005444783086931 ], [ -64.797817063279808, -12.005444783086931 ], [ -64.797817063279808, -12.004905793916461 ], [ -64.797008579524103, -12.004905793916461 ], [ -64.797008579524103, -12.005175288501697 ], [ -64.797278074109343, -12.005175288501697 ], [ -64.797278074109343, -12.005714277672167 ], [ -64.797547568694569, -12.005714277672167 ], [ -64.797547568694569, -12.00625326684264 ] ] ], [ [ [ -64.790540709478435, -12.002749837234573 ], [ -64.790540709478435, -12.003019331819809 ], [ -64.78973222572273, -12.003019331819809 ], [ -64.78973222572273, -12.003288826405045 ], [ -64.790810204063675, -12.003288826405045 ], [ -64.790810204063675, -12.002749837234573 ], [ -64.790540709478435, -12.002749837234573 ] ] ], [ [ [ -64.78973222572273, -12.003019331819809 ], [ -64.78973222572273, -12.002749837234573 ], [ -64.789193236552265, -12.002749837234573 ], [ -64.789193236552265, -12.003019331819809 ], [ -64.78973222572273, -12.003019331819809 ] ] ], [ [ [ -64.790810204063675, -12.002749837234573 ], [ -64.791349193234154, -12.002749837234573 ], [ -64.791349193234154, -12.002480342649337 ], [ -64.79161868781938, -12.002480342649337 ], [ -64.79161868781938, -12.001941353478866 ], [ -64.791349193234154, -12.001941353478866 ], [ -64.791349193234154, -12.002210848064102 ], [ -64.791079698648915, -12.002210848064102 ], [ -64.791079698648915, -12.002480342649337 ], [ -64.790810204063675, -12.002480342649337 ], [ -64.790810204063675, -12.002749837234573 ] ] ], [ [ [ -64.788923741967025, -12.002210848064102 ], [ -64.788923741967025, -12.001941353478866 ], [ -64.788654247381785, -12.001941353478866 ], [ -64.788654247381785, -12.002480342649337 ], [ -64.788923741967025, -12.002480342649337 ], [ -64.788923741967025, -12.002749837234573 ], [ -64.789193236552265, -12.002749837234573 ], [ -64.789193236552265, -12.002210848064102 ], [ -64.788923741967025, -12.002210848064102 ] ] ], [ [ [ -64.788654247381785, -12.001941353478866 ], [ -64.788654247381785, -12.00167185889363 ], [ -64.78838475279656, -12.00167185889363 ], [ -64.78838475279656, -12.001941353478866 ], [ -64.788654247381785, -12.001941353478866 ] ] ], [ [ [ -64.79161868781938, -12.001941353478866 ], [ -64.79188818240462, -12.001941353478866 ], [ -64.79188818240462, -12.001402364308394 ], [ -64.79161868781938, -12.001402364308394 ], [ -64.79161868781938, -12.001941353478866 ] ] ], [ [ [ -64.792157676989859, -12.001402364308394 ], [ -64.792157676989859, -12.000324385967451 ], [ -64.79188818240462, -12.000324385967451 ], [ -64.79188818240462, -12.001402364308394 ], [ -64.792157676989859, -12.001402364308394 ] ] ], [ [ [ -64.808057857518776, -12.000863375137921 ], [ -64.808057857518776, -12.000324385967451 ], [ -64.807788362933536, -12.000324385967451 ], [ -64.807788362933536, -12.000863375137921 ], [ -64.808057857518776, -12.000863375137921 ] ] ], [ [ [ -64.805093417081181, -11.999515902211742 ], [ -64.804554427910702, -11.999515902211742 ], [ -64.804554427910702, -11.999785396796979 ], [ -64.804284933325476, -11.999785396796979 ], [ -64.804284933325476, -11.999515902211742 ], [ -64.804015438740237, -11.999515902211742 ], [ -64.804015438740237, -11.999785396796979 ], [ -64.803476449569757, -11.999785396796979 ], [ -64.803476449569757, -12.000054891382215 ], [ -64.803206954984532, -12.000054891382215 ], [ -64.803206954984532, -12.000324385967451 ], [ -64.802937460399292, -12.000324385967451 ], [ -64.802937460399292, -12.000863375137921 ], [ -64.802667965814052, -12.000863375137921 ], [ -64.802667965814052, -12.001402364308394 ], [ -64.802937460399292, -12.001402364308394 ], [ -64.802937460399292, -12.001941353478866 ], [ -64.803745944154997, -12.001941353478866 ], [ -64.803745944154997, -12.00167185889363 ], [ -64.804284933325476, -12.00167185889363 ], [ -64.804284933325476, -12.001402364308394 ], [ -64.804554427910702, -12.001402364308394 ], [ -64.804554427910702, -12.001132869723158 ], [ -64.805093417081181, -12.001132869723158 ], [ -64.805093417081181, -12.000593880552685 ], [ -64.805362911666421, -12.000593880552685 ], [ -64.805362911666421, -12.000863375137921 ], [ -64.805901900836886, -12.000863375137921 ], [ -64.805901900836886, -12.001132869723158 ], [ -64.806440890007352, -12.001132869723158 ], [ -64.806440890007352, -12.000593880552685 ], [ -64.806710384592591, -12.000593880552685 ], [ -64.806710384592591, -12.000054891382215 ], [ -64.806979879177831, -12.000054891382215 ], [ -64.806979879177831, -11.999515902211742 ], [ -64.807788362933536, -11.999515902211742 ], [ -64.807788362933536, -11.999785396796979 ], [ -64.808057857518776, -11.999785396796979 ], [ -64.808057857518776, -11.999246407626508 ], [ -64.807518868348296, -11.999246407626508 ], [ -64.807518868348296, -11.998976913041272 ], [ -64.807249373763071, -11.998976913041272 ], [ -64.807249373763071, -11.998707418456036 ], [ -64.805901900836886, -11.998707418456036 ], [ -64.805901900836886, -11.998976913041272 ], [ -64.805362911666421, -11.998976913041272 ], [ -64.805362911666421, -11.999246407626508 ], [ -64.805093417081181, -11.999246407626508 ], [ -64.805093417081181, -11.999515902211742 ] ] ], [ [ [ -64.707266882640567, -12.07901680485632 ], [ -64.707266882640567, -12.079286299441556 ], [ -64.707536377225793, -12.079286299441556 ], [ -64.707536377225793, -12.078747310271085 ], [ -64.708075366396272, -12.078747310271085 ], [ -64.708075366396272, -12.078477815685849 ], [ -64.706997388055328, -12.078477815685849 ], [ -64.706997388055328, -12.078208321100613 ], [ -64.706727893470088, -12.078208321100613 ], [ -64.706727893470088, -12.077938826515377 ], [ -64.706458398884848, -12.077938826515377 ], [ -64.706458398884848, -12.078208321100613 ], [ -64.706188904299623, -12.078208321100613 ], [ -64.706188904299623, -12.078747310271085 ], [ -64.705919409714383, -12.078747310271085 ], [ -64.705919409714383, -12.07901680485632 ], [ -64.707266882640567, -12.07901680485632 ] ] ], [ [ [ -64.773023561438109, -12.049911389650848 ], [ -64.773023561438109, -12.049641895065612 ], [ -64.772754066852869, -12.049641895065612 ], [ -64.772754066852869, -12.049911389650848 ], [ -64.771676088511938, -12.049911389650848 ], [ -64.771676088511938, -12.050180884236084 ], [ -64.771406593926699, -12.050180884236084 ], [ -64.771406593926699, -12.049911389650848 ], [ -64.771137099341459, -12.049911389650848 ], [ -64.771137099341459, -12.050180884236084 ], [ -64.770867604756219, -12.050180884236084 ], [ -64.770867604756219, -12.050989367991791 ], [ -64.771137099341459, -12.050989367991791 ], [ -64.771137099341459, -12.052875830088443 ], [ -64.771406593926699, -12.052875830088443 ], [ -64.771406593926699, -12.053414819258915 ], [ -64.771945583097164, -12.053414819258915 ], [ -64.771945583097164, -12.050989367991791 ], [ -64.772484572267643, -12.050989367991791 ], [ -64.772484572267643, -12.050719873406555 ], [ -64.772754066852869, -12.050719873406555 ], [ -64.772754066852869, -12.050989367991791 ], [ -64.773023561438109, -12.050989367991791 ], [ -64.773023561438109, -12.050719873406555 ], [ -64.773832045193814, -12.050719873406555 ], [ -64.773832045193814, -12.050450378821321 ], [ -64.774371034364293, -12.050450378821321 ], [ -64.774371034364293, -12.050180884236084 ], [ -64.774640528949533, -12.050180884236084 ], [ -64.774640528949533, -12.050450378821321 ], [ -64.775718507290463, -12.050450378821321 ], [ -64.775718507290463, -12.049641895065612 ], [ -64.774371034364293, -12.049641895065612 ], [ -64.774371034364293, -12.049372400480376 ], [ -64.774101539779053, -12.049372400480376 ], [ -64.774101539779053, -12.049641895065612 ], [ -64.773832045193814, -12.049641895065612 ], [ -64.773832045193814, -12.049372400480376 ], [ -64.773293056023348, -12.049372400480376 ], [ -64.773293056023348, -12.049911389650848 ], [ -64.773023561438109, -12.049911389650848 ] ] ], [ [ [ -64.771676088511938, -12.045329981701839 ], [ -64.772215077682404, -12.045329981701839 ], [ -64.772215077682404, -12.045060487116602 ], [ -64.771945583097164, -12.045060487116602 ], [ -64.771945583097164, -12.044521497946132 ], [ -64.771676088511938, -12.044521497946132 ], [ -64.771676088511938, -12.044252003360896 ], [ -64.771137099341459, -12.044252003360896 ], [ -64.771137099341459, -12.044790992531366 ], [ -64.770867604756219, -12.044790992531366 ], [ -64.770867604756219, -12.045599476287075 ], [ -64.771676088511938, -12.045599476287075 ], [ -64.771676088511938, -12.045329981701839 ] ] ], [ [ [ -64.785150817773726, -12.035897671218583 ], [ -64.785150817773726, -12.036436660389056 ], [ -64.785689806944191, -12.036436660389056 ], [ -64.785689806944191, -12.03670615497429 ], [ -64.786228796114671, -12.03670615497429 ], [ -64.786228796114671, -12.037245144144762 ], [ -64.78649829069991, -12.037245144144762 ], [ -64.78649829069991, -12.036167165803819 ], [ -64.786228796114671, -12.036167165803819 ], [ -64.786228796114671, -12.035897671218583 ], [ -64.78649829069991, -12.035897671218583 ], [ -64.78649829069991, -12.035628176633347 ], [ -64.786228796114671, -12.035628176633347 ], [ -64.786228796114671, -12.035089187462876 ], [ -64.785689806944191, -12.035089187462876 ], [ -64.785689806944191, -12.034280703707168 ], [ -64.785959301529431, -12.034280703707168 ], [ -64.785959301529431, -12.034011209121932 ], [ -64.786228796114671, -12.034011209121932 ], [ -64.786228796114671, -12.033741714536696 ], [ -64.785689806944191, -12.033741714536696 ], [ -64.785689806944191, -12.034011209121932 ], [ -64.785150817773726, -12.034011209121932 ], [ -64.785150817773726, -12.034550198292404 ], [ -64.784881323188486, -12.034550198292404 ], [ -64.784881323188486, -12.035897671218583 ], [ -64.785150817773726, -12.035897671218583 ] ] ], [ [ [ -64.759009843005842, -12.012451642303065 ], [ -64.759009843005842, -12.012721136888299 ], [ -64.758470853835377, -12.012721136888299 ], [ -64.758470853835377, -12.012990631473535 ], [ -64.757931864664897, -12.012990631473535 ], [ -64.757931864664897, -12.013260126058771 ], [ -64.757662370079672, -12.013260126058771 ], [ -64.757662370079672, -12.012990631473535 ], [ -64.757392875494432, -12.012990631473535 ], [ -64.757392875494432, -12.013260126058771 ], [ -64.756853886323967, -12.013260126058771 ], [ -64.756853886323967, -12.013529620644007 ], [ -64.756584391738727, -12.013529620644007 ], [ -64.756584391738727, -12.01406860981448 ], [ -64.756314897153487, -12.01406860981448 ], [ -64.756314897153487, -12.01460759898495 ], [ -64.756045402568247, -12.01460759898495 ], [ -64.756045402568247, -12.015146588155423 ], [ -64.755506413397782, -12.015146588155423 ], [ -64.755506413397782, -12.015416082740659 ], [ -64.755236918812543, -12.015416082740659 ], [ -64.755236918812543, -12.015146588155423 ], [ -64.754967424227303, -12.015146588155423 ], [ -64.754967424227303, -12.015416082740659 ], [ -64.754697929642077, -12.015416082740659 ], [ -64.754697929642077, -12.015146588155423 ], [ -64.754428435056838, -12.015146588155423 ], [ -64.754428435056838, -12.015685577325893 ], [ -64.754697929642077, -12.015685577325893 ], [ -64.754697929642077, -12.016224566496366 ], [ -64.755236918812543, -12.016224566496366 ], [ -64.755236918812543, -12.016494061081602 ], [ -64.754967424227303, -12.016494061081602 ], [ -64.754967424227303, -12.016763555666838 ], [ -64.755236918812543, -12.016763555666838 ], [ -64.755236918812543, -12.01730254483731 ], [ -64.755506413397782, -12.01730254483731 ], [ -64.755506413397782, -12.017572039422545 ], [ -64.755775907983022, -12.017572039422545 ], [ -64.755775907983022, -12.017841534007781 ], [ -64.756314897153487, -12.017841534007781 ], [ -64.756314897153487, -12.018380523178253 ], [ -64.756853886323967, -12.018380523178253 ], [ -64.756853886323967, -12.018650017763488 ], [ -64.757931864664897, -12.018650017763488 ], [ -64.757931864664897, -12.018380523178253 ], [ -64.758470853835377, -12.018380523178253 ], [ -64.758470853835377, -12.018111028593017 ], [ -64.759009843005842, -12.018111028593017 ], [ -64.759009843005842, -12.017841534007781 ], [ -64.759279337591082, -12.017841534007781 ], [ -64.759279337591082, -12.018111028593017 ], [ -64.759818326761561, -12.018111028593017 ], [ -64.759818326761561, -12.018380523178253 ], [ -64.760087821346787, -12.018380523178253 ], [ -64.760087821346787, -12.018111028593017 ], [ -64.760357315932026, -12.018111028593017 ], [ -64.760357315932026, -12.018380523178253 ], [ -64.760626810517266, -12.018380523178253 ], [ -64.760626810517266, -12.018111028593017 ], [ -64.760896305102492, -12.018111028593017 ], [ -64.760896305102492, -12.017841534007781 ], [ -64.761435294272971, -12.017841534007781 ], [ -64.761435294272971, -12.01730254483731 ], [ -64.761704788858211, -12.01730254483731 ], [ -64.761704788858211, -12.016763555666838 ], [ -64.761974283443436, -12.016763555666838 ], [ -64.761974283443436, -12.016224566496366 ], [ -64.762243778028676, -12.016224566496366 ], [ -64.762243778028676, -12.015955071911129 ], [ -64.761974283443436, -12.015955071911129 ], [ -64.761974283443436, -12.014338104399716 ], [ -64.761704788858211, -12.014338104399716 ], [ -64.761704788858211, -12.013529620644007 ], [ -64.761435294272971, -12.013529620644007 ], [ -64.761435294272971, -12.013260126058771 ], [ -64.761704788858211, -12.013260126058771 ], [ -64.761704788858211, -12.012990631473535 ], [ -64.761435294272971, -12.012990631473535 ], [ -64.761435294272971, -12.012721136888299 ], [ -64.761704788858211, -12.012721136888299 ], [ -64.761704788858211, -12.012451642303065 ], [ -64.761435294272971, -12.012451642303065 ], [ -64.761435294272971, -12.012182147717828 ], [ -64.761704788858211, -12.012182147717828 ], [ -64.761704788858211, -12.011912653132592 ], [ -64.761435294272971, -12.011912653132592 ], [ -64.761435294272971, -12.011643158547356 ], [ -64.760896305102492, -12.011643158547356 ], [ -64.760896305102492, -12.011912653132592 ], [ -64.760357315932026, -12.011912653132592 ], [ -64.760357315932026, -12.012182147717828 ], [ -64.759818326761561, -12.012182147717828 ], [ -64.759818326761561, -12.012451642303065 ], [ -64.759009843005842, -12.012451642303065 ] ], [ [ -64.758201359250137, -12.015146588155423 ], [ -64.758740348420616, -12.015146588155423 ], [ -64.758740348420616, -12.015416082740659 ], [ -64.758201359250137, -12.015416082740659 ], [ -64.758201359250137, -12.015146588155423 ] ] ], [ [ [ -64.776526991046183, -12.004097310160752 ], [ -64.776796485631408, -12.004097310160752 ], [ -64.776796485631408, -12.003827815575516 ], [ -64.777065980216648, -12.003827815575516 ], [ -64.777065980216648, -12.004097310160752 ], [ -64.777335474801887, -12.004097310160752 ], [ -64.777335474801887, -12.003827815575516 ], [ -64.777874463972353, -12.003827815575516 ], [ -64.777874463972353, -12.003288826405045 ], [ -64.778143958557592, -12.003288826405045 ], [ -64.778143958557592, -12.003019331819809 ], [ -64.777604969387127, -12.003019331819809 ], [ -64.777604969387127, -12.00355832099028 ], [ -64.775718507290463, -12.00355832099028 ], [ -64.775718507290463, -12.003827815575516 ], [ -64.776526991046183, -12.003827815575516 ], [ -64.776526991046183, -12.004097310160752 ] ] ], [ [ [ -64.767903164318625, -12.001132869723158 ], [ -64.767903164318625, -12.002210848064102 ], [ -64.767633669733399, -12.002210848064102 ], [ -64.767633669733399, -12.002480342649337 ], [ -64.767903164318625, -12.002480342649337 ], [ -64.767903164318625, -12.002749837234573 ], [ -64.767633669733399, -12.002749837234573 ], [ -64.767633669733399, -12.003019331819809 ], [ -64.767903164318625, -12.003019331819809 ], [ -64.767903164318625, -12.003288826405045 ], [ -64.767633669733399, -12.003288826405045 ], [ -64.767633669733399, -12.003827815575516 ], [ -64.76736417514816, -12.003827815575516 ], [ -64.76736417514816, -12.004366804745988 ], [ -64.76709468056292, -12.004366804745988 ], [ -64.76709468056292, -12.004905793916461 ], [ -64.76682518597768, -12.004905793916461 ], [ -64.76682518597768, -12.005175288501697 ], [ -64.76709468056292, -12.005175288501697 ], [ -64.76709468056292, -12.005444783086931 ], [ -64.76736417514816, -12.005444783086931 ], [ -64.76736417514816, -12.005714277672167 ], [ -64.767903164318625, -12.005714277672167 ], [ -64.767903164318625, -12.005444783086931 ], [ -64.768172658903865, -12.005444783086931 ], [ -64.768172658903865, -12.005175288501697 ], [ -64.768442153489104, -12.005175288501697 ], [ -64.768442153489104, -12.004905793916461 ], [ -64.768711648074344, -12.004905793916461 ], [ -64.768711648074344, -12.004636299331224 ], [ -64.771676088511938, -12.004636299331224 ], [ -64.771676088511938, -12.004366804745988 ], [ -64.774371034364293, -12.004366804745988 ], [ -64.774371034364293, -12.004636299331224 ], [ -64.774640528949533, -12.004636299331224 ], [ -64.774640528949533, -12.004905793916461 ], [ -64.774910023534758, -12.004905793916461 ], [ -64.774910023534758, -12.005175288501697 ], [ -64.775179518119998, -12.005175288501697 ], [ -64.775179518119998, -12.005444783086931 ], [ -64.775449012705238, -12.005444783086931 ], [ -64.775449012705238, -12.005714277672167 ], [ -64.775718507290463, -12.005714277672167 ], [ -64.775718507290463, -12.005983772257403 ], [ -64.775988001875703, -12.005983772257403 ], [ -64.775988001875703, -12.005444783086931 ], [ -64.775718507290463, -12.005444783086931 ], [ -64.775718507290463, -12.004905793916461 ], [ -64.775449012705238, -12.004905793916461 ], [ -64.775449012705238, -12.004366804745988 ], [ -64.775179518119998, -12.004366804745988 ], [ -64.775179518119998, -12.004097310160752 ], [ -64.775449012705238, -12.004097310160752 ], [ -64.775449012705238, -12.003827815575516 ], [ -64.773832045193814, -12.003827815575516 ], [ -64.773832045193814, -12.00355832099028 ], [ -64.772484572267643, -12.00355832099028 ], [ -64.772484572267643, -12.003288826405045 ], [ -64.771945583097164, -12.003288826405045 ], [ -64.771945583097164, -12.003019331819809 ], [ -64.771676088511938, -12.003019331819809 ], [ -64.771676088511938, -12.003288826405045 ], [ -64.771406593926699, -12.003288826405045 ], [ -64.771406593926699, -12.00355832099028 ], [ -64.771137099341459, -12.00355832099028 ], [ -64.771137099341459, -12.003827815575516 ], [ -64.770328615585754, -12.003827815575516 ], [ -64.770328615585754, -12.00355832099028 ], [ -64.770598110170994, -12.00355832099028 ], [ -64.770598110170994, -12.003288826405045 ], [ -64.770328615585754, -12.003288826405045 ], [ -64.770328615585754, -12.003019331819809 ], [ -64.770598110170994, -12.003019331819809 ], [ -64.770598110170994, -12.002749837234573 ], [ -64.770328615585754, -12.002749837234573 ], [ -64.770328615585754, -12.002210848064102 ], [ -64.770059121000514, -12.002210848064102 ], [ -64.770059121000514, -12.001941353478866 ], [ -64.769789626415275, -12.001941353478866 ], [ -64.769789626415275, -12.001402364308394 ], [ -64.769520131830049, -12.001402364308394 ], [ -64.769520131830049, -12.000863375137921 ], [ -64.769250637244809, -12.000863375137921 ], [ -64.769250637244809, -12.000324385967451 ], [ -64.76898114265957, -12.000324385967451 ], [ -64.76898114265957, -12.000054891382215 ], [ -64.768711648074344, -12.000054891382215 ], [ -64.768711648074344, -12.000324385967451 ], [ -64.768442153489104, -12.000324385967451 ], [ -64.768442153489104, -12.000593880552685 ], [ -64.768172658903865, -12.000593880552685 ], [ -64.768172658903865, -12.001132869723158 ], [ -64.767903164318625, -12.001132869723158 ] ] ], [ [ [ -64.778413453142832, -12.003019331819809 ], [ -64.778413453142832, -12.002749837234573 ], [ -64.778143958557592, -12.002749837234573 ], [ -64.778143958557592, -12.003019331819809 ], [ -64.778413453142832, -12.003019331819809 ] ] ], [ [ [ -64.775718507290463, -11.996012472603677 ], [ -64.775988001875703, -11.996012472603677 ], [ -64.775988001875703, -11.996281967188914 ], [ -64.776257496460943, -11.996281967188914 ], [ -64.776257496460943, -11.996551461774148 ], [ -64.776526991046183, -11.996551461774148 ], [ -64.776526991046183, -11.997629440115091 ], [ -64.776796485631408, -11.997629440115091 ], [ -64.776796485631408, -11.997359945529857 ], [ -64.777065980216648, -11.997359945529857 ], [ -64.777065980216648, -11.997629440115091 ], [ -64.777604969387127, -11.997629440115091 ], [ -64.777604969387127, -11.997898934700327 ], [ -64.777874463972353, -11.997898934700327 ], [ -64.777874463972353, -11.998168429285563 ], [ -64.778143958557592, -11.998168429285563 ], [ -64.778143958557592, -11.998437923870799 ], [ -64.778413453142832, -11.998437923870799 ], [ -64.778413453142832, -11.998976913041272 ], [ -64.778952442313297, -11.998976913041272 ], [ -64.778952442313297, -11.998707418456036 ], [ -64.778682947728058, -11.998707418456036 ], [ -64.778682947728058, -11.998168429285563 ], [ -64.778413453142832, -11.998168429285563 ], [ -64.778413453142832, -11.997629440115091 ], [ -64.778682947728058, -11.997629440115091 ], [ -64.778682947728058, -11.997359945529857 ], [ -64.778413453142832, -11.997359945529857 ], [ -64.778413453142832, -11.996820956359384 ], [ -64.778143958557592, -11.996820956359384 ], [ -64.778143958557592, -11.996551461774148 ], [ -64.777874463972353, -11.996551461774148 ], [ -64.777874463972353, -11.996012472603677 ], [ -64.777335474801887, -11.996012472603677 ], [ -64.777335474801887, -11.995473483433205 ], [ -64.776796485631408, -11.995473483433205 ], [ -64.776796485631408, -11.995203988847969 ], [ -64.776526991046183, -11.995203988847969 ], [ -64.776526991046183, -11.994934494262733 ], [ -64.776257496460943, -11.994934494262733 ], [ -64.776257496460943, -11.995203988847969 ], [ -64.775988001875703, -11.995203988847969 ], [ -64.775988001875703, -11.995473483433205 ], [ -64.775718507290463, -11.995473483433205 ], [ -64.775718507290463, -11.996012472603677 ] ] ], [ [ [ -64.772754066852869, -11.996820956359384 ], [ -64.772754066852869, -11.996551461774148 ], [ -64.772484572267643, -11.996551461774148 ], [ -64.772484572267643, -11.996820956359384 ], [ -64.772754066852869, -11.996820956359384 ] ] ], [ [ [ -64.773023561438109, -11.996551461774148 ], [ -64.773023561438109, -11.996012472603677 ], [ -64.772754066852869, -11.996012472603677 ], [ -64.772754066852869, -11.996551461774148 ], [ -64.773023561438109, -11.996551461774148 ] ] ], [ [ [ -64.773293056023348, -11.996012472603677 ], [ -64.773293056023348, -11.995742978018441 ], [ -64.773023561438109, -11.995742978018441 ], [ -64.773023561438109, -11.996012472603677 ], [ -64.773293056023348, -11.996012472603677 ] ] ], [ [ [ -64.773562550608588, -11.995742978018441 ], [ -64.773562550608588, -11.995473483433205 ], [ -64.773293056023348, -11.995473483433205 ], [ -64.773293056023348, -11.995742978018441 ], [ -64.773562550608588, -11.995742978018441 ] ] ], [ [ [ -64.773832045193814, -11.995473483433205 ], [ -64.773832045193814, -11.995203988847969 ], [ -64.773562550608588, -11.995203988847969 ], [ -64.773562550608588, -11.995473483433205 ], [ -64.773832045193814, -11.995473483433205 ] ] ], [ [ [ -64.774371034364293, -11.994934494262733 ], [ -64.774371034364293, -11.994664999677497 ], [ -64.774640528949533, -11.994664999677497 ], [ -64.774640528949533, -11.994395505092262 ], [ -64.775179518119998, -11.994395505092262 ], [ -64.775179518119998, -11.994126010507026 ], [ -64.774640528949533, -11.994126010507026 ], [ -64.774640528949533, -11.99385651592179 ], [ -64.774101539779053, -11.99385651592179 ], [ -64.774101539779053, -11.994126010507026 ], [ -64.773832045193814, -11.994126010507026 ], [ -64.773832045193814, -11.995203988847969 ], [ -64.774101539779053, -11.995203988847969 ], [ -64.774101539779053, -11.994934494262733 ], [ -64.774371034364293, -11.994934494262733 ] ] ] ] } }
]
}
