{
"type": "FeatureCollection",
"name": "rio_mequens",
"crs": { "type": "name", "properties": { "name": "urn:ogc:def:crs:OGC:1.3:CRS84" } },
"features": [
{ "type": "Feature", "properties": { "area_ha": 552.47 }, "geometry": { "type": "MultiPolygon", "coordinates": [ [ [ [ -61.888892510243977, -12.68133720285846 ], [ -61.88916200482921, -12.68133720285846 ], [ -61.88916200482921, -12.683493159540348 ], [ -61.889431499414449, -12.683493159540348 ], [ -61.889431499414449, -12.684032148710818 ], [ -61.889700993999682, -12.684032148710818 ], [ -61.889700993999682, -12.68457113788129 ], [ -61.889970488584922, -12.68457113788129 ], [ -61.889970488584922, -12.685110127051761 ], [ -61.890239983170154, -12.685110127051761 ], [ -61.890239983170154, -12.68591861080747 ], [ -61.890509477755394, -12.68591861080747 ], [ -61.890509477755394, -12.686188105392706 ], [ -61.890778972340627, -12.686188105392706 ], [ -61.890778972340627, -12.686457599977942 ], [ -61.892665434437276, -12.686457599977942 ], [ -61.892665434437276, -12.686188105392706 ], [ -61.892934929022516, -12.686188105392706 ], [ -61.892934929022516, -12.68591861080747 ], [ -61.893204423607749, -12.68591861080747 ], [ -61.893204423607749, -12.684840632466525 ], [ -61.892934929022516, -12.684840632466525 ], [ -61.892934929022516, -12.68457113788129 ], [ -61.892665434437276, -12.68457113788129 ], [ -61.892665434437276, -12.684301643296054 ], [ -61.892395939852044, -12.684301643296054 ], [ -61.892395939852044, -12.68457113788129 ], [ -61.891856950681571, -12.68457113788129 ], [ -61.891856950681571, -12.684840632466525 ], [ -61.891317961511099, -12.684840632466525 ], [ -61.891317961511099, -12.685110127051761 ], [ -61.890778972340627, -12.685110127051761 ], [ -61.890778972340627, -12.684840632466525 ], [ -61.890239983170154, -12.684840632466525 ], [ -61.890239983170154, -12.684301643296054 ], [ -61.889970488584922, -12.684301643296054 ], [ -61.889970488584922, -12.683493159540348 ], [ -61.889700993999682, -12.683493159540348 ], [ -61.889700993999682, -12.683223664955111 ], [ -61.889970488584922, -12.683223664955111 ], [ -61.889970488584922, -12.682954170369875 ], [ -61.889700993999682, -12.682954170369875 ], [ -61.889700993999682, -12.682415181199403 ], [ -61.889970488584922, -12.682415181199403 ], [ -61.889970488584922, -12.682145686614167 ], [ -61.890239983170154, -12.682145686614167 ], [ -61.890239983170154, -12.681606697443696 ], [ -61.890509477755394, -12.681606697443696 ], [ -61.890509477755394, -12.681067708273224 ], [ -61.890239983170154, -12.681067708273224 ], [ -61.890239983170154, -12.680528719102751 ], [ -61.889970488584922, -12.680528719102751 ], [ -61.889970488584922, -12.680259224517517 ], [ -61.889700993999682, -12.680259224517517 ], [ -61.889700993999682, -12.680528719102751 ], [ -61.88916200482921, -12.680528719102751 ], [ -61.88916200482921, -12.681067708273224 ], [ -61.888892510243977, -12.681067708273224 ], [ -61.888892510243977, -12.68133720285846 ] ] ], [ [ [ -61.902367239505772, -12.670557419449025 ], [ -61.901828250335299, -12.670557419449025 ], [ -61.901828250335299, -12.670826914034262 ], [ -61.90155875575006, -12.670826914034262 ], [ -61.90155875575006, -12.671635397789968 ], [ -61.901289261164827, -12.671635397789968 ], [ -61.901289261164827, -12.671904892375204 ], [ -61.901019766579587, -12.671904892375204 ], [ -61.901019766579587, -12.672443881545677 ], [ -61.900750271994355, -12.672443881545677 ], [ -61.900750271994355, -12.673252365301384 ], [ -61.900480777409115, -12.673252365301384 ], [ -61.900480777409115, -12.673791354471856 ], [ -61.900750271994355, -12.673791354471856 ], [ -61.900750271994355, -12.674330343642328 ], [ -61.901019766579587, -12.674330343642328 ], [ -61.901019766579587, -12.674599838227563 ], [ -61.901184823273276, -12.674599838227563 ], [ -61.901289261164827, -12.674275286698078 ], [ -61.901289261164827, -12.673791354471856 ], [ -61.901467374500143, -12.673791354471856 ], [ -61.90155875575006, -12.673596740997656 ], [ -61.90155875575006, -12.673252365301384 ], [ -61.901720458230805, -12.673252365301384 ], [ -61.901828250335299, -12.673022801840979 ], [ -61.901828250335299, -12.672713376130911 ], [ -61.901996277277355, -12.672713376130911 ], [ -61.902097744920532, -12.672545887901938 ], [ -61.902097744920532, -12.672174386960441 ], [ -61.901828250335299, -12.672174386960441 ], [ -61.901828250335299, -12.671635397789968 ], [ -61.902097744920532, -12.671635397789968 ], [ -61.902097744920532, -12.671365903204734 ], [ -61.902367239505772, -12.671365903204734 ], [ -61.902367239505772, -12.670557419449025 ] ] ], [ [ [ -61.880538178101666, -12.663281065647658 ], [ -61.880538178101666, -12.663820054818128 ], [ -61.880807672686899, -12.663820054818128 ], [ -61.880807672686899, -12.665437022329545 ], [ -61.881077167272139, -12.665437022329545 ], [ -61.881077167272139, -12.66570651691478 ], [ -61.882155145613083, -12.66570651691478 ], [ -61.882155145613083, -12.665437022329545 ], [ -61.882694134783549, -12.665437022329545 ], [ -61.882694134783549, -12.665167527744309 ], [ -61.882963629368788, -12.665167527744309 ], [ -61.882963629368788, -12.664628538573837 ], [ -61.883233123954021, -12.664628538573837 ], [ -61.883233123954021, -12.663820054818128 ], [ -61.883502618539261, -12.663820054818128 ], [ -61.883502618539261, -12.663550560232894 ], [ -61.883233123954021, -12.663550560232894 ], [ -61.883233123954021, -12.663011571062421 ], [ -61.882963629368788, -12.663011571062421 ], [ -61.882963629368788, -12.662742076477185 ], [ -61.882694134783549, -12.662742076477185 ], [ -61.882694134783549, -12.662472581891949 ], [ -61.882424640198316, -12.662472581891949 ], [ -61.882424640198316, -12.662203087306715 ], [ -61.882155145613083, -12.662203087306715 ], [ -61.882155145613083, -12.662742076477185 ], [ -61.881616156442604, -12.662742076477185 ], [ -61.881616156442604, -12.663011571062421 ], [ -61.880807672686899, -12.663011571062421 ], [ -61.880807672686899, -12.663281065647658 ], [ -61.880538178101666, -12.663281065647658 ] ] ], [ [ [ -61.911260560818555, -12.647919874289213 ], [ -61.911260560818555, -12.64818936887445 ], [ -61.911530055403787, -12.64818936887445 ], [ -61.911530055403787, -12.648458863459686 ], [ -61.911799549989027, -12.648458863459686 ], [ -61.911799549989027, -12.64872835804492 ], [ -61.91206904457426, -12.64872835804492 ], [ -61.91206904457426, -12.649267347215392 ], [ -61.912338539159492, -12.649267347215392 ], [ -61.912338539159492, -12.650075830971101 ], [ -61.91206904457426, -12.650075830971101 ], [ -61.91206904457426, -12.650614820141572 ], [ -61.911530055403787, -12.650614820141572 ], [ -61.911530055403787, -12.650884314726808 ], [ -61.910991066233315, -12.650884314726808 ], [ -61.910991066233315, -12.651153809312044 ], [ -61.910452077062843, -12.651153809312044 ], [ -61.910452077062843, -12.65142330389728 ], [ -61.90991308789237, -12.65142330389728 ], [ -61.90991308789237, -12.651153809312044 ], [ -61.909643593307138, -12.651153809312044 ], [ -61.909643593307138, -12.650614820141572 ], [ -61.909374098721898, -12.650614820141572 ], [ -61.909374098721898, -12.650075830971101 ], [ -61.909104604136665, -12.650075830971101 ], [ -61.909104604136665, -12.654118249749638 ], [ -61.909374098721898, -12.654118249749638 ], [ -61.909374098721898, -12.65654370101676 ], [ -61.909643593307138, -12.65654370101676 ], [ -61.909643593307138, -12.658430163113412 ], [ -61.90991308789237, -12.658430163113412 ], [ -61.90991308789237, -12.658699657698648 ], [ -61.909643593307138, -12.658699657698648 ], [ -61.909643593307138, -12.65923864686912 ], [ -61.909374098721898, -12.65923864686912 ], [ -61.909374098721898, -12.660316625210063 ], [ -61.909643593307138, -12.660316625210063 ], [ -61.909643593307138, -12.660586119795298 ], [ -61.90991308789237, -12.660586119795298 ], [ -61.90991308789237, -12.660855614380534 ], [ -61.91018258247761, -12.660855614380534 ], [ -61.91018258247761, -12.660586119795298 ], [ -61.910452077062843, -12.660586119795298 ], [ -61.910452077062843, -12.659508141454355 ], [ -61.910721571648082, -12.659508141454355 ], [ -61.910721571648082, -12.657891173942939 ], [ -61.911260560818555, -12.657891173942939 ], [ -61.911260560818555, -12.657621679357703 ], [ -61.911799549989027, -12.657621679357703 ], [ -61.911799549989027, -12.657082690187233 ], [ -61.910452077062843, -12.657082690187233 ], [ -61.910452077062843, -12.656813195601996 ], [ -61.91018258247761, -12.656813195601996 ], [ -61.91018258247761, -12.65654370101676 ], [ -61.90991308789237, -12.65654370101676 ], [ -61.90991308789237, -12.655196228090581 ], [ -61.91018258247761, -12.655196228090581 ], [ -61.91018258247761, -12.654926733505345 ], [ -61.910452077062843, -12.654926733505345 ], [ -61.910452077062843, -12.654657238920109 ], [ -61.911260560818555, -12.654657238920109 ], [ -61.911260560818555, -12.654926733505345 ], [ -61.91206904457426, -12.654926733505345 ], [ -61.91206904457426, -12.654657238920109 ], [ -61.912338539159492, -12.654657238920109 ], [ -61.912338539159492, -12.654118249749638 ], [ -61.912608033744732, -12.654118249749638 ], [ -61.912608033744732, -12.653848755164402 ], [ -61.912877528329965, -12.653848755164402 ], [ -61.912877528329965, -12.653579260579166 ], [ -61.913147022915204, -12.653579260579166 ], [ -61.913147022915204, -12.651962293067751 ], [ -61.912877528329965, -12.651962293067751 ], [ -61.912877528329965, -12.651692798482514 ], [ -61.912608033744732, -12.651692798482514 ], [ -61.912608033744732, -12.65142330389728 ], [ -61.912338539159492, -12.65142330389728 ], [ -61.912338539159492, -12.650614820141572 ], [ -61.912608033744732, -12.650614820141572 ], [ -61.912608033744732, -12.650345325556337 ], [ -61.912877528329965, -12.650345325556337 ], [ -61.912877528329965, -12.650075830971101 ], [ -61.913147022915204, -12.650075830971101 ], [ -61.913147022915204, -12.649806336385865 ], [ -61.912877528329965, -12.649806336385865 ], [ -61.912877528329965, -12.649536841800629 ], [ -61.913147022915204, -12.649536841800629 ], [ -61.913147022915204, -12.649267347215392 ], [ -61.912877528329965, -12.649267347215392 ], [ -61.912877528329965, -12.648997852630156 ], [ -61.913147022915204, -12.648997852630156 ], [ -61.913147022915204, -12.647650379703977 ], [ -61.91206904457426, -12.647650379703977 ], [ -61.91206904457426, -12.647380885118741 ], [ -61.911799549989027, -12.647380885118741 ], [ -61.911799549989027, -12.646302906777798 ], [ -61.911530055403787, -12.646302906777798 ], [ -61.911530055403787, -12.645224928436855 ], [ -61.911260560818555, -12.645224928436855 ], [ -61.911260560818555, -12.644146950095912 ], [ -61.910991066233315, -12.644146950095912 ], [ -61.910991066233315, -12.64549442302209 ], [ -61.910721571648082, -12.64549442302209 ], [ -61.910721571648082, -12.647380885118741 ], [ -61.910991066233315, -12.647380885118741 ], [ -61.910991066233315, -12.647919874289213 ], [ -61.911260560818555, -12.647919874289213 ] ] ], [ [ [ -61.911530055403787, -12.636601101709307 ], [ -61.911530055403787, -12.636870596294543 ], [ -61.911799549989027, -12.636870596294543 ], [ -61.911799549989027, -12.637140090879779 ], [ -61.91206904457426, -12.637140090879779 ], [ -61.91206904457426, -12.638487563805958 ], [ -61.912338539159492, -12.638487563805958 ], [ -61.912338539159492, -12.638757058391194 ], [ -61.912608033744732, -12.638757058391194 ], [ -61.912608033744732, -12.639565542146901 ], [ -61.91206904457426, -12.639565542146901 ], [ -61.91206904457426, -12.639835036732137 ], [ -61.911260560818555, -12.639835036732137 ], [ -61.911260560818555, -12.640104531317373 ], [ -61.910991066233315, -12.640104531317373 ], [ -61.910991066233315, -12.640643520487846 ], [ -61.910721571648082, -12.640643520487846 ], [ -61.910721571648082, -12.640913015073082 ], [ -61.910452077062843, -12.640913015073082 ], [ -61.910452077062843, -12.641182509658318 ], [ -61.90991308789237, -12.641182509658318 ], [ -61.90991308789237, -12.643877455510676 ], [ -61.91018258247761, -12.643877455510676 ], [ -61.91018258247761, -12.64360796092544 ], [ -61.910452077062843, -12.64360796092544 ], [ -61.910452077062843, -12.643877455510676 ], [ -61.910721571648082, -12.643877455510676 ], [ -61.910721571648082, -12.644146950095912 ], [ -61.910991066233315, -12.644146950095912 ], [ -61.910991066233315, -12.64360796092544 ], [ -61.910721571648082, -12.64360796092544 ], [ -61.910721571648082, -12.643068971754968 ], [ -61.910452077062843, -12.643068971754968 ], [ -61.910452077062843, -12.641721498828788 ], [ -61.910721571648082, -12.641721498828788 ], [ -61.910721571648082, -12.641452004243552 ], [ -61.910991066233315, -12.641452004243552 ], [ -61.910991066233315, -12.641182509658318 ], [ -61.911260560818555, -12.641182509658318 ], [ -61.911260560818555, -12.640913015073082 ], [ -61.911530055403787, -12.640913015073082 ], [ -61.911530055403787, -12.640643520487846 ], [ -61.912338539159492, -12.640643520487846 ], [ -61.912338539159492, -12.641182509658318 ], [ -61.912608033744732, -12.641182509658318 ], [ -61.912608033744732, -12.641452004243552 ], [ -61.913147022915204, -12.641452004243552 ], [ -61.913147022915204, -12.641182509658318 ], [ -61.912877528329965, -12.641182509658318 ], [ -61.912877528329965, -12.640913015073082 ], [ -61.913147022915204, -12.640913015073082 ], [ -61.913147022915204, -12.640643520487846 ], [ -61.912877528329965, -12.640643520487846 ], [ -61.912877528329965, -12.640374025902609 ], [ -61.913147022915204, -12.640374025902609 ], [ -61.913147022915204, -12.63902655297643 ], [ -61.913416517500437, -12.63902655297643 ], [ -61.913416517500437, -12.638487563805958 ], [ -61.913147022915204, -12.638487563805958 ], [ -61.913147022915204, -12.638218069220724 ], [ -61.912608033744732, -12.638218069220724 ], [ -61.912608033744732, -12.637409585465015 ], [ -61.912338539159492, -12.637409585465015 ], [ -61.912338539159492, -12.636601101709307 ], [ -61.91206904457426, -12.636601101709307 ], [ -61.91206904457426, -12.636331607124072 ], [ -61.911799549989027, -12.636331607124072 ], [ -61.911799549989027, -12.636062112538836 ], [ -61.911260560818555, -12.636062112538836 ], [ -61.911260560818555, -12.635523123368364 ], [ -61.910991066233315, -12.635523123368364 ], [ -61.910991066233315, -12.635253628783129 ], [ -61.910721571648082, -12.635253628783129 ], [ -61.910721571648082, -12.636062112538836 ], [ -61.910991066233315, -12.636062112538836 ], [ -61.910991066233315, -12.636331607124072 ], [ -61.911260560818555, -12.636331607124072 ], [ -61.911260560818555, -12.636601101709307 ], [ -61.911530055403787, -12.636601101709307 ] ] ], [ [ [ -61.910721571648082, -12.635253628783129 ], [ -61.910721571648082, -12.634445145027421 ], [ -61.910452077062843, -12.634445145027421 ], [ -61.910452077062843, -12.635253628783129 ], [ -61.910721571648082, -12.635253628783129 ] ] ], [ [ [ -61.90991308789237, -12.634714639612657 ], [ -61.90991308789237, -12.634445145027421 ], [ -61.909643593307138, -12.634445145027421 ], [ -61.909643593307138, -12.634714639612657 ], [ -61.90991308789237, -12.634714639612657 ] ] ], [ [ [ -61.910452077062843, -12.634445145027421 ], [ -61.910452077062843, -12.634175650442184 ], [ -61.90991308789237, -12.634175650442184 ], [ -61.90991308789237, -12.634445145027421 ], [ -61.910452077062843, -12.634445145027421 ] ] ], [ [ [ -61.909104604136665, -12.627438285811287 ], [ -61.909104604136665, -12.627168791226053 ], [ -61.909374098721898, -12.627168791226053 ], [ -61.909374098721898, -12.62662980205558 ], [ -61.909104604136665, -12.62662980205558 ], [ -61.909104604136665, -12.626360307470344 ], [ -61.908565614966193, -12.626360307470344 ], [ -61.908565614966193, -12.62609081288511 ], [ -61.90829612038096, -12.62609081288511 ], [ -61.90829612038096, -12.625821318299874 ], [ -61.908026625795721, -12.625821318299874 ], [ -61.908026625795721, -12.625551823714638 ], [ -61.907757131210488, -12.625551823714638 ], [ -61.907757131210488, -12.625282329129401 ], [ -61.907218142040016, -12.625282329129401 ], [ -61.907218142040016, -12.625821318299874 ], [ -61.907487636625248, -12.625821318299874 ], [ -61.907487636625248, -12.627168791226053 ], [ -61.907757131210488, -12.627168791226053 ], [ -61.907757131210488, -12.627438285811287 ], [ -61.909104604136665, -12.627438285811287 ] ] ], [ [ [ -61.909104604136665, -12.607765181089071 ], [ -61.909104604136665, -12.61046012694143 ], [ -61.909643593307138, -12.61046012694143 ], [ -61.909643593307138, -12.608573664844778 ], [ -61.90991308789237, -12.608573664844778 ], [ -61.90991308789237, -12.607226191918599 ], [ -61.91018258247761, -12.607226191918599 ], [ -61.91018258247761, -12.606956697333363 ], [ -61.910721571648082, -12.606956697333363 ], [ -61.910721571648082, -12.606687202748127 ], [ -61.91018258247761, -12.606687202748127 ], [ -61.91018258247761, -12.606417708162891 ], [ -61.90991308789237, -12.606417708162891 ], [ -61.90991308789237, -12.606687202748127 ], [ -61.909643593307138, -12.606687202748127 ], [ -61.909643593307138, -12.607226191918599 ], [ -61.909374098721898, -12.607226191918599 ], [ -61.909374098721898, -12.607765181089071 ], [ -61.909104604136665, -12.607765181089071 ] ] ], [ [ [ -61.914225001256149, -12.595907419338694 ], [ -61.914225001256149, -12.595637924753458 ], [ -61.913955506670909, -12.595637924753458 ], [ -61.913955506670909, -12.595907419338694 ], [ -61.914225001256149, -12.595907419338694 ] ] ], [ [ [ -61.913955506670909, -12.595637924753458 ], [ -61.913955506670909, -12.595368430168222 ], [ -61.913686012085677, -12.595368430168222 ], [ -61.913686012085677, -12.595637924753458 ], [ -61.913955506670909, -12.595637924753458 ] ] ], [ [ [ -61.911530055403787, -12.590787022219212 ], [ -61.911530055403787, -12.591056516804448 ], [ -61.91206904457426, -12.591056516804448 ], [ -61.91206904457426, -12.590787022219212 ], [ -61.912877528329965, -12.590787022219212 ], [ -61.912877528329965, -12.591056516804448 ], [ -61.913147022915204, -12.591056516804448 ], [ -61.913147022915204, -12.591326011389683 ], [ -61.913416517500437, -12.591326011389683 ], [ -61.913416517500437, -12.593751462656806 ], [ -61.913686012085677, -12.593751462656806 ], [ -61.913686012085677, -12.594290451827277 ], [ -61.913955506670909, -12.594290451827277 ], [ -61.913955506670909, -12.595368430168222 ], [ -61.914225001256149, -12.595368430168222 ], [ -61.914225001256149, -12.593751462656806 ], [ -61.913955506670909, -12.593751462656806 ], [ -61.913955506670909, -12.591326011389683 ], [ -61.913686012085677, -12.591326011389683 ], [ -61.913686012085677, -12.59024803304874 ], [ -61.913416517500437, -12.59024803304874 ], [ -61.913416517500437, -12.589978538463505 ], [ -61.912608033744732, -12.589978538463505 ], [ -61.912608033744732, -12.59024803304874 ], [ -61.91206904457426, -12.59024803304874 ], [ -61.91206904457426, -12.590517527633976 ], [ -61.911799549989027, -12.590517527633976 ], [ -61.911799549989027, -12.590787022219212 ], [ -61.911530055403787, -12.590787022219212 ] ] ], [ [ [ -61.913147022915204, -12.585397130514494 ], [ -61.913147022915204, -12.585127635929259 ], [ -61.912608033744732, -12.585127635929259 ], [ -61.912608033744732, -12.585397130514494 ], [ -61.913147022915204, -12.585397130514494 ] ] ], [ [ [ -61.913147022915204, -12.584858141344023 ], [ -61.913147022915204, -12.585127635929259 ], [ -61.913686012085677, -12.585127635929259 ], [ -61.913686012085677, -12.584858141344023 ], [ -61.913955506670909, -12.584858141344023 ], [ -61.913955506670909, -12.584588646758787 ], [ -61.913686012085677, -12.584588646758787 ], [ -61.913686012085677, -12.58378016300308 ], [ -61.913416517500437, -12.58378016300308 ], [ -61.913416517500437, -12.583241173832608 ], [ -61.913147022915204, -12.583241173832608 ], [ -61.913147022915204, -12.583093770520769 ], [ -61.913029104571862, -12.582971679247372 ], [ -61.912877528329965, -12.582971679247372 ], [ -61.912877528329965, -12.583510668417844 ], [ -61.913147022915204, -12.583510668417844 ], [ -61.913147022915204, -12.584049657588317 ], [ -61.913416517500437, -12.584049657588317 ], [ -61.913416517500437, -12.584858141344023 ], [ -61.913147022915204, -12.584858141344023 ] ] ], [ [ [ -61.912608033744732, -12.582971679247372 ], [ -61.912877528329965, -12.582971679247372 ], [ -61.912877528329965, -12.582814738979517 ], [ -61.912768820981171, -12.582702184662136 ], [ -61.912608033744732, -12.582702184662136 ], [ -61.912608033744732, -12.582971679247372 ] ] ], [ [ [ -61.893204423607749, -12.566532509547985 ], [ -61.893204423607749, -12.566802004133221 ], [ -61.894282401948693, -12.566802004133221 ], [ -61.894282401948693, -12.566532509547985 ], [ -61.894551896533926, -12.566532509547985 ], [ -61.894551896533926, -12.565185036621806 ], [ -61.893743412778221, -12.565185036621806 ], [ -61.893743412778221, -12.565454531207042 ], [ -61.893204423607749, -12.565454531207042 ], [ -61.893204423607749, -12.565724025792278 ], [ -61.892934929022516, -12.565724025792278 ], [ -61.892934929022516, -12.566532509547985 ], [ -61.893204423607749, -12.566532509547985 ] ] ], [ [ [ -61.898055326141993, -12.564107058280861 ], [ -61.898055326141993, -12.564376552866097 ], [ -61.899133304482937, -12.564376552866097 ], [ -61.899133304482937, -12.564107058280861 ], [ -61.899402799068177, -12.564107058280861 ], [ -61.899402799068177, -12.56356806911039 ], [ -61.899133304482937, -12.56356806911039 ], [ -61.899133304482937, -12.563298574525154 ], [ -61.898324820727233, -12.563298574525154 ], [ -61.898324820727233, -12.563837563695627 ], [ -61.898594315312465, -12.563837563695627 ], [ -61.898594315312465, -12.56356806911039 ], [ -61.898863809897705, -12.56356806911039 ], [ -61.898863809897705, -12.564107058280861 ], [ -61.898055326141993, -12.564107058280861 ] ] ], [ [ [ -61.894821391119166, -12.563298574525154 ], [ -61.894821391119166, -12.564376552866097 ], [ -61.895090885704398, -12.564376552866097 ], [ -61.895090885704398, -12.564915542036569 ], [ -61.895629874874871, -12.564915542036569 ], [ -61.895629874874871, -12.565454531207042 ], [ -61.895899369460111, -12.565454531207042 ], [ -61.895899369460111, -12.565724025792278 ], [ -61.895629874874871, -12.565724025792278 ], [ -61.895629874874871, -12.566263014962749 ], [ -61.895899369460111, -12.566263014962749 ], [ -61.895899369460111, -12.566532509547985 ], [ -61.896168864045343, -12.566532509547985 ], [ -61.896168864045343, -12.565993520377512 ], [ -61.896438358630583, -12.565993520377512 ], [ -61.896438358630583, -12.565454531207042 ], [ -61.896707853215815, -12.565454531207042 ], [ -61.896707853215815, -12.565185036621806 ], [ -61.897246842386288, -12.565185036621806 ], [ -61.897246842386288, -12.564915542036569 ], [ -61.896977347801055, -12.564915542036569 ], [ -61.896977347801055, -12.564646047451333 ], [ -61.896168864045343, -12.564646047451333 ], [ -61.896168864045343, -12.564376552866097 ], [ -61.895629874874871, -12.564376552866097 ], [ -61.895629874874871, -12.564107058280861 ], [ -61.896168864045343, -12.564107058280861 ], [ -61.896168864045343, -12.563837563695627 ], [ -61.896438358630583, -12.563837563695627 ], [ -61.896438358630583, -12.563298574525154 ], [ -61.896168864045343, -12.563298574525154 ], [ -61.896168864045343, -12.562490090769447 ], [ -61.895629874874871, -12.562490090769447 ], [ -61.895629874874871, -12.561951101598975 ], [ -61.895360380289638, -12.561951101598975 ], [ -61.895360380289638, -12.561681607013739 ], [ -61.895629874874871, -12.561681607013739 ], [ -61.895629874874871, -12.561142617843267 ], [ -61.895090885704398, -12.561142617843267 ], [ -61.895090885704398, -12.561412112428503 ], [ -61.894821391119166, -12.561412112428503 ], [ -61.894821391119166, -12.561681607013739 ], [ -61.895090885704398, -12.561681607013739 ], [ -61.895090885704398, -12.563298574525154 ], [ -61.894821391119166, -12.563298574525154 ] ] ], [ [ [ -61.895629874874871, -12.558447671990908 ], [ -61.895629874874871, -12.558986661161381 ], [ -61.895360380289638, -12.558986661161381 ], [ -61.895360380289638, -12.559795144917089 ], [ -61.895629874874871, -12.559795144917089 ], [ -61.895629874874871, -12.560064639502324 ], [ -61.896438358630583, -12.560064639502324 ], [ -61.896438358630583, -12.559795144917089 ], [ -61.896977347801055, -12.559795144917089 ], [ -61.896977347801055, -12.559525650331853 ], [ -61.89751633697152, -12.559525650331853 ], [ -61.89751633697152, -12.558986661161381 ], [ -61.89778583155676, -12.558986661161381 ], [ -61.89778583155676, -12.558717166576145 ], [ -61.898055326141993, -12.558717166576145 ], [ -61.898055326141993, -12.558447671990908 ], [ -61.89778583155676, -12.558447671990908 ], [ -61.89778583155676, -12.558178177405672 ], [ -61.89751633697152, -12.558178177405672 ], [ -61.89751633697152, -12.557908682820438 ], [ -61.896977347801055, -12.557908682820438 ], [ -61.896977347801055, -12.557639188235202 ], [ -61.896707853215815, -12.557639188235202 ], [ -61.896707853215815, -12.557908682820438 ], [ -61.896168864045343, -12.557908682820438 ], [ -61.896168864045343, -12.558178177405672 ], [ -61.895899369460111, -12.558178177405672 ], [ -61.895899369460111, -12.558447671990908 ], [ -61.895629874874871, -12.558447671990908 ] ] ], [ [ [ -61.896977347801055, -12.533384675563974 ], [ -61.896977347801055, -12.533115180978738 ], [ -61.897246842386288, -12.533115180978738 ], [ -61.897246842386288, -12.531510463151427 ], [ -61.897244881160205, -12.531498213467323 ], [ -61.896977347801055, -12.531498213467323 ], [ -61.896977347801055, -12.531767708052559 ], [ -61.896707853215815, -12.531767708052559 ], [ -61.896707853215815, -12.532037202637795 ], [ -61.895899369460111, -12.532037202637795 ], [ -61.895899369460111, -12.532306697223031 ], [ -61.895629874874871, -12.532306697223031 ], [ -61.895629874874871, -12.534732148490153 ], [ -61.895899369460111, -12.534732148490153 ], [ -61.895899369460111, -12.53500164307539 ], [ -61.896168864045343, -12.53500164307539 ], [ -61.896168864045343, -12.535271137660626 ], [ -61.896438358630583, -12.535271137660626 ], [ -61.896438358630583, -12.535540632245862 ], [ -61.896707853215815, -12.535540632245862 ], [ -61.896707853215815, -12.535810126831098 ], [ -61.896977347801055, -12.535810126831098 ], [ -61.896977347801055, -12.536079621416333 ], [ -61.897246842386288, -12.536079621416333 ], [ -61.897246842386288, -12.536618610586805 ], [ -61.89751633697152, -12.536618610586805 ], [ -61.89751633697152, -12.536888105172041 ], [ -61.898055326141993, -12.536888105172041 ], [ -61.898055326141993, -12.536560197440297 ], [ -61.897935236674215, -12.535810126831098 ], [ -61.89778583155676, -12.535810126831098 ], [ -61.89778583155676, -12.534876952677354 ], [ -61.897719500576088, -12.534462653904917 ], [ -61.89751633697152, -12.534462653904917 ], [ -61.89751633697152, -12.534193159319681 ], [ -61.896977347801055, -12.534193159319681 ], [ -61.896977347801055, -12.533923664734447 ], [ -61.896707853215815, -12.533923664734447 ], [ -61.896707853215815, -12.533384675563974 ], [ -61.896977347801055, -12.533384675563974 ] ] ], [ [ [ -61.877843232249305, -12.675947311153742 ], [ -61.877843232249305, -12.676486300324214 ], [ -61.878112726834544, -12.676486300324214 ], [ -61.878112726834544, -12.677025289494686 ], [ -61.87865171600501, -12.677025289494686 ], [ -61.87865171600501, -12.677294784079923 ], [ -61.878921210590249, -12.677294784079923 ], [ -61.878921210590249, -12.677025289494686 ], [ -61.879190705175489, -12.677025289494686 ], [ -61.879190705175489, -12.676486300324214 ], [ -61.879460199760722, -12.676486300324214 ], [ -61.879460199760722, -12.675408321983271 ], [ -61.879190705175489, -12.675408321983271 ], [ -61.879190705175489, -12.675138827398035 ], [ -61.878921210590249, -12.675138827398035 ], [ -61.878921210590249, -12.674869332812799 ], [ -61.878112726834544, -12.674869332812799 ], [ -61.878112726834544, -12.675138827398035 ], [ -61.878382221419777, -12.675138827398035 ], [ -61.878382221419777, -12.675408321983271 ], [ -61.878112726834544, -12.675408321983271 ], [ -61.878112726834544, -12.675947311153742 ], [ -61.877843232249305, -12.675947311153742 ] ] ], [ [ [ -61.859248105868033, -12.675138827398035 ], [ -61.859248105868033, -12.675677816568506 ], [ -61.858709116697561, -12.675677816568506 ], [ -61.858709116697561, -12.675947311153742 ], [ -61.858439622112321, -12.675947311153742 ], [ -61.858439622112321, -12.676216805738978 ], [ -61.857900632941849, -12.676216805738978 ], [ -61.857900632941849, -12.676486300324214 ], [ -61.857631138356616, -12.676486300324214 ], [ -61.857631138356616, -12.67675579490945 ], [ -61.857900632941849, -12.67675579490945 ], [ -61.857900632941849, -12.677025289494686 ], [ -61.859248105868033, -12.677025289494686 ], [ -61.859248105868033, -12.677294784079923 ], [ -61.859787095038506, -12.677294784079923 ], [ -61.859787095038506, -12.677564278665157 ], [ -61.860056589623738, -12.677564278665157 ], [ -61.860056589623738, -12.677294784079923 ], [ -61.860326084208978, -12.677294784079923 ], [ -61.860326084208978, -12.675677816568506 ], [ -61.860595578794211, -12.675677816568506 ], [ -61.860595578794211, -12.675408321983271 ], [ -61.861134567964683, -12.675408321983271 ], [ -61.861134567964683, -12.675138827398035 ], [ -61.861404062549916, -12.675138827398035 ], [ -61.861404062549916, -12.674869332812799 ], [ -61.861673557135155, -12.674869332812799 ], [ -61.861673557135155, -12.674599838227563 ], [ -61.861404062549916, -12.674599838227563 ], [ -61.861404062549916, -12.674330343642328 ], [ -61.861134567964683, -12.674330343642328 ], [ -61.861134567964683, -12.674599838227563 ], [ -61.860595578794211, -12.674599838227563 ], [ -61.860595578794211, -12.674869332812799 ], [ -61.859787095038506, -12.674869332812799 ], [ -61.859787095038506, -12.675138827398035 ], [ -61.859248105868033, -12.675138827398035 ] ] ], [ [ [ -61.873531318885533, -12.673791354471856 ], [ -61.873531318885533, -12.674060849057092 ], [ -61.875417780982183, -12.674060849057092 ], [ -61.875417780982183, -12.674330343642328 ], [ -61.875687275567415, -12.674330343642328 ], [ -61.875687275567415, -12.674599838227563 ], [ -61.876495759323127, -12.674599838227563 ], [ -61.876495759323127, -12.674869332812799 ], [ -61.878112726834544, -12.674869332812799 ], [ -61.878112726834544, -12.674330343642328 ], [ -61.878382221419777, -12.674330343642328 ], [ -61.878382221419777, -12.673791354471856 ], [ -61.879729694345954, -12.673791354471856 ], [ -61.879729694345954, -12.67352185988662 ], [ -61.879999188931194, -12.67352185988662 ], [ -61.879999188931194, -12.673252365301384 ], [ -61.880268683516427, -12.673252365301384 ], [ -61.880268683516427, -12.672713376130911 ], [ -61.879999188931194, -12.672713376130911 ], [ -61.879999188931194, -12.672443881545677 ], [ -61.879729694345954, -12.672443881545677 ], [ -61.879729694345954, -12.672174386960441 ], [ -61.878921210590249, -12.672174386960441 ], [ -61.878921210590249, -12.671904892375204 ], [ -61.87487879181171, -12.671904892375204 ], [ -61.87487879181171, -12.671635397789968 ], [ -61.873800813470766, -12.671635397789968 ], [ -61.873800813470766, -12.671904892375204 ], [ -61.873531318885533, -12.671904892375204 ], [ -61.873531318885533, -12.672174386960441 ], [ -61.8732618243003, -12.672174386960441 ], [ -61.8732618243003, -12.673791354471856 ], [ -61.873531318885533, -12.673791354471856 ] ] ], [ [ [ -61.669254423276755, -12.619353448254213 ], [ -61.669254423276755, -12.619622942839449 ], [ -61.669523917861987, -12.619622942839449 ], [ -61.669523917861987, -12.619892437424685 ], [ -61.669793412447227, -12.619892437424685 ], [ -61.669793412447227, -12.620431426595156 ], [ -61.67006290703246, -12.620431426595156 ], [ -61.67006290703246, -12.620700921180392 ], [ -61.670332401617699, -12.620700921180392 ], [ -61.670332401617699, -12.620970415765628 ], [ -61.671679874543877, -12.620970415765628 ], [ -61.671679874543877, -12.621239910350864 ], [ -61.671410379958637, -12.621239910350864 ], [ -61.671410379958637, -12.621509404936099 ], [ -61.671679874543877, -12.621509404936099 ], [ -61.671679874543877, -12.621778899521335 ], [ -61.671949369129109, -12.621778899521335 ], [ -61.671949369129109, -12.622048394106571 ], [ -61.671679874543877, -12.622048394106571 ], [ -61.671679874543877, -12.622317888691807 ], [ -61.671949369129109, -12.622317888691807 ], [ -61.671949369129109, -12.622587383277043 ], [ -61.671410379958637, -12.622587383277043 ], [ -61.671410379958637, -12.622856877862279 ], [ -61.670332401617699, -12.622856877862279 ], [ -61.670332401617699, -12.623126372447516 ], [ -61.67006290703246, -12.623126372447516 ], [ -61.67006290703246, -12.623934856203222 ], [ -61.670332401617699, -12.623934856203222 ], [ -61.670332401617699, -12.624204350788458 ], [ -61.670871390788164, -12.624204350788458 ], [ -61.670871390788164, -12.624473845373693 ], [ -61.671410379958637, -12.624473845373693 ], [ -61.671410379958637, -12.624743339958929 ], [ -61.673296842055294, -12.624743339958929 ], [ -61.673296842055294, -12.625012834544165 ], [ -61.675452798737176, -12.625012834544165 ], [ -61.675452798737176, -12.624743339958929 ], [ -61.675722293322416, -12.624743339958929 ], [ -61.675722293322416, -12.624473845373693 ], [ -61.675991787907648, -12.624473845373693 ], [ -61.675991787907648, -12.623665361617986 ], [ -61.676261282492888, -12.623665361617986 ], [ -61.676261282492888, -12.622587383277043 ], [ -61.675991787907648, -12.622587383277043 ], [ -61.675991787907648, -12.622048394106571 ], [ -61.675722293322416, -12.622048394106571 ], [ -61.675722293322416, -12.621509404936099 ], [ -61.675452798737176, -12.621509404936099 ], [ -61.675452798737176, -12.621239910350864 ], [ -61.675183304151943, -12.621239910350864 ], [ -61.675183304151943, -12.620970415765628 ], [ -61.675452798737176, -12.620970415765628 ], [ -61.675452798737176, -12.620700921180392 ], [ -61.675183304151943, -12.620700921180392 ], [ -61.675183304151943, -12.619892437424685 ], [ -61.674913809566704, -12.619892437424685 ], [ -61.674913809566704, -12.619622942839449 ], [ -61.674374820396238, -12.619622942839449 ], [ -61.674374820396238, -12.619353448254213 ], [ -61.674105325810999, -12.619353448254213 ], [ -61.674105325810999, -12.619622942839449 ], [ -61.673566336640526, -12.619622942839449 ], [ -61.673566336640526, -12.619892437424685 ], [ -61.673027347470054, -12.619892437424685 ], [ -61.673027347470054, -12.620161932009921 ], [ -61.672488358299582, -12.620161932009921 ], [ -61.672488358299582, -12.619622942839449 ], [ -61.672218863714349, -12.619622942839449 ], [ -61.672218863714349, -12.619353448254213 ], [ -61.672488358299582, -12.619353448254213 ], [ -61.672488358299582, -12.619083953668977 ], [ -61.672218863714349, -12.619083953668977 ], [ -61.672218863714349, -12.61881445908374 ], [ -61.671679874543877, -12.61881445908374 ], [ -61.671679874543877, -12.618544964498504 ], [ -61.671410379958637, -12.618544964498504 ], [ -61.671410379958637, -12.61881445908374 ], [ -61.67006290703246, -12.61881445908374 ], [ -61.67006290703246, -12.618544964498504 ], [ -61.669793412447227, -12.618544964498504 ], [ -61.669793412447227, -12.61827546991327 ], [ -61.669254423276755, -12.61827546991327 ], [ -61.669254423276755, -12.618005975328034 ], [ -61.668984928691515, -12.618005975328034 ], [ -61.668984928691515, -12.61827546991327 ], [ -61.668715434106282, -12.61827546991327 ], [ -61.668715434106282, -12.61881445908374 ], [ -61.668984928691515, -12.61881445908374 ], [ -61.668984928691515, -12.619353448254213 ], [ -61.669254423276755, -12.619353448254213 ] ] ], [ [ [ -61.650120307725004, -12.615311029475675 ], [ -61.650120307725004, -12.61558052406091 ], [ -61.649850813139771, -12.61558052406091 ], [ -61.649850813139771, -12.616119513231382 ], [ -61.650120307725004, -12.616119513231382 ], [ -61.650120307725004, -12.616389007816618 ], [ -61.650659296895476, -12.616389007816618 ], [ -61.650659296895476, -12.616658502401854 ], [ -61.651198286065949, -12.616658502401854 ], [ -61.651198286065949, -12.616927996987091 ], [ -61.651467780651188, -12.616927996987091 ], [ -61.651467780651188, -12.617197491572327 ], [ -61.651737275236421, -12.617197491572327 ], [ -61.651737275236421, -12.617466986157561 ], [ -61.652276264406893, -12.617466986157561 ], [ -61.652276264406893, -12.617736480742797 ], [ -61.652815253577366, -12.617736480742797 ], [ -61.652815253577366, -12.618005975328034 ], [ -61.653623737333071, -12.618005975328034 ], [ -61.653623737333071, -12.61827546991327 ], [ -61.65389323191831, -12.61827546991327 ], [ -61.65389323191831, -12.618005975328034 ], [ -61.654162726503543, -12.618005975328034 ], [ -61.654162726503543, -12.617736480742797 ], [ -61.65389323191831, -12.617736480742797 ], [ -61.65389323191831, -12.617466986157561 ], [ -61.653623737333071, -12.617466986157561 ], [ -61.653623737333071, -12.616658502401854 ], [ -61.653354242747838, -12.616658502401854 ], [ -61.653354242747838, -12.616119513231382 ], [ -61.653084748162598, -12.616119513231382 ], [ -61.653084748162598, -12.615850018646146 ], [ -61.652545758992133, -12.615850018646146 ], [ -61.652545758992133, -12.61558052406091 ], [ -61.652006769821661, -12.61558052406091 ], [ -61.652006769821661, -12.615311029475675 ], [ -61.651467780651188, -12.615311029475675 ], [ -61.651467780651188, -12.615041534890439 ], [ -61.651198286065949, -12.615041534890439 ], [ -61.651198286065949, -12.615311029475675 ], [ -61.650928791480716, -12.615311029475675 ], [ -61.650928791480716, -12.615041534890439 ], [ -61.650659296895476, -12.615041534890439 ], [ -61.650659296895476, -12.615311029475675 ], [ -61.650120307725004, -12.615311029475675 ] ] ], [ [ [ -61.872453340544588, -12.590787022219212 ], [ -61.872453340544588, -12.590517527633976 ], [ -61.872992329715061, -12.590517527633976 ], [ -61.872992329715061, -12.59024803304874 ], [ -61.873531318885533, -12.59024803304874 ], [ -61.873531318885533, -12.589978538463505 ], [ -61.872722835129821, -12.589978538463505 ], [ -61.872722835129821, -12.589439549293033 ], [ -61.872183845959356, -12.589439549293033 ], [ -61.872183845959356, -12.589978538463505 ], [ -61.871914351374116, -12.589978538463505 ], [ -61.871914351374116, -12.590517527633976 ], [ -61.872183845959356, -12.590517527633976 ], [ -61.872183845959356, -12.590787022219212 ], [ -61.872453340544588, -12.590787022219212 ] ] ], [ [ [ -61.873800813470766, -12.589978538463505 ], [ -61.873800813470766, -12.589709043878269 ], [ -61.873531318885533, -12.589709043878269 ], [ -61.873531318885533, -12.589978538463505 ], [ -61.873800813470766, -12.589978538463505 ] ] ], [ [ [ -61.671949369129109, -12.564646047451333 ], [ -61.671949369129109, -12.564915542036569 ], [ -61.671410379958637, -12.564915542036569 ], [ -61.671410379958637, -12.565185036621806 ], [ -61.671140885373404, -12.565185036621806 ], [ -61.671140885373404, -12.565724025792278 ], [ -61.670871390788164, -12.565724025792278 ], [ -61.670871390788164, -12.565993520377512 ], [ -61.670332401617699, -12.565993520377512 ], [ -61.670332401617699, -12.566263014962749 ], [ -61.669793412447227, -12.566263014962749 ], [ -61.669793412447227, -12.566532509547985 ], [ -61.669254423276755, -12.566532509547985 ], [ -61.669254423276755, -12.567340993303691 ], [ -61.671679874543877, -12.567340993303691 ], [ -61.671679874543877, -12.567610487888928 ], [ -61.671949369129109, -12.567610487888928 ], [ -61.671949369129109, -12.567879982474164 ], [ -61.672488358299582, -12.567879982474164 ], [ -61.672488358299582, -12.5681494770594 ], [ -61.672757852884821, -12.5681494770594 ], [ -61.672757852884821, -12.568418971644636 ], [ -61.673296842055294, -12.568418971644636 ], [ -61.673296842055294, -12.5681494770594 ], [ -61.673566336640526, -12.5681494770594 ], [ -61.673566336640526, -12.567879982474164 ], [ -61.673835831225759, -12.567879982474164 ], [ -61.673835831225759, -12.567610487888928 ], [ -61.674105325810999, -12.567610487888928 ], [ -61.674105325810999, -12.567340993303691 ], [ -61.674374820396238, -12.567340993303691 ], [ -61.674374820396238, -12.567071498718457 ], [ -61.674644314981471, -12.567071498718457 ], [ -61.674644314981471, -12.565724025792278 ], [ -61.674913809566704, -12.565724025792278 ], [ -61.674913809566704, -12.565454531207042 ], [ -61.674644314981471, -12.565454531207042 ], [ -61.674644314981471, -12.565185036621806 ], [ -61.674913809566704, -12.565185036621806 ], [ -61.674913809566704, -12.564646047451333 ], [ -61.674644314981471, -12.564646047451333 ], [ -61.674644314981471, -12.564376552866097 ], [ -61.673296842055294, -12.564376552866097 ], [ -61.673296842055294, -12.564646047451333 ], [ -61.672757852884821, -12.564646047451333 ], [ -61.672757852884821, -12.564376552866097 ], [ -61.672488358299582, -12.564376552866097 ], [ -61.672488358299582, -12.564646047451333 ], [ -61.671949369129109, -12.564646047451333 ] ], [ [ -61.674105325810999, -12.566263014962749 ], [ -61.673835831225759, -12.566263014962749 ], [ -61.673835831225759, -12.566532509547985 ], [ -61.673566336640526, -12.566532509547985 ], [ -61.673566336640526, -12.566802004133221 ], [ -61.673027347470054, -12.566802004133221 ], [ -61.673027347470054, -12.567071498718457 ], [ -61.671679874543877, -12.567071498718457 ], [ -61.671679874543877, -12.566802004133221 ], [ -61.671410379958637, -12.566802004133221 ], [ -61.671410379958637, -12.566263014962749 ], [ -61.671679874543877, -12.566263014962749 ], [ -61.671679874543877, -12.565993520377512 ], [ -61.671949369129109, -12.565993520377512 ], [ -61.671949369129109, -12.565454531207042 ], [ -61.672218863714349, -12.565454531207042 ], [ -61.672218863714349, -12.565185036621806 ], [ -61.672488358299582, -12.565185036621806 ], [ -61.672488358299582, -12.564915542036569 ], [ -61.673566336640526, -12.564915542036569 ], [ -61.673566336640526, -12.565185036621806 ], [ -61.674105325810999, -12.565185036621806 ], [ -61.674105325810999, -12.565454531207042 ], [ -61.674374820396238, -12.565454531207042 ], [ -61.674374820396238, -12.565724025792278 ], [ -61.674105325810999, -12.565724025792278 ], [ -61.674105325810999, -12.566263014962749 ] ] ], [ [ [ -61.648503340213594, -12.548745866922419 ], [ -61.648503340213594, -12.548476372337182 ], [ -61.647964351043122, -12.548476372337182 ], [ -61.647964351043122, -12.548745866922419 ], [ -61.648503340213594, -12.548745866922419 ] ] ], [ [ [ -61.649581318554539, -12.548206877751946 ], [ -61.649581318554539, -12.54793738316671 ], [ -61.649311823969299, -12.54793738316671 ], [ -61.649311823969299, -12.548206877751946 ], [ -61.648503340213594, -12.548206877751946 ], [ -61.648503340213594, -12.548476372337182 ], [ -61.649042329384066, -12.548476372337182 ], [ -61.649042329384066, -12.548745866922419 ], [ -61.649311823969299, -12.548745866922419 ], [ -61.649311823969299, -12.548476372337182 ], [ -61.649581318554539, -12.548476372337182 ], [ -61.649581318554539, -12.548745866922419 ], [ -61.649850813139771, -12.548745866922419 ], [ -61.649850813139771, -12.548476372337182 ], [ -61.650120307725004, -12.548476372337182 ], [ -61.650120307725004, -12.548745866922419 ], [ -61.650389802310244, -12.548745866922419 ], [ -61.650389802310244, -12.548476372337182 ], [ -61.650659296895476, -12.548476372337182 ], [ -61.650659296895476, -12.548745866922419 ], [ -61.651467780651188, -12.548745866922419 ], [ -61.651467780651188, -12.548206877751946 ], [ -61.650928791480716, -12.548206877751946 ], [ -61.650928791480716, -12.54793738316671 ], [ -61.650389802310244, -12.54793738316671 ], [ -61.650389802310244, -12.548206877751946 ], [ -61.650120307725004, -12.548206877751946 ], [ -61.650120307725004, -12.54793738316671 ], [ -61.649850813139771, -12.54793738316671 ], [ -61.649850813139771, -12.548206877751946 ], [ -61.649581318554539, -12.548206877751946 ] ] ], [ [ [ -61.647425361872649, -12.548476372337182 ], [ -61.647964351043122, -12.548476372337182 ], [ -61.647964351043122, -12.548206877751946 ], [ -61.647425361872649, -12.548206877751946 ], [ -61.647425361872649, -12.548476372337182 ] ] ], [ [ [ -61.643921932264583, -12.546050921070059 ], [ -61.643921932264583, -12.545781426484824 ], [ -61.644191426849815, -12.545781426484824 ], [ -61.644191426849815, -12.545242437314352 ], [ -61.643921932264583, -12.545242437314352 ], [ -61.643921932264583, -12.544972942729116 ], [ -61.64338294309411, -12.544972942729116 ], [ -61.64338294309411, -12.545242437314352 ], [ -61.643113448508878, -12.545242437314352 ], [ -61.643113448508878, -12.545781426484824 ], [ -61.64338294309411, -12.545781426484824 ], [ -61.64338294309411, -12.546050921070059 ], [ -61.643921932264583, -12.546050921070059 ] ] ], [ [ [ -61.644460921435055, -12.540391534780106 ], [ -61.644460921435055, -12.540661029365342 ], [ -61.64526940519076, -12.540661029365342 ], [ -61.64526940519076, -12.54012204019487 ], [ -61.645538899776, -12.54012204019487 ], [ -61.645538899776, -12.539852545609635 ], [ -61.645808394361232, -12.539852545609635 ], [ -61.645808394361232, -12.539313556439163 ], [ -61.645538899776, -12.539313556439163 ], [ -61.645538899776, -12.539583051024399 ], [ -61.64526940519076, -12.539583051024399 ], [ -61.64526940519076, -12.539852545609635 ], [ -61.644999910605527, -12.539852545609635 ], [ -61.644999910605527, -12.540391534780106 ], [ -61.644460921435055, -12.540391534780106 ] ] ], [ [ [ -61.64365243767935, -12.538774567268693 ], [ -61.64365243767935, -12.539583051024399 ], [ -61.64338294309411, -12.539583051024399 ], [ -61.64338294309411, -12.539852545609635 ], [ -61.643113448508878, -12.539852545609635 ], [ -61.643113448508878, -12.540391534780106 ], [ -61.64365243767935, -12.540391534780106 ], [ -61.64365243767935, -12.54012204019487 ], [ -61.643921932264583, -12.54012204019487 ], [ -61.643921932264583, -12.540391534780106 ], [ -61.644460921435055, -12.540391534780106 ], [ -61.644460921435055, -12.539583051024399 ], [ -61.644191426849815, -12.539583051024399 ], [ -61.644191426849815, -12.539313556439163 ], [ -61.644730416020288, -12.539313556439163 ], [ -61.644730416020288, -12.538774567268693 ], [ -61.64526940519076, -12.538774567268693 ], [ -61.64526940519076, -12.53823557809822 ], [ -61.645538899776, -12.53823557809822 ], [ -61.645538899776, -12.537696588927748 ], [ -61.64526940519076, -12.537696588927748 ], [ -61.64526940519076, -12.537157599757276 ], [ -61.644999910605527, -12.537157599757276 ], [ -61.644999910605527, -12.536888105172041 ], [ -61.644460921435055, -12.536888105172041 ], [ -61.644460921435055, -12.537427094342512 ], [ -61.644191426849815, -12.537427094342512 ], [ -61.644191426849815, -12.53823557809822 ], [ -61.643921932264583, -12.53823557809822 ], [ -61.643921932264583, -12.538774567268693 ], [ -61.64365243767935, -12.538774567268693 ] ] ], [ [ [ -61.670601896202932, -12.51802348420553 ], [ -61.670601896202932, -12.518831967961239 ], [ -61.670332401617699, -12.518831967961239 ], [ -61.670332401617699, -12.519101462546473 ], [ -61.670601896202932, -12.519101462546473 ], [ -61.670601896202932, -12.519370957131709 ], [ -61.670332401617699, -12.519370957131709 ], [ -61.670332401617699, -12.519640451716946 ], [ -61.67006290703246, -12.519640451716946 ], [ -61.67006290703246, -12.520179440887418 ], [ -61.669793412447227, -12.520179440887418 ], [ -61.669793412447227, -12.52071843005789 ], [ -61.669523917861987, -12.52071843005789 ], [ -61.669523917861987, -12.521257419228361 ], [ -61.67006290703246, -12.521257419228361 ], [ -61.67006290703246, -12.521526913813597 ], [ -61.670601896202932, -12.521526913813597 ], [ -61.670601896202932, -12.522065902984068 ], [ -61.671410379958637, -12.522065902984068 ], [ -61.671410379958637, -12.521526913813597 ], [ -61.671679874543877, -12.521526913813597 ], [ -61.671679874543877, -12.521257419228361 ], [ -61.671410379958637, -12.521257419228361 ], [ -61.671410379958637, -12.520987924643125 ], [ -61.671679874543877, -12.520987924643125 ], [ -61.671679874543877, -12.520448935472654 ], [ -61.671949369129109, -12.520448935472654 ], [ -61.671949369129109, -12.518831967961239 ], [ -61.672218863714349, -12.518831967961239 ], [ -61.672218863714349, -12.51748449503506 ], [ -61.671949369129109, -12.51748449503506 ], [ -61.671949369129109, -12.516945505864587 ], [ -61.671679874543877, -12.516945505864587 ], [ -61.671679874543877, -12.516676011279351 ], [ -61.671410379958637, -12.516676011279351 ], [ -61.671410379958637, -12.516945505864587 ], [ -61.671140885373404, -12.516945505864587 ], [ -61.671140885373404, -12.517215000449823 ], [ -61.670871390788164, -12.517215000449823 ], [ -61.670871390788164, -12.51802348420553 ], [ -61.670601896202932, -12.51802348420553 ] ] ], [ [ [ -61.661439080304916, -12.51748449503506 ], [ -61.661978069475381, -12.51748449503506 ], [ -61.661978069475381, -12.516945505864587 ], [ -61.662247564060621, -12.516945505864587 ], [ -61.662247564060621, -12.516676011279351 ], [ -61.662517058645854, -12.516676011279351 ], [ -61.662517058645854, -12.515328538353172 ], [ -61.662420662808486, -12.515328538353172 ], [ -61.662247564060621, -12.51553506040916 ], [ -61.662247564060621, -12.515598032938408 ], [ -61.662194782937988, -12.515598032938408 ], [ -61.661978069475381, -12.515856591191486 ], [ -61.661978069475381, -12.515867527523644 ], [ -61.661968903067496, -12.515867527523644 ], [ -61.66195021, -12.51588983 ], [ -61.661708574890149, -12.516066856750447 ], [ -61.661708574890149, -12.516137022108879 ], [ -61.661612801714348, -12.516137022108879 ], [ -61.661439080304916, -12.516264293913927 ], [ -61.661439080304916, -12.516406516694115 ], [ -61.661244951355322, -12.516406516694115 ], [ -61.661169585719676, -12.516461731077415 ], [ -61.661169585719676, -12.516676011279351 ], [ -61.660923562671648, -12.516676011279351 ], [ -61.660900091134444, -12.51670236946021 ], [ -61.660900091134444, -12.517215000449823 ], [ -61.660630596549204, -12.517215000449823 ], [ -61.660630596549204, -12.51748449503506 ], [ -61.660900091134444, -12.51748449503506 ], [ -61.660900091134444, -12.517753989620296 ], [ -61.661439080304916, -12.517753989620296 ], [ -61.661439080304916, -12.51748449503506 ] ] ], [ [ [ -61.662786553231093, -12.515328538353172 ], [ -61.662786553231093, -12.515059043767936 ], [ -61.662646542678985, -12.515059043767936 ], [ -61.662517058645854, -12.515213529626841 ], [ -61.662517058645854, -12.515328538353172 ], [ -61.662786553231093, -12.515328538353172 ] ] ], [ [ [ -61.663056047816326, -12.515059043767936 ], [ -61.663056047816326, -12.5147895491827 ], [ -61.662922467783233, -12.5147895491827 ], [ -61.662786553231093, -12.514917879323452 ], [ -61.662786553231093, -12.515059043767936 ], [ -61.663056047816326, -12.515059043767936 ] ] ], [ [ [ -61.663056047816326, -12.5147895491827 ], [ -61.663325542401566, -12.5147895491827 ], [ -61.663325542401566, -12.514520054597465 ], [ -61.663205146350762, -12.514520054597465 ], [ -61.66311176, -12.51461082 ], [ -61.663056047816326, -12.514663423288315 ], [ -61.663056047816326, -12.5147895491827 ] ] ], [ [ [ -61.66628998283916, -12.5147895491827 ], [ -61.666559477424393, -12.5147895491827 ], [ -61.666559477424393, -12.514520054597465 ], [ -61.666828972009633, -12.514520054597465 ], [ -61.666828972009633, -12.5147895491827 ], [ -61.66790695035057, -12.5147895491827 ], [ -61.66790695035057, -12.515059043767936 ], [ -61.668445939521042, -12.515059043767936 ], [ -61.668445939521042, -12.515598032938408 ], [ -61.668984928691515, -12.515598032938408 ], [ -61.668984928691515, -12.516137022108879 ], [ -61.669793412447227, -12.516137022108879 ], [ -61.669793412447227, -12.515867527523644 ], [ -61.670332401617699, -12.515867527523644 ], [ -61.670332401617699, -12.515598032938408 ], [ -61.670601896202932, -12.515598032938408 ], [ -61.670601896202932, -12.515328538353172 ], [ -61.670871390788164, -12.515328538353172 ], [ -61.670871390788164, -12.515059043767936 ], [ -61.670601896202932, -12.515059043767936 ], [ -61.670601896202932, -12.514520054597465 ], [ -61.670332401617699, -12.514520054597465 ], [ -61.670332401617699, -12.512903087086048 ], [ -61.670601896202932, -12.512903087086048 ], [ -61.670601896202932, -12.512633592500814 ], [ -61.670332401617699, -12.512633592500814 ], [ -61.670332401617699, -12.512094603330342 ], [ -61.669793412447227, -12.512094603330342 ], [ -61.669793412447227, -12.511555614159871 ], [ -61.669254423276755, -12.511555614159871 ], [ -61.669254423276755, -12.509938646648454 ], [ -61.668984928691515, -12.509938646648454 ], [ -61.668984928691515, -12.50972335743127 ], [ -61.668715434106282, -12.509841049794407 ], [ -61.668715434106282, -12.509938646648454 ], [ -61.668491954663772, -12.509938646648454 ], [ -61.66817644493581, -12.510076434520686 ], [ -61.66817644493581, -12.51020814123369 ], [ -61.667874859981211, -12.51020814123369 ], [ -61.667637455765338, -12.510311819246963 ], [ -61.667637455765338, -12.510477635818926 ], [ -61.66725776529865, -12.510477635818926 ], [ -61.666828972009633, -12.510664896336381 ], [ -61.666828972009633, -12.510747130404162 ], [ -61.666640670616083, -12.510747130404162 ], [ -61.66628998283916, -12.510900281062659 ], [ -61.66628998283916, -12.511016624989399 ], [ -61.666023575933522, -12.511016624989399 ], [ -61.665750993668688, -12.511135665788938 ], [ -61.665750993668688, -12.511286119574635 ], [ -61.665406481250955, -12.511286119574635 ], [ -61.665212004498215, -12.511371050515217 ], [ -61.665212004498215, -12.511825108745105 ], [ -61.664942509912976, -12.511825108745105 ], [ -61.664942509912976, -12.512094603330342 ], [ -61.664673015327743, -12.512094603330342 ], [ -61.664673015327743, -12.512364097915578 ], [ -61.664403520742511, -12.512364097915578 ], [ -61.664403520742511, -12.512633592500814 ], [ -61.664208351044842, -12.512633592500814 ], [ -61.664134026157271, -12.512836476606934 ], [ -61.664134026157271, -12.513172581671284 ], [ -61.664010896891028, -12.513172581671284 ], [ -61.66396864, -12.51328793 ], [ -61.663864531572038, -12.513564187797481 ], [ -61.663864531572038, -12.513981065426993 ], [ -61.66370743021578, -12.513981065426993 ], [ -61.66367722, -12.51406123 ], [ -61.663595036986798, -12.51414110649387 ], [ -61.663595036986798, -12.514250560012229 ], [ -61.663482422880847, -12.514250560012229 ], [ -61.663325542401566, -12.514403037539564 ], [ -61.663325542401566, -12.514520054597465 ], [ -61.665750993668688, -12.514520054597465 ], [ -61.665750993668688, -12.5147895491827 ], [ -61.66602048825392, -12.5147895491827 ], [ -61.66602048825392, -12.514520054597465 ], [ -61.66628998283916, -12.514520054597465 ], [ -61.66628998283916, -12.5147895491827 ] ] ], [ [ [ -61.84361741992435, -12.462238105061708 ], [ -61.843886914509589, -12.462238105061708 ], [ -61.843886914509589, -12.462507599646944 ], [ -61.844156409094822, -12.462507599646944 ], [ -61.844156409094822, -12.461968610476472 ], [ -61.843886914509589, -12.461968610476472 ], [ -61.843886914509589, -12.461429621306001 ], [ -61.84361741992435, -12.461429621306001 ], [ -61.84361741992435, -12.461160126720765 ], [ -61.843347925339117, -12.461160126720765 ], [ -61.843347925339117, -12.460428430141457 ], [ -61.84317543, -12.46044276 ], [ -61.842808936168645, -12.460493903119572 ], [ -61.842808936168645, -12.461429621306001 ], [ -61.843078430753877, -12.461429621306001 ], [ -61.843078430753877, -12.461699115891236 ], [ -61.843347925339117, -12.461699115891236 ], [ -61.843347925339117, -12.461968610476472 ], [ -61.84361741992435, -12.461968610476472 ], [ -61.84361741992435, -12.462238105061708 ] ] ], [ [ [ -61.630447203002788, -12.633367166686478 ], [ -61.630447203002788, -12.633636661271712 ], [ -61.63098619217326, -12.633636661271712 ], [ -61.63098619217326, -12.633906155856948 ], [ -61.6312556867585, -12.633906155856948 ], [ -61.6312556867585, -12.633636661271712 ], [ -61.631525181343733, -12.633636661271712 ], [ -61.631525181343733, -12.633906155856948 ], [ -61.632603159684678, -12.633906155856948 ], [ -61.632603159684678, -12.633636661271712 ], [ -61.63314214885515, -12.633636661271712 ], [ -61.63314214885515, -12.633097672101242 ], [ -61.63287265426991, -12.633097672101242 ], [ -61.63287265426991, -12.632828177516005 ], [ -61.632333665099438, -12.632828177516005 ], [ -61.632333665099438, -12.632558682930769 ], [ -61.629638719247083, -12.632558682930769 ], [ -61.629638719247083, -12.632828177516005 ], [ -61.629369224661843, -12.632828177516005 ], [ -61.629369224661843, -12.633097672101242 ], [ -61.629638719247083, -12.633097672101242 ], [ -61.629638719247083, -12.633367166686478 ], [ -61.630447203002788, -12.633367166686478 ] ] ], [ [ [ -61.546903881579674, -12.620700921180392 ], [ -61.546903881579674, -12.623665361617986 ], [ -61.546634386994441, -12.623665361617986 ], [ -61.546634386994441, -12.623934856203222 ], [ -61.546903881579674, -12.623934856203222 ], [ -61.546903881579674, -12.624204350788458 ], [ -61.546634386994441, -12.624204350788458 ], [ -61.546634386994441, -12.624473845373693 ], [ -61.546903881579674, -12.624473845373693 ], [ -61.546903881579674, -12.624743339958929 ], [ -61.546634386994441, -12.624743339958929 ], [ -61.546634386994441, -12.625012834544165 ], [ -61.546903881579674, -12.625012834544165 ], [ -61.546903881579674, -12.625551823714638 ], [ -61.547173376164906, -12.625551823714638 ], [ -61.547173376164906, -12.62609081288511 ], [ -61.547442870750146, -12.62609081288511 ], [ -61.547442870750146, -12.629055253322704 ], [ -61.547173376164906, -12.629055253322704 ], [ -61.547173376164906, -12.629863737078411 ], [ -61.548520849091091, -12.629863737078411 ], [ -61.548520849091091, -12.630133231663647 ], [ -61.549059838261563, -12.630133231663647 ], [ -61.549059838261563, -12.630402726248883 ], [ -61.549329332846796, -12.630402726248883 ], [ -61.549329332846796, -12.630133231663647 ], [ -61.549868322017268, -12.630133231663647 ], [ -61.549868322017268, -12.629863737078411 ], [ -61.550137816602501, -12.629863737078411 ], [ -61.550137816602501, -12.629594242493175 ], [ -61.55040731118774, -12.629594242493175 ], [ -61.55040731118774, -12.629055253322704 ], [ -61.550137816602501, -12.629055253322704 ], [ -61.550137816602501, -12.628516264152232 ], [ -61.549868322017268, -12.628516264152232 ], [ -61.549868322017268, -12.62797727498176 ], [ -61.549598827432035, -12.62797727498176 ], [ -61.549598827432035, -12.627438285811287 ], [ -61.549329332846796, -12.627438285811287 ], [ -61.549329332846796, -12.625012834544165 ], [ -61.549598827432035, -12.625012834544165 ], [ -61.549598827432035, -12.623665361617986 ], [ -61.549868322017268, -12.623665361617986 ], [ -61.549868322017268, -12.622587383277043 ], [ -61.550137816602501, -12.622587383277043 ], [ -61.550137816602501, -12.621778899521335 ], [ -61.549868322017268, -12.621778899521335 ], [ -61.549868322017268, -12.621239910350864 ], [ -61.549598827432035, -12.621239910350864 ], [ -61.549598827432035, -12.620970415765628 ], [ -61.549329332846796, -12.620970415765628 ], [ -61.549329332846796, -12.620700921180392 ], [ -61.548790343676323, -12.620700921180392 ], [ -61.548790343676323, -12.620161932009921 ], [ -61.548520849091091, -12.620161932009921 ], [ -61.548520849091091, -12.619892437424685 ], [ -61.549059838261563, -12.619892437424685 ], [ -61.549059838261563, -12.619622942839449 ], [ -61.549868322017268, -12.619622942839449 ], [ -61.549868322017268, -12.619353448254213 ], [ -61.550137816602501, -12.619353448254213 ], [ -61.550137816602501, -12.619083953668977 ], [ -61.549598827432035, -12.619083953668977 ], [ -61.549598827432035, -12.618544964498504 ], [ -61.549329332846796, -12.618544964498504 ], [ -61.549329332846796, -12.617736480742797 ], [ -61.549598827432035, -12.617736480742797 ], [ -61.549598827432035, -12.616927996987091 ], [ -61.549059838261563, -12.616927996987091 ], [ -61.549059838261563, -12.616389007816618 ], [ -61.548790343676323, -12.616389007816618 ], [ -61.548790343676323, -12.615311029475675 ], [ -61.548520849091091, -12.615311029475675 ], [ -61.548520849091091, -12.614772040305203 ], [ -61.548251354505851, -12.614772040305203 ], [ -61.548251354505851, -12.614502545719967 ], [ -61.548520849091091, -12.614502545719967 ], [ -61.548520849091091, -12.614233051134731 ], [ -61.548251354505851, -12.614233051134731 ], [ -61.548251354505851, -12.613963556549496 ], [ -61.548790343676323, -12.613963556549496 ], [ -61.548790343676323, -12.61369406196426 ], [ -61.547442870750146, -12.61369406196426 ], [ -61.547442870750146, -12.613424567379024 ], [ -61.547173376164906, -12.613424567379024 ], [ -61.547173376164906, -12.61369406196426 ], [ -61.546903881579674, -12.61369406196426 ], [ -61.546903881579674, -12.618005975328034 ], [ -61.547173376164906, -12.618005975328034 ], [ -61.547173376164906, -12.620700921180392 ], [ -61.546903881579674, -12.620700921180392 ] ] ], [ [ [ -61.547442870750146, -12.610190632356193 ], [ -61.547442870750146, -12.61046012694143 ], [ -61.547173376164906, -12.61046012694143 ], [ -61.547173376164906, -12.610729621526666 ], [ -61.546903881579674, -12.610729621526666 ], [ -61.546903881579674, -12.610999116111902 ], [ -61.547173376164906, -12.610999116111902 ], [ -61.547173376164906, -12.611538105282373 ], [ -61.547442870750146, -12.611538105282373 ], [ -61.547442870750146, -12.611807599867609 ], [ -61.547981859920618, -12.611807599867609 ], [ -61.547981859920618, -12.612077094452845 ], [ -61.548520849091091, -12.612077094452845 ], [ -61.548520849091091, -12.613155072793788 ], [ -61.548251354505851, -12.613155072793788 ], [ -61.548251354505851, -12.613424567379024 ], [ -61.549059838261563, -12.613424567379024 ], [ -61.549059838261563, -12.613155072793788 ], [ -61.548790343676323, -12.613155072793788 ], [ -61.548790343676323, -12.612885578208552 ], [ -61.549329332846796, -12.612885578208552 ], [ -61.549329332846796, -12.612616083623315 ], [ -61.549059838261563, -12.612616083623315 ], [ -61.549059838261563, -12.612346589038079 ], [ -61.549329332846796, -12.612346589038079 ], [ -61.549329332846796, -12.612077094452845 ], [ -61.549059838261563, -12.612077094452845 ], [ -61.549059838261563, -12.611807599867609 ], [ -61.549329332846796, -12.611807599867609 ], [ -61.549329332846796, -12.611268610697136 ], [ -61.549598827432035, -12.611268610697136 ], [ -61.549598827432035, -12.610729621526666 ], [ -61.549868322017268, -12.610729621526666 ], [ -61.549868322017268, -12.609921137770957 ], [ -61.549598827432035, -12.609921137770957 ], [ -61.549598827432035, -12.609382148600485 ], [ -61.549059838261563, -12.609382148600485 ], [ -61.549059838261563, -12.609651643185721 ], [ -61.548520849091091, -12.609651643185721 ], [ -61.548520849091091, -12.609921137770957 ], [ -61.547981859920618, -12.609921137770957 ], [ -61.547981859920618, -12.610190632356193 ], [ -61.547442870750146, -12.610190632356193 ] ] ], [ [ [ -61.583016156001278, -12.605070235236713 ], [ -61.583016156001278, -12.605339729821948 ], [ -61.582746661416046, -12.605339729821948 ], [ -61.582746661416046, -12.606148213577656 ], [ -61.583555145171751, -12.606148213577656 ], [ -61.583555145171751, -12.60587871899242 ], [ -61.583824639756983, -12.60587871899242 ], [ -61.583824639756983, -12.605339729821948 ], [ -61.584363628927456, -12.605339729821948 ], [ -61.584363628927456, -12.605070235236713 ], [ -61.584633123512695, -12.605070235236713 ], [ -61.584633123512695, -12.605609224407184 ], [ -61.584902618097928, -12.605609224407184 ], [ -61.584902618097928, -12.60587871899242 ], [ -61.584633123512695, -12.60587871899242 ], [ -61.584633123512695, -12.606687202748127 ], [ -61.584902618097928, -12.606687202748127 ], [ -61.584902618097928, -12.606956697333363 ], [ -61.585172112683168, -12.606956697333363 ], [ -61.585172112683168, -12.606687202748127 ], [ -61.5854416072684, -12.606687202748127 ], [ -61.5854416072684, -12.604531246066241 ], [ -61.584902618097928, -12.604531246066241 ], [ -61.584902618097928, -12.604261751481005 ], [ -61.584363628927456, -12.604261751481005 ], [ -61.584363628927456, -12.604531246066241 ], [ -61.583824639756983, -12.604531246066241 ], [ -61.583824639756983, -12.604800740651477 ], [ -61.583285650586518, -12.604800740651477 ], [ -61.583285650586518, -12.605070235236713 ], [ -61.583016156001278, -12.605070235236713 ] ] ], [ [ [ -61.553371751625335, -12.574617347105061 ], [ -61.553371751625335, -12.574347852519825 ], [ -61.553102257040095, -12.574347852519825 ], [ -61.553102257040095, -12.574617347105061 ], [ -61.553371751625335, -12.574617347105061 ] ] ], [ [ [ -61.553371751625335, -12.574078357934589 ], [ -61.553371751625335, -12.573808863349353 ], [ -61.553102257040095, -12.573808863349353 ], [ -61.553102257040095, -12.574078357934589 ], [ -61.553371751625335, -12.574078357934589 ] ] ], [ [ [ -61.55325068707392, -12.57273088500841 ], [ -61.55312044418519, -12.573539368764116 ], [ -61.553371751625335, -12.573539368764116 ], [ -61.553371751625335, -12.57273088500841 ], [ -61.55325068707392, -12.57273088500841 ] ] ], [ [ [ -61.615894495400056, -12.568688466229872 ], [ -61.615894495400056, -12.569227455400343 ], [ -61.615625000814816, -12.569227455400343 ], [ -61.615625000814816, -12.569496949985579 ], [ -61.615894495400056, -12.569496949985579 ], [ -61.615894495400056, -12.569766444570815 ], [ -61.616972473741001, -12.569766444570815 ], [ -61.616972473741001, -12.569496949985579 ], [ -61.617241968326233, -12.569496949985579 ], [ -61.617241968326233, -12.567879982474164 ], [ -61.617511462911466, -12.567879982474164 ], [ -61.617511462911466, -12.566802004133221 ], [ -61.617241968326233, -12.566802004133221 ], [ -61.617241968326233, -12.566532509547985 ], [ -61.616702979155761, -12.566532509547985 ], [ -61.616702979155761, -12.567879982474164 ], [ -61.616433484570521, -12.567879982474164 ], [ -61.616433484570521, -12.5681494770594 ], [ -61.616163989985289, -12.5681494770594 ], [ -61.616163989985289, -12.568688466229872 ], [ -61.615894495400056, -12.568688466229872 ] ] ], [ [ [ -61.554449729966279, -12.572461390423173 ], [ -61.554719224551512, -12.572461390423173 ], [ -61.554719224551512, -12.572191895837937 ], [ -61.554988719136752, -12.572191895837937 ], [ -61.554988719136752, -12.572461390423173 ], [ -61.555527708307224, -12.572461390423173 ], [ -61.555527708307224, -12.57273088500841 ], [ -61.556875181233401, -12.57273088500841 ], [ -61.556875181233401, -12.573000379593646 ], [ -61.557144675818634, -12.573000379593646 ], [ -61.557144675818634, -12.57273088500841 ], [ -61.557414170403874, -12.57273088500841 ], [ -61.557414170403874, -12.573000379593646 ], [ -61.558222654159579, -12.573000379593646 ], [ -61.558222654159579, -12.57273088500841 ], [ -61.558761643330051, -12.57273088500841 ], [ -61.558761643330051, -12.572461390423173 ], [ -61.559031137915291, -12.572461390423173 ], [ -61.559031137915291, -12.57273088500841 ], [ -61.559300632500523, -12.57273088500841 ], [ -61.559300632500523, -12.572461390423173 ], [ -61.559570127085763, -12.572461390423173 ], [ -61.559570127085763, -12.57273088500841 ], [ -61.559839621670996, -12.57273088500841 ], [ -61.559839621670996, -12.572461390423173 ], [ -61.560109116256228, -12.572461390423173 ], [ -61.560109116256228, -12.57273088500841 ], [ -61.56091760001194, -12.57273088500841 ], [ -61.56091760001194, -12.573000379593646 ], [ -61.561456589182413, -12.573000379593646 ], [ -61.561456589182413, -12.57326987417888 ], [ -61.563343051279062, -12.57326987417888 ], [ -61.563343051279062, -12.573539368764116 ], [ -61.565499007960952, -12.573539368764116 ], [ -61.565499007960952, -12.573808863349353 ], [ -61.566846480887129, -12.573808863349353 ], [ -61.566846480887129, -12.573539368764116 ], [ -61.567115975472362, -12.573539368764116 ], [ -61.567115975472362, -12.573000379593646 ], [ -61.567385470057602, -12.573000379593646 ], [ -61.567385470057602, -12.571652906667467 ], [ -61.567115975472362, -12.571652906667467 ], [ -61.567115975472362, -12.571383412082231 ], [ -61.566576986301889, -12.571383412082231 ], [ -61.566576986301889, -12.571652906667467 ], [ -61.566037997131417, -12.571652906667467 ], [ -61.566037997131417, -12.571922401252703 ], [ -61.565499007960952, -12.571922401252703 ], [ -61.565499007960952, -12.572191895837937 ], [ -61.56496001879048, -12.572191895837937 ], [ -61.56496001879048, -12.572461390423173 ], [ -61.56469052420524, -12.572461390423173 ], [ -61.56469052420524, -12.572191895837937 ], [ -61.564421029620007, -12.572191895837937 ], [ -61.564421029620007, -12.572461390423173 ], [ -61.563882040449535, -12.572461390423173 ], [ -61.563882040449535, -12.57273088500841 ], [ -61.563073556693823, -12.57273088500841 ], [ -61.563073556693823, -12.572461390423173 ], [ -61.562534567523358, -12.572461390423173 ], [ -61.562534567523358, -12.572191895837937 ], [ -61.56280406210859, -12.572191895837937 ], [ -61.56280406210859, -12.571922401252703 ], [ -61.563073556693823, -12.571922401252703 ], [ -61.563073556693823, -12.571652906667467 ], [ -61.563343051279062, -12.571652906667467 ], [ -61.563343051279062, -12.571383412082231 ], [ -61.563612545864295, -12.571383412082231 ], [ -61.563612545864295, -12.571113917496994 ], [ -61.56469052420524, -12.571113917496994 ], [ -61.56469052420524, -12.570844422911758 ], [ -61.565229513375712, -12.570844422911758 ], [ -61.565229513375712, -12.570574928326522 ], [ -61.565499007960952, -12.570574928326522 ], [ -61.565499007960952, -12.570305433741286 ], [ -61.565768502546184, -12.570305433741286 ], [ -61.565768502546184, -12.570035939156051 ], [ -61.565499007960952, -12.570035939156051 ], [ -61.565499007960952, -12.569766444570815 ], [ -61.56496001879048, -12.569766444570815 ], [ -61.56496001879048, -12.569496949985579 ], [ -61.564421029620007, -12.569496949985579 ], [ -61.564421029620007, -12.5681494770594 ], [ -61.56469052420524, -12.5681494770594 ], [ -61.56469052420524, -12.567610487888928 ], [ -61.565229513375712, -12.567610487888928 ], [ -61.565229513375712, -12.567071498718457 ], [ -61.566307491716657, -12.567071498718457 ], [ -61.566307491716657, -12.567340993303691 ], [ -61.566846480887129, -12.567340993303691 ], [ -61.566846480887129, -12.567610487888928 ], [ -61.566576986301889, -12.567610487888928 ], [ -61.566576986301889, -12.567879982474164 ], [ -61.566846480887129, -12.567879982474164 ], [ -61.566846480887129, -12.568418971644636 ], [ -61.567115975472362, -12.568418971644636 ], [ -61.567115975472362, -12.568957960815109 ], [ -61.567385470057602, -12.568957960815109 ], [ -61.567385470057602, -12.569227455400343 ], [ -61.567654964642834, -12.569227455400343 ], [ -61.567654964642834, -12.569496949985579 ], [ -61.567924459228074, -12.569496949985579 ], [ -61.567924459228074, -12.569766444570815 ], [ -61.568193953813307, -12.569766444570815 ], [ -61.568193953813307, -12.570035939156051 ], [ -61.568732942983779, -12.570035939156051 ], [ -61.568732942983779, -12.569766444570815 ], [ -61.569002437569011, -12.569766444570815 ], [ -61.569002437569011, -12.569496949985579 ], [ -61.568732942983779, -12.569496949985579 ], [ -61.568732942983779, -12.568688466229872 ], [ -61.569002437569011, -12.568688466229872 ], [ -61.569002437569011, -12.568418971644636 ], [ -61.569541426739484, -12.568418971644636 ], [ -61.569541426739484, -12.5681494770594 ], [ -61.569810921324724, -12.5681494770594 ], [ -61.569810921324724, -12.568688466229872 ], [ -61.570080415909956, -12.568688466229872 ], [ -61.570080415909956, -12.570035939156051 ], [ -61.570619405080429, -12.570035939156051 ], [ -61.570619405080429, -12.570305433741286 ], [ -61.570888899665668, -12.570305433741286 ], [ -61.570888899665668, -12.570035939156051 ], [ -61.571427888836141, -12.570035939156051 ], [ -61.571427888836141, -12.569496949985579 ], [ -61.571966878006606, -12.569496949985579 ], [ -61.571966878006606, -12.569227455400343 ], [ -61.571697383421373, -12.569227455400343 ], [ -61.571697383421373, -12.568957960815109 ], [ -61.571966878006606, -12.568957960815109 ], [ -61.571966878006606, -12.568688466229872 ], [ -61.571427888836141, -12.568688466229872 ], [ -61.571427888836141, -12.568418971644636 ], [ -61.570888899665668, -12.568418971644636 ], [ -61.570888899665668, -12.5681494770594 ], [ -61.570619405080429, -12.5681494770594 ], [ -61.570619405080429, -12.567879982474164 ], [ -61.570349910495196, -12.567879982474164 ], [ -61.570349910495196, -12.567610487888928 ], [ -61.570080415909956, -12.567610487888928 ], [ -61.570080415909956, -12.567071498718457 ], [ -61.569810921324724, -12.567071498718457 ], [ -61.569810921324724, -12.565993520377512 ], [ -61.569541426739484, -12.565993520377512 ], [ -61.569541426739484, -12.565724025792278 ], [ -61.569810921324724, -12.565724025792278 ], [ -61.569810921324724, -12.565454531207042 ], [ -61.569541426739484, -12.565454531207042 ], [ -61.569541426739484, -12.565185036621806 ], [ -61.569810921324724, -12.565185036621806 ], [ -61.569810921324724, -12.564376552866097 ], [ -61.569541426739484, -12.564376552866097 ], [ -61.569541426739484, -12.564107058280861 ], [ -61.569271932154251, -12.564107058280861 ], [ -61.569271932154251, -12.563837563695627 ], [ -61.567924459228074, -12.563837563695627 ], [ -61.567924459228074, -12.56356806911039 ], [ -61.567385470057602, -12.56356806911039 ], [ -61.567385470057602, -12.563298574525154 ], [ -61.567115975472362, -12.563298574525154 ], [ -61.567115975472362, -12.563029079939918 ], [ -61.566576986301889, -12.563029079939918 ], [ -61.566576986301889, -12.562759585354684 ], [ -61.566037997131417, -12.562759585354684 ], [ -61.566037997131417, -12.562490090769447 ], [ -61.565768502546184, -12.562490090769447 ], [ -61.565768502546184, -12.562220596184211 ], [ -61.565499007960952, -12.562220596184211 ], [ -61.565499007960952, -12.561951101598975 ], [ -61.565229513375712, -12.561951101598975 ], [ -61.565229513375712, -12.561681607013739 ], [ -61.56469052420524, -12.561681607013739 ], [ -61.56469052420524, -12.561412112428503 ], [ -61.563882040449535, -12.561412112428503 ], [ -61.563882040449535, -12.561142617843267 ], [ -61.563612545864295, -12.561142617843267 ], [ -61.563612545864295, -12.561412112428503 ], [ -61.56280406210859, -12.561412112428503 ], [ -61.56280406210859, -12.561681607013739 ], [ -61.561726083767645, -12.561681607013739 ], [ -61.561726083767645, -12.561951101598975 ], [ -61.561187094597173, -12.561951101598975 ], [ -61.561187094597173, -12.562220596184211 ], [ -61.559570127085763, -12.562220596184211 ], [ -61.559570127085763, -12.562490090769447 ], [ -61.558492148744818, -12.562490090769447 ], [ -61.558492148744818, -12.562759585354684 ], [ -61.557953159574346, -12.562759585354684 ], [ -61.557953159574346, -12.563029079939918 ], [ -61.557414170403874, -12.563029079939918 ], [ -61.557414170403874, -12.563298574525154 ], [ -61.556875181233401, -12.563298574525154 ], [ -61.556875181233401, -12.56356806911039 ], [ -61.556336192062929, -12.56356806911039 ], [ -61.556336192062929, -12.563837563695627 ], [ -61.556066697477696, -12.563837563695627 ], [ -61.556066697477696, -12.564376552866097 ], [ -61.555797202892457, -12.564376552866097 ], [ -61.555797202892457, -12.564646047451333 ], [ -61.556066697477696, -12.564646047451333 ], [ -61.556066697477696, -12.564915542036569 ], [ -61.555797202892457, -12.564915542036569 ], [ -61.555797202892457, -12.565724025792278 ], [ -61.555527708307224, -12.565724025792278 ], [ -61.555527708307224, -12.566263014962749 ], [ -61.555258213721984, -12.566263014962749 ], [ -61.555258213721984, -12.567340993303691 ], [ -61.554988719136752, -12.567340993303691 ], [ -61.554988719136752, -12.567610487888928 ], [ -61.554719224551512, -12.567610487888928 ], [ -61.554719224551512, -12.567879982474164 ], [ -61.554449729966279, -12.567879982474164 ], [ -61.554449729966279, -12.5681494770594 ], [ -61.554228318615721, -12.5681494770594 ], [ -61.5542111, -12.56822595 ], [ -61.55418023538104, -12.568345171541822 ], [ -61.55418023538104, -12.568957960815109 ], [ -61.554021593686457, -12.568957960815109 ], [ -61.553910740795807, -12.569386155070623 ], [ -61.553910740795807, -12.570035939156051 ], [ -61.55377283186894, -12.570035939156051 ], [ -61.55368444, -12.57047782 ], [ -61.553641246210574, -12.570688334007281 ], [ -61.553641246210574, -12.571383412082231 ], [ -61.553498628356351, -12.571383412082231 ], [ -61.553371751625335, -12.572001772486201 ], [ -61.553371751625335, -12.57273088500841 ], [ -61.553641246210574, -12.57273088500841 ], [ -61.553641246210574, -12.572461390423173 ], [ -61.55418023538104, -12.572461390423173 ], [ -61.55418023538104, -12.572191895837937 ], [ -61.554449729966279, -12.572191895837937 ], [ -61.554449729966279, -12.572461390423173 ] ] ], [ [ [ -61.572236372591846, -12.565993520377512 ], [ -61.572236372591846, -12.566532509547985 ], [ -61.572505867177078, -12.566532509547985 ], [ -61.572505867177078, -12.567340993303691 ], [ -61.572236372591846, -12.567340993303691 ], [ -61.572236372591846, -12.567879982474164 ], [ -61.571966878006606, -12.567879982474164 ], [ -61.571966878006606, -12.5681494770594 ], [ -61.571697383421373, -12.5681494770594 ], [ -61.571697383421373, -12.568418971644636 ], [ -61.572236372591846, -12.568418971644636 ], [ -61.572236372591846, -12.568957960815109 ], [ -61.572505867177078, -12.568957960815109 ], [ -61.572505867177078, -12.568688466229872 ], [ -61.572775361762318, -12.568688466229872 ], [ -61.572775361762318, -12.568957960815109 ], [ -61.573044856347551, -12.568957960815109 ], [ -61.573044856347551, -12.568688466229872 ], [ -61.573583845518023, -12.568688466229872 ], [ -61.573583845518023, -12.567879982474164 ], [ -61.573853340103263, -12.567879982474164 ], [ -61.573853340103263, -12.567610487888928 ], [ -61.573583845518023, -12.567610487888928 ], [ -61.573583845518023, -12.566263014962749 ], [ -61.57331435093279, -12.566263014962749 ], [ -61.57331435093279, -12.565454531207042 ], [ -61.573044856347551, -12.565454531207042 ], [ -61.573044856347551, -12.564915542036569 ], [ -61.572505867177078, -12.564915542036569 ], [ -61.572505867177078, -12.565185036621806 ], [ -61.572236372591846, -12.565185036621806 ], [ -61.572236372591846, -12.565724025792278 ], [ -61.571966878006606, -12.565724025792278 ], [ -61.571966878006606, -12.565993520377512 ], [ -61.572236372591846, -12.565993520377512 ] ] ], [ [ [ -61.615625000814816, -12.556022220723786 ], [ -61.615625000814816, -12.55575272613855 ], [ -61.615355506229584, -12.55575272613855 ], [ -61.615355506229584, -12.556022220723786 ], [ -61.615086011644344, -12.556022220723786 ], [ -61.615086011644344, -12.556561209894259 ], [ -61.614816517059111, -12.556561209894259 ], [ -61.614816517059111, -12.556830704479495 ], [ -61.615086011644344, -12.556830704479495 ], [ -61.615086011644344, -12.557100199064729 ], [ -61.614816517059111, -12.557100199064729 ], [ -61.614816517059111, -12.557908682820438 ], [ -61.614547022473872, -12.557908682820438 ], [ -61.614547022473872, -12.558447671990908 ], [ -61.614277527888639, -12.558447671990908 ], [ -61.614277527888639, -12.558986661161381 ], [ -61.614008033303406, -12.558986661161381 ], [ -61.614008033303406, -12.559525650331853 ], [ -61.613738538718167, -12.559525650331853 ], [ -61.613738538718167, -12.559795144917089 ], [ -61.613469044132927, -12.559795144917089 ], [ -61.613469044132927, -12.56033413408756 ], [ -61.612930054962462, -12.56033413408756 ], [ -61.612930054962462, -12.560603628672796 ], [ -61.612660560377222, -12.560603628672796 ], [ -61.612660560377222, -12.56033413408756 ], [ -61.612391065791989, -12.56033413408756 ], [ -61.612391065791989, -12.560603628672796 ], [ -61.611852076621517, -12.560603628672796 ], [ -61.611852076621517, -12.560873123258032 ], [ -61.611043592865812, -12.560873123258032 ], [ -61.611043592865812, -12.561142617843267 ], [ -61.610774098280572, -12.561142617843267 ], [ -61.610774098280572, -12.560603628672796 ], [ -61.610504603695333, -12.560603628672796 ], [ -61.610504603695333, -12.561412112428503 ], [ -61.611043592865812, -12.561412112428503 ], [ -61.611043592865812, -12.561681607013739 ], [ -61.611313087451045, -12.561681607013739 ], [ -61.611313087451045, -12.561951101598975 ], [ -61.611582582036277, -12.561951101598975 ], [ -61.611582582036277, -12.561681607013739 ], [ -61.611852076621517, -12.561681607013739 ], [ -61.611852076621517, -12.561951101598975 ], [ -61.61212157120675, -12.561951101598975 ], [ -61.61212157120675, -12.561681607013739 ], [ -61.612391065791989, -12.561681607013739 ], [ -61.612391065791989, -12.561951101598975 ], [ -61.613469044132927, -12.561951101598975 ], [ -61.613469044132927, -12.561681607013739 ], [ -61.613738538718167, -12.561681607013739 ], [ -61.613738538718167, -12.561412112428503 ], [ -61.614008033303406, -12.561412112428503 ], [ -61.614008033303406, -12.561142617843267 ], [ -61.613738538718167, -12.561142617843267 ], [ -61.613738538718167, -12.560873123258032 ], [ -61.614277527888639, -12.560873123258032 ], [ -61.614277527888639, -12.560603628672796 ], [ -61.614547022473872, -12.560603628672796 ], [ -61.614547022473872, -12.560873123258032 ], [ -61.614816517059111, -12.560873123258032 ], [ -61.614816517059111, -12.560603628672796 ], [ -61.615355506229584, -12.560603628672796 ], [ -61.615355506229584, -12.560064639502324 ], [ -61.615625000814816, -12.560064639502324 ], [ -61.615625000814816, -12.56033413408756 ], [ -61.615894495400056, -12.56033413408756 ], [ -61.615894495400056, -12.560064639502324 ], [ -61.616433484570521, -12.560064639502324 ], [ -61.616433484570521, -12.559525650331853 ], [ -61.616972473741001, -12.559525650331853 ], [ -61.616972473741001, -12.558986661161381 ], [ -61.617241968326233, -12.558986661161381 ], [ -61.617241968326233, -12.558717166576145 ], [ -61.617511462911466, -12.558717166576145 ], [ -61.617511462911466, -12.558447671990908 ], [ -61.617241968326233, -12.558447671990908 ], [ -61.617241968326233, -12.557908682820438 ], [ -61.616972473741001, -12.557908682820438 ], [ -61.616972473741001, -12.557369693649965 ], [ -61.616702979155761, -12.557369693649965 ], [ -61.616702979155761, -12.556830704479495 ], [ -61.616972473741001, -12.556830704479495 ], [ -61.616972473741001, -12.556022220723786 ], [ -61.616702979155761, -12.556022220723786 ], [ -61.616702979155761, -12.55575272613855 ], [ -61.616433484570521, -12.55575272613855 ], [ -61.616433484570521, -12.556022220723786 ], [ -61.616163989985289, -12.556022220723786 ], [ -61.616163989985289, -12.55575272613855 ], [ -61.615894495400056, -12.55575272613855 ], [ -61.615894495400056, -12.556022220723786 ], [ -61.615625000814816, -12.556022220723786 ] ] ], [ [ [ -61.614277527888639, -12.548745866922419 ], [ -61.614277527888639, -12.548476372337182 ], [ -61.613469044132927, -12.548476372337182 ], [ -61.613469044132927, -12.548745866922419 ], [ -61.612930054962462, -12.548745866922419 ], [ -61.612930054962462, -12.549015361507655 ], [ -61.612391065791989, -12.549015361507655 ], [ -61.612391065791989, -12.549554350678125 ], [ -61.611852076621517, -12.549554350678125 ], [ -61.611852076621517, -12.550093339848598 ], [ -61.611313087451045, -12.550093339848598 ], [ -61.611313087451045, -12.55063232901907 ], [ -61.611043592865812, -12.55063232901907 ], [ -61.611043592865812, -12.551171318189541 ], [ -61.610774098280572, -12.551171318189541 ], [ -61.610774098280572, -12.551440812774777 ], [ -61.611043592865812, -12.551440812774777 ], [ -61.611043592865812, -12.551710307360013 ], [ -61.61212157120675, -12.551710307360013 ], [ -61.61212157120675, -12.551979801945249 ], [ -61.612660560377222, -12.551979801945249 ], [ -61.612660560377222, -12.552249296530483 ], [ -61.612930054962462, -12.552249296530483 ], [ -61.612930054962462, -12.55251879111572 ], [ -61.613469044132927, -12.55251879111572 ], [ -61.613469044132927, -12.553057780286192 ], [ -61.614008033303406, -12.553057780286192 ], [ -61.614008033303406, -12.553596769456664 ], [ -61.614277527888639, -12.553596769456664 ], [ -61.614277527888639, -12.554135758627135 ], [ -61.614008033303406, -12.554135758627135 ], [ -61.614008033303406, -12.554405253212371 ], [ -61.613738538718167, -12.554405253212371 ], [ -61.613738538718167, -12.554674747797607 ], [ -61.613469044132927, -12.554674747797607 ], [ -61.613469044132927, -12.554944242382843 ], [ -61.612930054962462, -12.554944242382843 ], [ -61.612930054962462, -12.555213736968078 ], [ -61.613199549547694, -12.555213736968078 ], [ -61.613199549547694, -12.55575272613855 ], [ -61.613469044132927, -12.55575272613855 ], [ -61.613469044132927, -12.555483231553314 ], [ -61.613738538718167, -12.555483231553314 ], [ -61.613738538718167, -12.55575272613855 ], [ -61.614008033303406, -12.55575272613855 ], [ -61.614008033303406, -12.555483231553314 ], [ -61.614816517059111, -12.555483231553314 ], [ -61.614816517059111, -12.554944242382843 ], [ -61.615355506229584, -12.554944242382843 ], [ -61.615355506229584, -12.554674747797607 ], [ -61.615625000814816, -12.554674747797607 ], [ -61.615625000814816, -12.554405253212371 ], [ -61.615894495400056, -12.554405253212371 ], [ -61.615894495400056, -12.554674747797607 ], [ -61.616163989985289, -12.554674747797607 ], [ -61.616163989985289, -12.554405253212371 ], [ -61.616433484570521, -12.554405253212371 ], [ -61.616433484570521, -12.554674747797607 ], [ -61.616972473741001, -12.554674747797607 ], [ -61.616972473741001, -12.554405253212371 ], [ -61.617241968326233, -12.554405253212371 ], [ -61.617241968326233, -12.554135758627135 ], [ -61.617511462911466, -12.554135758627135 ], [ -61.617511462911466, -12.553057780286192 ], [ -61.617241968326233, -12.553057780286192 ], [ -61.617241968326233, -12.552788285700956 ], [ -61.617511462911466, -12.552788285700956 ], [ -61.617511462911466, -12.55251879111572 ], [ -61.617241968326233, -12.55251879111572 ], [ -61.617241968326233, -12.55063232901907 ], [ -61.617511462911466, -12.55063232901907 ], [ -61.617511462911466, -12.549015361507655 ], [ -61.617241968326233, -12.549015361507655 ], [ -61.617241968326233, -12.548745866922419 ], [ -61.616972473741001, -12.548745866922419 ], [ -61.616972473741001, -12.548476372337182 ], [ -61.616702979155761, -12.548476372337182 ], [ -61.616702979155761, -12.548745866922419 ], [ -61.616163989985289, -12.548745866922419 ], [ -61.616163989985289, -12.549015361507655 ], [ -61.614816517059111, -12.549015361507655 ], [ -61.614816517059111, -12.548745866922419 ], [ -61.614277527888639, -12.548745866922419 ] ], [ [ -61.613738538718167, -12.550901823604306 ], [ -61.614008033303406, -12.550901823604306 ], [ -61.614008033303406, -12.550362834433834 ], [ -61.614547022473872, -12.550362834433834 ], [ -61.614547022473872, -12.550093339848598 ], [ -61.615086011644344, -12.550093339848598 ], [ -61.615086011644344, -12.551171318189541 ], [ -61.614816517059111, -12.551171318189541 ], [ -61.614816517059111, -12.551440812774777 ], [ -61.614547022473872, -12.551440812774777 ], [ -61.614547022473872, -12.551710307360013 ], [ -61.613738538718167, -12.551710307360013 ], [ -61.613738538718167, -12.550901823604306 ] ] ], [ [ [ -61.613738538718167, -12.546320415655295 ], [ -61.613738538718167, -12.545781426484824 ], [ -61.614008033303406, -12.545781426484824 ], [ -61.614008033303406, -12.545242437314352 ], [ -61.614547022473872, -12.545242437314352 ], [ -61.614547022473872, -12.544972942729116 ], [ -61.613738538718167, -12.544972942729116 ], [ -61.613738538718167, -12.545242437314352 ], [ -61.613469044132927, -12.545242437314352 ], [ -61.613469044132927, -12.546859404825767 ], [ -61.614008033303406, -12.546859404825767 ], [ -61.614008033303406, -12.546320415655295 ], [ -61.613738538718167, -12.546320415655295 ] ] ], [ [ [ -61.616702979155761, -12.544433953558645 ], [ -61.616702979155761, -12.544164458973409 ], [ -61.617511462911466, -12.544164458973409 ], [ -61.617511462911466, -12.543894964388173 ], [ -61.617780957496706, -12.543894964388173 ], [ -61.617780957496706, -12.543625469802937 ], [ -61.617241968326233, -12.543625469802937 ], [ -61.617241968326233, -12.5433559752177 ], [ -61.616702979155761, -12.5433559752177 ], [ -61.616702979155761, -12.543894964388173 ], [ -61.616433484570521, -12.543894964388173 ], [ -61.616433484570521, -12.544164458973409 ], [ -61.616163989985289, -12.544164458973409 ], [ -61.616163989985289, -12.544433953558645 ], [ -61.616702979155761, -12.544433953558645 ] ] ], [ [ [ -61.574661823858968, -12.543625469802937 ], [ -61.574661823858968, -12.5433559752177 ], [ -61.574392329273735, -12.5433559752177 ], [ -61.574392329273735, -12.543625469802937 ], [ -61.574122834688495, -12.543625469802937 ], [ -61.574122834688495, -12.543894964388173 ], [ -61.575739802199912, -12.543894964388173 ], [ -61.575739802199912, -12.543625469802937 ], [ -61.574661823858968, -12.543625469802937 ] ] ], [ [ [ -61.574122834688495, -12.543625469802937 ], [ -61.574122834688495, -12.5433559752177 ], [ -61.572775361762318, -12.5433559752177 ], [ -61.572775361762318, -12.543625469802937 ], [ -61.574122834688495, -12.543625469802937 ] ] ], [ [ [ -61.579512726393212, -12.543086480632464 ], [ -61.579512726393212, -12.543625469802937 ], [ -61.578973737222739, -12.543625469802937 ], [ -61.578973737222739, -12.544164458973409 ], [ -61.578434748052267, -12.544164458973409 ], [ -61.578434748052267, -12.544433953558645 ], [ -61.579243231807979, -12.544433953558645 ], [ -61.579243231807979, -12.544703448143881 ], [ -61.579512726393212, -12.544703448143881 ], [ -61.579512726393212, -12.544433953558645 ], [ -61.580051715563684, -12.544433953558645 ], [ -61.580051715563684, -12.543894964388173 ], [ -61.580321210148924, -12.543894964388173 ], [ -61.580321210148924, -12.542547491461994 ], [ -61.580051715563684, -12.542547491461994 ], [ -61.580051715563684, -12.542008502291521 ], [ -61.579782220978451, -12.542008502291521 ], [ -61.579782220978451, -12.541469513121051 ], [ -61.579512726393212, -12.541469513121051 ], [ -61.579512726393212, -12.541200018535815 ], [ -61.579243231807979, -12.541200018535815 ], [ -61.579243231807979, -12.541739007706287 ], [ -61.579512726393212, -12.541739007706287 ], [ -61.579512726393212, -12.542277996876757 ], [ -61.579782220978451, -12.542277996876757 ], [ -61.579782220978451, -12.543086480632464 ], [ -61.579512726393212, -12.543086480632464 ] ] ], [ [ [ -61.566576986301889, -12.540994913115387 ], [ -61.56280406210859, -12.540967874095534 ], [ -61.56280406210859, -12.541200018535815 ], [ -61.566576986301889, -12.541200018535815 ], [ -61.566576986301889, -12.540994913115387 ] ] ], [ [ [ -61.643113448508878, -12.540661029365342 ], [ -61.643113448508878, -12.540391534780106 ], [ -61.642843953923638, -12.540391534780106 ], [ -61.642843953923638, -12.540661029365342 ], [ -61.643113448508878, -12.540661029365342 ] ] ], [ [ [ -61.628291246320906, -12.531228718882087 ], [ -61.628291246320906, -12.531498213467323 ], [ -61.628560740906138, -12.531498213467323 ], [ -61.628560740906138, -12.531767708052559 ], [ -61.628830235491378, -12.531767708052559 ], [ -61.628830235491378, -12.532306697223031 ], [ -61.629099730076611, -12.532306697223031 ], [ -61.629099730076611, -12.532845686393502 ], [ -61.629369224661843, -12.532845686393502 ], [ -61.629369224661843, -12.533384675563974 ], [ -61.629638719247083, -12.533384675563974 ], [ -61.629638719247083, -12.533654170149211 ], [ -61.629908213832316, -12.533654170149211 ], [ -61.629908213832316, -12.533923664734447 ], [ -61.630177708417555, -12.533923664734447 ], [ -61.630177708417555, -12.533654170149211 ], [ -61.630447203002788, -12.533654170149211 ], [ -61.630447203002788, -12.532037202637795 ], [ -61.630716697588028, -12.532037202637795 ], [ -61.630716697588028, -12.531498213467323 ], [ -61.631525181343733, -12.531498213467323 ], [ -61.631525181343733, -12.531767708052559 ], [ -61.632064170514205, -12.531767708052559 ], [ -61.632064170514205, -12.532306697223031 ], [ -61.632603159684678, -12.532306697223031 ], [ -61.632603159684678, -12.532845686393502 ], [ -61.63287265426991, -12.532845686393502 ], [ -61.63287265426991, -12.533384675563974 ], [ -61.63314214885515, -12.533384675563974 ], [ -61.63314214885515, -12.533654170149211 ], [ -61.633411643440382, -12.533654170149211 ], [ -61.633411643440382, -12.533923664734447 ], [ -61.634759116366567, -12.533923664734447 ], [ -61.634759116366567, -12.533115180978738 ], [ -61.634489621781327, -12.533115180978738 ], [ -61.634489621781327, -12.532845686393502 ], [ -61.634220127196095, -12.532845686393502 ], [ -61.634220127196095, -12.532306697223031 ], [ -61.633950632610855, -12.532306697223031 ], [ -61.633950632610855, -12.532037202637795 ], [ -61.633681138025622, -12.532037202637795 ], [ -61.633681138025622, -12.531767708052559 ], [ -61.633950632610855, -12.531767708052559 ], [ -61.633950632610855, -12.531498213467323 ], [ -61.633681138025622, -12.531498213467323 ], [ -61.633681138025622, -12.531228718882087 ], [ -61.633950632610855, -12.531228718882087 ], [ -61.633950632610855, -12.530689729711616 ], [ -61.634220127196095, -12.530689729711616 ], [ -61.634220127196095, -12.53042023512638 ], [ -61.633950632610855, -12.53042023512638 ], [ -61.633950632610855, -12.530150740541144 ], [ -61.633411643440382, -12.530150740541144 ], [ -61.633411643440382, -12.53042023512638 ], [ -61.63314214885515, -12.53042023512638 ], [ -61.63314214885515, -12.530150740541144 ], [ -61.632603159684678, -12.530150740541144 ], [ -61.632603159684678, -12.53042023512638 ], [ -61.629099730076611, -12.53042023512638 ], [ -61.629099730076611, -12.530150740541144 ], [ -61.628560740906138, -12.530150740541144 ], [ -61.628560740906138, -12.529881245955908 ], [ -61.628291246320906, -12.529881245955908 ], [ -61.628291246320906, -12.530150740541144 ], [ -61.627752257150433, -12.530150740541144 ], [ -61.627752257150433, -12.530959224296851 ], [ -61.628021751735666, -12.530959224296851 ], [ -61.628021751735666, -12.531228718882087 ], [ -61.628291246320906, -12.531228718882087 ] ] ] ] } }
]
}
