{
"type": "FeatureCollection",
"name": "sagarana",
"crs": { "type": "name", "properties": { "name": "urn:ogc:def:crs:OGC:1.3:CRS84" } },
"features": [
{ "type": "Feature", "properties": { "area_ha": 76.33 }, "geometry": { "type": "MultiPolygon", "coordinates": [ [ [ [ -65.013951720638971, -11.954779801062591 ], [ -65.013682226053731, -11.954779801062587 ], [ -65.013682226053731, -11.954510306477362 ], [ -65.012873742298027, -11.954510306477356 ], [ -65.012873742298027, -11.954779801062591 ], [ -65.012334753127547, -11.954779801062594 ], [ -65.012334753127547, -11.95504929564782 ], [ -65.012604247712787, -11.955049295647822 ], [ -65.012604247712787, -11.955318790233054 ], [ -65.012873742298027, -11.955318790233063 ], [ -65.012873742298027, -11.955588284818299 ], [ -65.013412731468492, -11.955588284818296 ], [ -65.013412731468492, -11.955857779403537 ], [ -65.013682226053731, -11.955857779403525 ], [ -65.013682226053731, -11.956127273988775 ], [ -65.014490709809436, -11.956127273988773 ], [ -65.014490709809436, -11.955588284818301 ], [ -65.014760204394676, -11.955588284818299 ], [ -65.014760204394676, -11.955049295647822 ], [ -65.015029698979916, -11.955049295647818 ], [ -65.015029698979916, -11.954779801062585 ], [ -65.014760204394676, -11.954779801062593 ], [ -65.014760204394676, -11.954510306477362 ], [ -65.014490709809436, -11.954510306477353 ], [ -65.014490709809436, -11.954779801062593 ], [ -65.014221215224197, -11.954779801062587 ], [ -65.014221215224197, -11.954510306477362 ], [ -65.013951720638971, -11.954510306477353 ], [ -65.013951720638971, -11.954779801062591 ] ] ], [ [ [ -65.017724644832271, -11.954240811892118 ], [ -65.017455150247031, -11.954240811892111 ], [ -65.017455150247031, -11.955049295647825 ], [ -65.017724644832271, -11.955049295647816 ], [ -65.017724644832271, -11.955318790233056 ], [ -65.01799413941751, -11.955318790233065 ], [ -65.01799413941751, -11.955049295647829 ], [ -65.019072117758455, -11.95504929564782 ], [ -65.019072117758455, -11.954779801062582 ], [ -65.01961110692892, -11.954779801062589 ], [ -65.01961110692892, -11.953971317306879 ], [ -65.01934161234368, -11.953971317306877 ], [ -65.01934161234368, -11.954240811892131 ], [ -65.019072117758455, -11.954240811892113 ], [ -65.019072117758455, -11.953971317306879 ], [ -65.017724644832271, -11.953971317306886 ], [ -65.017724644832271, -11.954240811892118 ] ] ], [ [ [ -65.010717785616137, -11.950198393113578 ], [ -65.010448291030897, -11.950198393113583 ], [ -65.010448291030897, -11.949928898528336 ], [ -65.009639807275192, -11.94992889852835 ], [ -65.009639807275192, -11.950198393113578 ], [ -65.009370312689953, -11.950198393113588 ], [ -65.009370312689953, -11.950467887698814 ], [ -65.008831323519487, -11.950467887698816 ], [ -65.008831323519487, -11.951006876869293 ], [ -65.008561828934248, -11.951006876869286 ], [ -65.008561828934248, -11.95073738228405 ], [ -65.008292334349008, -11.950737382284053 ], [ -65.008292334349008, -11.951006876869291 ], [ -65.008022839763782, -11.951006876869286 ], [ -65.008022839763782, -11.951276371454524 ], [ -65.007483850593303, -11.951276371454526 ], [ -65.007483850593303, -11.951545866039758 ], [ -65.007214356008078, -11.951545866039769 ], [ -65.007214356008078, -11.951815360625 ], [ -65.007753345178543, -11.951815360624989 ], [ -65.007753345178543, -11.952084855210233 ], [ -65.009370312689953, -11.952084855210234 ], [ -65.009370312689953, -11.951815360624988 ], [ -65.009639807275192, -11.951815360624995 ], [ -65.009639807275192, -11.95154586603976 ], [ -65.009909301860432, -11.951545866039751 ], [ -65.009909301860432, -11.951276371454517 ], [ -65.010448291030897, -11.951276371454522 ], [ -65.010448291030897, -11.9510068768693 ], [ -65.010717785616137, -11.951006876869297 ], [ -65.010717785616137, -11.950737382284053 ], [ -65.010987280201377, -11.950737382284055 ], [ -65.010987280201377, -11.950467887698821 ], [ -65.011526269371842, -11.950467887698824 ], [ -65.011526269371842, -11.949928898528343 ], [ -65.011256774786602, -11.949928898528336 ], [ -65.011256774786602, -11.950198393113586 ], [ -65.010987280201377, -11.950198393113581 ], [ -65.010987280201377, -11.949928898528343 ], [ -65.010717785616137, -11.949928898528345 ], [ -65.010717785616137, -11.950198393113578 ] ] ], [ [ [ -65.018263634002736, -11.949120414772631 ], [ -65.018533128587976, -11.949120414772635 ], [ -65.018533128587976, -11.948581425602171 ], [ -65.018802623173215, -11.948581425602162 ], [ -65.018802623173215, -11.948850920187404 ], [ -65.019072117758455, -11.948850920187395 ], [ -65.019072117758455, -11.948581425602168 ], [ -65.01934161234368, -11.948581425602175 ], [ -65.01934161234368, -11.948311931016924 ], [ -65.01961110692892, -11.948311931016939 ], [ -65.01961110692892, -11.947772941846454 ], [ -65.01988060151416, -11.947772941846464 ], [ -65.01988060151416, -11.94750344726123 ], [ -65.019072117758455, -11.947503447261219 ], [ -65.019072117758455, -11.947772941846463 ], [ -65.018533128587976, -11.947772941846463 ], [ -65.018533128587976, -11.948042436431688 ], [ -65.018263634002736, -11.948042436431692 ], [ -65.018263634002736, -11.949120414772631 ] ] ], [ [ [ -65.013951720638971, -11.946964458090745 ], [ -65.013682226053731, -11.946964458090743 ], [ -65.013682226053731, -11.947503447261214 ], [ -65.013412731468492, -11.947503447261228 ], [ -65.013412731468492, -11.948581425602166 ], [ -65.013682226053731, -11.948581425602169 ], [ -65.013682226053731, -11.948311931016937 ], [ -65.014221215224197, -11.948311931016923 ], [ -65.014221215224197, -11.947772941846463 ], [ -65.014760204394676, -11.947772941846457 ], [ -65.014760204394676, -11.947503447261218 ], [ -65.015029698979916, -11.947503447261225 ], [ -65.015029698979916, -11.947233952675978 ], [ -65.015299193565141, -11.94723395267598 ], [ -65.015299193565141, -11.946694963505514 ], [ -65.015568688150381, -11.946694963505516 ], [ -65.015568688150381, -11.945886479749815 ], [ -65.014760204394676, -11.945886479749802 ], [ -65.014760204394676, -11.946155974335044 ], [ -65.014221215224197, -11.946155974335042 ], [ -65.014221215224197, -11.946694963505511 ], [ -65.013951720638971, -11.946694963505506 ], [ -65.013951720638971, -11.946964458090745 ] ] ], [ [ [ -65.015838182735621, -11.942113555556499 ], [ -65.016107677320861, -11.942113555556514 ], [ -65.016107677320861, -11.942652544726986 ], [ -65.016377171906086, -11.942652544726968 ], [ -65.016377171906086, -11.943191533897455 ], [ -65.016646666491326, -11.943191533897458 ], [ -65.016646666491326, -11.943461028482684 ], [ -65.016916161076566, -11.943461028482686 ], [ -65.016916161076566, -11.943191533897451 ], [ -65.017185655661791, -11.943191533897451 ], [ -65.017185655661791, -11.940766082630327 ], [ -65.016916161076566, -11.940766082630326 ], [ -65.016916161076566, -11.940496588045098 ], [ -65.016646666491326, -11.940496588045086 ], [ -65.016646666491326, -11.940227093459848 ], [ -65.016377171906086, -11.94022709345985 ], [ -65.016377171906086, -11.940496588045095 ], [ -65.016107677320861, -11.940496588045077 ], [ -65.016107677320861, -11.94076608263032 ], [ -65.015838182735621, -11.940766082630329 ], [ -65.015838182735621, -11.942113555556499 ] ] ], [ [ [ -65.004788904740948, -11.886058681827441 ], [ -65.005058399326188, -11.886058681827445 ], [ -65.005058399326188, -11.886328176412679 ], [ -65.005597388496653, -11.886328176412675 ], [ -65.005597388496653, -11.886058681827448 ], [ -65.005866883081893, -11.886058681827448 ], [ -65.005866883081893, -11.885789187242217 ], [ -65.005597388496653, -11.885789187242217 ], [ -65.005597388496653, -11.884980703486509 ], [ -65.005327893911414, -11.884980703486509 ], [ -65.005327893911414, -11.884711208901267 ], [ -65.005058399326188, -11.884711208901264 ], [ -65.005058399326188, -11.883902725145559 ], [ -65.004788904740948, -11.883902725145559 ], [ -65.004788904740948, -11.884711208901276 ], [ -65.004519410155709, -11.884711208901274 ], [ -65.004519410155709, -11.885519692656976 ], [ -65.004788904740948, -11.885519692656983 ], [ -65.004788904740948, -11.886058681827441 ] ] ], [ [ [ -65.004788904740948, -11.880668790122739 ], [ -65.005058399326188, -11.880668790122737 ], [ -65.005058399326188, -11.883363735975085 ], [ -65.005327893911414, -11.883363735975086 ], [ -65.005327893911414, -11.880129800952254 ], [ -65.005058399326188, -11.880129800952265 ], [ -65.005058399326188, -11.879590811781787 ], [ -65.004788904740948, -11.879590811781792 ], [ -65.004788904740948, -11.879860306367023 ], [ -65.004519410155709, -11.879860306367018 ], [ -65.004519410155709, -11.880129800952265 ], [ -65.004788904740948, -11.880129800952252 ], [ -65.004788904740948, -11.880668790122739 ] ] ], [ [ [ -65.006405872252358, -11.87824333885561 ], [ -65.006944861422838, -11.87824333885561 ], [ -65.006944861422838, -11.87797384427037 ], [ -65.007214356008078, -11.877973844270374 ], [ -65.007214356008078, -11.877434855099905 ], [ -65.006944861422838, -11.877434855099898 ], [ -65.006944861422838, -11.877165360514665 ], [ -65.006675366837598, -11.877165360514656 ], [ -65.006675366837598, -11.876895865929423 ], [ -65.005866883081893, -11.876895865929425 ], [ -65.005866883081893, -11.877704349685136 ], [ -65.006136377667133, -11.877704349685134 ], [ -65.006136377667133, -11.877973844270366 ], [ -65.006405872252358, -11.877973844270366 ], [ -65.006405872252358, -11.87824333885561 ] ] ], [ [ [ -65.004519410155709, -11.872853447150886 ], [ -65.004788904740948, -11.872853447150892 ], [ -65.004788904740948, -11.87258395256565 ], [ -65.004249915570483, -11.872583952565659 ], [ -65.004249915570483, -11.872853447150892 ], [ -65.003980420985243, -11.872853447150881 ], [ -65.003980420985243, -11.873122941736122 ], [ -65.004519410155709, -11.873122941736117 ], [ -65.004519410155709, -11.872853447150886 ] ] ], [ [ [ -65.005327893911414, -11.872044963395187 ], [ -65.004788904740948, -11.872044963395188 ], [ -65.004788904740948, -11.87258395256565 ], [ -65.005058399326188, -11.872583952565654 ], [ -65.005058399326188, -11.872314457980421 ], [ -65.005327893911414, -11.872314457980419 ], [ -65.005327893911414, -11.872044963395187 ] ] ], [ [ [ -65.007483850593303, -11.872044963395188 ], [ -65.007753345178543, -11.872044963395181 ], [ -65.007753345178543, -11.87231445798041 ], [ -65.009370312689953, -11.872314457980426 ], [ -65.009370312689953, -11.872044963395188 ], [ -65.009639807275192, -11.872044963395187 ], [ -65.009639807275192, -11.871775468809952 ], [ -65.009100818104727, -11.87177546880994 ], [ -65.009100818104727, -11.872044963395176 ], [ -65.008831323519487, -11.872044963395185 ], [ -65.008831323519487, -11.871505974224705 ], [ -65.008292334349008, -11.871505974224704 ], [ -65.008292334349008, -11.870697490469002 ], [ -65.008022839763782, -11.870697490468997 ], [ -65.008022839763782, -11.870966985054244 ], [ -65.007753345178543, -11.870966985054242 ], [ -65.007753345178543, -11.871236479639476 ], [ -65.007483850593303, -11.871236479639466 ], [ -65.007483850593303, -11.872044963395188 ] ] ], [ [ [ -65.009370312689953, -11.870966985054242 ], [ -65.009370312689953, -11.871505974224712 ], [ -65.009639807275192, -11.871505974224704 ], [ -65.009639807275192, -11.871775468809952 ], [ -65.009909301860432, -11.871775468809949 ], [ -65.009909301858855, -11.87097349513215 ], [ -65.009899453345554, -11.870966985058756 ], [ -65.009639807275192, -11.870966985054244 ], [ -65.009639807270077, -11.870795353313092 ], [ -65.009491759846554, -11.870697490500829 ], [ -65.009370312689953, -11.870697490469007 ], [ -65.009370312685334, -11.87061721096471 ], [ -65.009336061648, -11.870594570173999 ], [ -65.00937031268478, -11.870529317596864 ], [ -65.009370312689953, -11.870427995883775 ], [ -65.008292334349008, -11.87042799588377 ], [ -65.008292334349008, -11.870697490469002 ], [ -65.009100818104727, -11.870697490469002 ], [ -65.009100818104727, -11.870966985054237 ], [ -65.009370312689953, -11.870966985054242 ] ] ], [ [ [ -65.005327893911414, -11.872044963395187 ], [ -65.005597388496653, -11.872044963395174 ], [ -65.005597388496653, -11.871775468809945 ], [ -65.005866883081893, -11.871775468809936 ], [ -65.005866883081893, -11.871505974224714 ], [ -65.006136377667133, -11.871505974224714 ], [ -65.006136377667133, -11.87096698505424 ], [ -65.006405872252358, -11.870966985054235 ], [ -65.006405872252358, -11.870697490469 ], [ -65.006136377667133, -11.870697490469 ], [ -65.006136377667133, -11.870427995883761 ], [ -65.006405872252358, -11.87042799588377 ], [ -65.006405872252358, -11.870158501298533 ], [ -65.006136377667133, -11.870158501298535 ], [ -65.006136377667133, -11.868811028372352 ], [ -65.005866883081893, -11.868811028372352 ], [ -65.005866883081893, -11.870697490469013 ], [ -65.005597388496653, -11.870697490469007 ], [ -65.005597388496653, -11.871505974224712 ], [ -65.005327893911414, -11.871505974224711 ], [ -65.005327893911414, -11.872044963395187 ] ] ], [ [ [ -65.006136377667133, -11.867463555446182 ], [ -65.006405872252358, -11.867463555446177 ], [ -65.006405872252358, -11.866385577105225 ], [ -65.006136377667133, -11.866385577105229 ], [ -65.006136377667133, -11.865846587934763 ], [ -65.005866883081893, -11.86584658793476 ], [ -65.005866883081893, -11.865307598764288 ], [ -65.005597388496653, -11.865307598764284 ], [ -65.005597388496653, -11.866385577105225 ], [ -65.005866883081893, -11.866385577105232 ], [ -65.005866883081893, -11.866924566275692 ], [ -65.006136377667133, -11.866924566275697 ], [ -65.006136377667133, -11.867463555446182 ] ] ], [ [ [ -65.004249915570483, -11.842670053604467 ], [ -65.003710926400004, -11.842670053604465 ], [ -65.003710926400004, -11.842939548189721 ], [ -65.003980420985243, -11.84293954818971 ], [ -65.003980420985243, -11.843209042774935 ], [ -65.005597388496653, -11.843209042774937 ], [ -65.005597388496653, -11.842939548189708 ], [ -65.005866883081893, -11.842939548189714 ], [ -65.005866883081893, -11.842670053604474 ], [ -65.005597388496653, -11.842670053604474 ], [ -65.005597388496653, -11.842400559019248 ], [ -65.005058399326188, -11.842400559019236 ], [ -65.005058399326188, -11.842670053604472 ], [ -65.004519410155709, -11.842670053604468 ], [ -65.004519410155709, -11.842400559019246 ], [ -65.004249915570483, -11.842400559019238 ], [ -65.004249915570483, -11.842670053604467 ] ] ], [ [ [ -65.005866883081893, -11.842670053604474 ], [ -65.006136377667133, -11.842670053604477 ], [ -65.006136377667133, -11.842400559019232 ], [ -65.005866883081893, -11.84240055901923 ], [ -65.005866883081893, -11.842670053604474 ] ] ], [ [ [ -64.984037821677788, -11.984424205438536 ], [ -64.984307316263028, -11.98442420543854 ], [ -64.984307316263028, -11.984693700023769 ], [ -64.984037821677788, -11.984693700023769 ], [ -64.984037821677788, -11.984963194609 ], [ -64.984307316263028, -11.984963194609005 ], [ -64.984307316263028, -11.985232689194241 ], [ -64.984846305433493, -11.985232689194241 ], [ -64.984846305433493, -11.984693700023776 ], [ -64.985385294603972, -11.984693700023763 ], [ -64.985385294603972, -11.984424205438529 ], [ -64.985654789189198, -11.984424205438533 ], [ -64.985654789189198, -11.983885216268062 ], [ -64.985924283774438, -11.983885216268057 ], [ -64.985924283774438, -11.983615721682821 ], [ -64.986193778359677, -11.983615721682821 ], [ -64.986193778359677, -11.983346227097595 ], [ -64.986463272944917, -11.983346227097597 ], [ -64.986463272944917, -11.983076732512346 ], [ -64.986732767530142, -11.983076732512359 ], [ -64.986732767530142, -11.982807237927117 ], [ -64.986463272944917, -11.982807237927116 ], [ -64.986463272944917, -11.982537743341881 ], [ -64.986193778359677, -11.982537743341878 ], [ -64.986193778359677, -11.982268248756656 ], [ -64.985924283774438, -11.982268248756645 ], [ -64.985924283774438, -11.981998754171403 ], [ -64.984576810848253, -11.981998754171412 ], [ -64.984576810848253, -11.983615721682835 ], [ -64.984307316263028, -11.983615721682829 ], [ -64.984307316263028, -11.984154710853307 ], [ -64.984037821677788, -11.984154710853302 ], [ -64.984037821677788, -11.984424205438536 ] ] ], [ [ [ -64.97568348953547, -11.963403627790132 ], [ -64.976491973291189, -11.963403627790136 ], [ -64.976491973291189, -11.963134133204901 ], [ -64.97568348953547, -11.963134133204912 ], [ -64.97568348953547, -11.963403627790132 ] ] ], [ [ [ -64.977300457046894, -11.963942616960606 ], [ -64.97756995163212, -11.96394261696061 ], [ -64.97756995163212, -11.962864638619665 ], [ -64.977300457046894, -11.962864638619662 ], [ -64.977300457046894, -11.962325649449197 ], [ -64.977030962461654, -11.962325649449193 ], [ -64.977030962461654, -11.962595144034429 ], [ -64.976761467876415, -11.962595144034434 ], [ -64.976761467876415, -11.962056154863967 ], [ -64.976491973291189, -11.962056154863964 ], [ -64.976491973291189, -11.963134133204901 ], [ -64.977030962461654, -11.963134133204898 ], [ -64.977030962461654, -11.963673122375377 ], [ -64.977300457046894, -11.963673122375372 ], [ -64.977300457046894, -11.963942616960606 ] ] ], [ [ [ -64.975413994950245, -11.963134133204894 ], [ -64.97568348953547, -11.963134133204912 ], [ -64.97568348953547, -11.962864638619671 ], [ -64.975413994950245, -11.962864638619674 ], [ -64.975413994950245, -11.963134133204894 ] ] ], [ [ [ -64.975144500365005, -11.960978176523025 ], [ -64.975413994950245, -11.96097817652301 ], [ -64.975413994950245, -11.961517165693481 ], [ -64.97568348953547, -11.961517165693492 ], [ -64.97568348953547, -11.961786660278729 ], [ -64.976222478705949, -11.961786660278714 ], [ -64.976222478705949, -11.960978176523012 ], [ -64.97595298412071, -11.960978176523012 ], [ -64.97595298412071, -11.960439187352536 ], [ -64.97568348953547, -11.960439187352549 ], [ -64.97568348953547, -11.960169692767302 ], [ -64.975413994950245, -11.960169692767309 ], [ -64.975413994950245, -11.960439187352552 ], [ -64.974875005779765, -11.960439187352549 ], [ -64.974875005779765, -11.960708681937781 ], [ -64.975144500365005, -11.960708681937772 ], [ -64.975144500365005, -11.960978176523025 ] ] ], [ [ [ -64.976222478705949, -11.953971317306889 ], [ -64.97595298412071, -11.953971317306889 ], [ -64.97595298412071, -11.95424081189212 ], [ -64.97568348953547, -11.954240811892115 ], [ -64.97568348953547, -11.954779801062587 ], [ -64.975144500365005, -11.954779801062584 ], [ -64.975144500365005, -11.955318790233067 ], [ -64.974875005779765, -11.95531879023307 ], [ -64.974875005779765, -11.95558828481829 ], [ -64.975144500365005, -11.955588284818299 ], [ -64.975144500365005, -11.95585777940353 ], [ -64.974875005779765, -11.955857779403528 ], [ -64.974875005779765, -11.956127273988765 ], [ -64.975144500365005, -11.956127273988777 ], [ -64.975144500365005, -11.956666263159242 ], [ -64.975413994950245, -11.956666263159246 ], [ -64.975413994950245, -11.956935757744484 ], [ -64.97595298412071, -11.956935757744473 ], [ -64.97595298412071, -11.95558828481829 ], [ -64.976222478705949, -11.955588284818306 ], [ -64.976222478705949, -11.95451030647736 ], [ -64.976491973291189, -11.954510306477362 ], [ -64.976491973291189, -11.953971317306877 ], [ -64.976761467876415, -11.953971317306884 ], [ -64.976761467876415, -11.953432328136421 ], [ -64.977030962461654, -11.953432328136422 ], [ -64.977030962461654, -11.952623844380696 ], [ -64.976761467876415, -11.952623844380707 ], [ -64.976761467876415, -11.952893338965943 ], [ -64.976491973291189, -11.952893338965943 ], [ -64.976491973291189, -11.953432328136415 ], [ -64.976222478705949, -11.953432328136408 ], [ -64.976222478705949, -11.953971317306889 ] ] ], [ [ [ -64.994817605087221, -11.911660667424854 ], [ -64.993200637575811, -11.911660667424847 ], [ -64.993200637575811, -11.911930162010085 ], [ -64.992931142990585, -11.911930162010089 ], [ -64.992931142990585, -11.912199656595336 ], [ -64.993470132161036, -11.912199656595318 ], [ -64.993470132161036, -11.912469151180556 ], [ -64.993739626746276, -11.91246915118057 ], [ -64.993739626746276, -11.912199656595321 ], [ -64.994278615916755, -11.91219965659532 ], [ -64.994278615916755, -11.912469151180566 ], [ -64.995626088842926, -11.912469151180556 ], [ -64.995626088842926, -11.912199656595318 ], [ -64.995895583428165, -11.91219965659532 ], [ -64.995895583428165, -11.912469151180556 ], [ -64.996434572598631, -11.912469151180568 ], [ -64.996434572598631, -11.91219965659532 ], [ -64.996165078013419, -11.91219965659532 ], [ -64.996165078013419, -11.911930162010085 ], [ -64.99697356176911, -11.911930162010094 ], [ -64.99697356176911, -11.911391172839622 ], [ -64.996165078013419, -11.91139117283962 ], [ -64.996165078013419, -11.911660667424844 ], [ -64.995356594257686, -11.911660667424853 ], [ -64.995356594257686, -11.91193016201008 ], [ -64.994817605087221, -11.911930162010092 ], [ -64.994817605087221, -11.911660667424854 ] ] ], [ [ [ -64.992931142990585, -11.911121678254379 ], [ -64.99185316464964, -11.911121678254389 ], [ -64.99185316464964, -11.911391172839624 ], [ -64.991583670064387, -11.911391172839613 ], [ -64.991583670064387, -11.911930162010087 ], [ -64.992931142990585, -11.911930162010089 ], [ -64.992931142990585, -11.911121678254379 ] ], [ [ -64.992122659234866, -11.911660667424856 ], [ -64.992122659234866, -11.91139117283962 ], [ -64.992661648405331, -11.911391172839624 ], [ -64.992661648405331, -11.911660667424854 ], [ -64.992122659234866, -11.911660667424856 ] ] ], [ [ [ -64.991314175479161, -11.911121678254384 ], [ -64.990775186308696, -11.911121678254384 ], [ -64.990775186308696, -11.910852183669139 ], [ -64.990505691723442, -11.910852183669148 ], [ -64.990505691723442, -11.911391172839609 ], [ -64.990775186308696, -11.911391172839622 ], [ -64.990775186308696, -11.911660667424847 ], [ -64.991314175479161, -11.911660667424854 ], [ -64.991314175479161, -11.911121678254384 ] ] ], [ [ [ -64.989697207967751, -11.91058268908391 ], [ -64.989966702552977, -11.910582689083906 ], [ -64.989966702552977, -11.910852183669139 ], [ -64.990505691723442, -11.910852183669148 ], [ -64.990505691723442, -11.910582689083913 ], [ -64.990236197138216, -11.910582689083904 ], [ -64.990236197138216, -11.909774205328208 ], [ -64.989697207967751, -11.909774205328194 ], [ -64.989697207967751, -11.910043699913434 ], [ -64.989427713382497, -11.910043699913439 ], [ -64.989427713382497, -11.910313194498681 ], [ -64.989697207967751, -11.910313194498666 ], [ -64.989697207967751, -11.91058268908391 ] ] ], [ [ [ -64.983498832507308, -11.909774205328194 ], [ -64.983768327092548, -11.909774205328192 ], [ -64.983768327092548, -11.910043699913441 ], [ -64.984037821677788, -11.91004369991343 ], [ -64.984037821677788, -11.910313194498666 ], [ -64.984307316263028, -11.910313194498679 ], [ -64.984307316263028, -11.910582689083904 ], [ -64.985385294603972, -11.910582689083917 ], [ -64.985385294603972, -11.909504710742967 ], [ -64.984846305433493, -11.909504710742972 ], [ -64.984846305433493, -11.908965721572496 ], [ -64.984576810848253, -11.908965721572491 ], [ -64.984576810848253, -11.908696226987256 ], [ -64.984307316263028, -11.908696226987267 ], [ -64.984307316263028, -11.908965721572494 ], [ -64.984037821677788, -11.908965721572489 ], [ -64.984037821677788, -11.90869622698726 ], [ -64.983498832507308, -11.908696226987251 ], [ -64.983498832507308, -11.909774205328194 ] ] ], [ [ [ -64.999938002206704, -11.907618248646315 ], [ -64.999938002206704, -11.907348754061076 ], [ -65.000207496791944, -11.907348754061074 ], [ -65.000207496791944, -11.907079259475838 ], [ -64.999129518450999, -11.907079259475839 ], [ -64.999129518450999, -11.906809764890603 ], [ -64.99886002386576, -11.906809764890598 ], [ -64.99886002386576, -11.907079259475838 ], [ -64.99859052928052, -11.907079259475838 ], [ -64.99859052928052, -11.906809764890601 ], [ -64.998321034695309, -11.906809764890612 ], [ -64.998321034695309, -11.907079259475845 ], [ -64.998051540110055, -11.90707925947585 ], [ -64.998051540110055, -11.906540270305374 ], [ -64.997512550939575, -11.906540270305374 ], [ -64.997512550939575, -11.906270775720131 ], [ -64.996434572598631, -11.906270775720133 ], [ -64.996434572598631, -11.906540270305367 ], [ -64.995895583428165, -11.906540270305374 ], [ -64.995895583428165, -11.907079259475839 ], [ -64.995626088842926, -11.907079259475843 ], [ -64.995626088842926, -11.907348754061083 ], [ -64.995895583428165, -11.907348754061074 ], [ -64.995895583428165, -11.907618248646305 ], [ -64.99697356176911, -11.907618248646321 ], [ -64.99697356176911, -11.907348754061081 ], [ -64.99859052928052, -11.907348754061079 ], [ -64.99859052928052, -11.907618248646314 ], [ -64.99886002386576, -11.907618248646314 ], [ -64.99886002386576, -11.907887743231548 ], [ -64.999399013036225, -11.907887743231548 ], [ -64.999399013036225, -11.908157237816788 ], [ -64.999668507621465, -11.908157237816784 ], [ -64.999668507621465, -11.907618248646315 ], [ -64.999938002206704, -11.907618248646315 ] ], [ [ -64.99886002386576, -11.907348754061079 ], [ -64.999399013036225, -11.907348754061083 ], [ -64.999399013036225, -11.907618248646308 ], [ -64.99886002386576, -11.907618248646314 ], [ -64.99886002386576, -11.907348754061079 ] ] ], [ [ [ -64.977030962461654, -11.906270775720131 ], [ -64.976491973291189, -11.906270775720138 ], [ -64.976491973291189, -11.906540270305381 ], [ -64.97595298412071, -11.906540270305362 ], [ -64.97595298412071, -11.907348754061076 ], [ -64.976222478705949, -11.907348754061072 ], [ -64.976222478705949, -11.907887743231544 ], [ -64.976761467876415, -11.907887743231552 ], [ -64.976761467876415, -11.908157237816786 ], [ -64.977030962461654, -11.908157237816784 ], [ -64.977030962461654, -11.908426732402029 ], [ -64.97756995163212, -11.908426732402026 ], [ -64.97756995163212, -11.908696226987255 ], [ -64.978108940802599, -11.90869622698726 ], [ -64.978108940802599, -11.908426732402027 ], [ -64.978378435387839, -11.908426732402026 ], [ -64.978378435387839, -11.907887743231543 ], [ -64.978647929973064, -11.907887743231559 ], [ -64.978647929973064, -11.907618248646305 ], [ -64.978378435387839, -11.907618248646319 ], [ -64.978378435387839, -11.907348754061076 ], [ -64.978647929973064, -11.907348754061085 ], [ -64.978647929973064, -11.907079259475836 ], [ -64.978917424558304, -11.907079259475838 ], [ -64.978917424558304, -11.90627077572014 ], [ -64.979186919143544, -11.906270775720142 ], [ -64.979186919143544, -11.906001281134902 ], [ -64.97756995163212, -11.9060012811349 ], [ -64.97756995163212, -11.906270775720131 ], [ -64.977300457046894, -11.906270775720133 ], [ -64.977300457046894, -11.906001281134897 ], [ -64.977030962461654, -11.906001281134902 ], [ -64.977030962461654, -11.906270775720131 ] ] ], [ [ [ -65.004249915570483, -11.908157237816781 ], [ -65.004249915570483, -11.907887743231544 ], [ -65.004519410155709, -11.907887743231555 ], [ -65.004519410155709, -11.907618248646312 ], [ -65.004788904740948, -11.907618248646321 ], [ -65.004788904740948, -11.907348754061086 ], [ -65.004519410155709, -11.907348754061076 ], [ -65.004519410155709, -11.906001281134897 ], [ -65.003980420985243, -11.906001281134904 ], [ -65.003980420985243, -11.905731786549673 ], [ -65.003710926400004, -11.905731786549664 ], [ -65.003710926400004, -11.905462291964433 ], [ -65.002632948059059, -11.905462291964438 ], [ -65.002632948059059, -11.906001281134898 ], [ -65.002363453473819, -11.906001281134889 ], [ -65.002363453473819, -11.906809764890603 ], [ -65.001824464303354, -11.906809764890603 ], [ -65.001824464303354, -11.907079259475838 ], [ -65.001554969718114, -11.907079259475845 ], [ -65.001554969718114, -11.907348754061069 ], [ -65.001285475132889, -11.907348754061081 ], [ -65.001285475132889, -11.907618248646306 ], [ -65.001824464303354, -11.907618248646319 ], [ -65.001824464303354, -11.908157237816788 ], [ -65.002363453473819, -11.908157237816791 ], [ -65.002363453473819, -11.908426732402026 ], [ -65.002902442644299, -11.908426732402024 ], [ -65.002902442644299, -11.908696226987253 ], [ -65.003441431814764, -11.908696226987262 ], [ -65.003441431814764, -11.908426732402022 ], [ -65.003710926400004, -11.908426732402029 ], [ -65.003710926400004, -11.908157237816782 ], [ -65.004249915570483, -11.908157237816781 ] ], [ [ -65.002902442644299, -11.908157237816791 ], [ -65.003171937229538, -11.908157237816789 ], [ -65.003171937229538, -11.908426732402022 ], [ -65.002902442644299, -11.908426732402024 ], [ -65.002902442644299, -11.908157237816791 ] ], [ [ -65.002632948059059, -11.907887743231559 ], [ -65.002632948059059, -11.90761824864631 ], [ -65.002902442644299, -11.90761824864631 ], [ -65.002902442644299, -11.907887743231559 ], [ -65.002632948059059, -11.907887743231559 ] ] ], [ [ [ -64.982959843336843, -11.898455432748289 ], [ -64.982959843336843, -11.89872492733353 ], [ -64.983498832507308, -11.898724927333527 ], [ -64.983498832507308, -11.898455432748298 ], [ -64.984307316263028, -11.898455432748287 ], [ -64.984307316263028, -11.898185938163065 ], [ -64.984846305433493, -11.898185938163065 ], [ -64.984846305433493, -11.897646948992596 ], [ -64.985385294603972, -11.89764694899258 ], [ -64.985385294603972, -11.897377454407344 ], [ -64.984846305433493, -11.897377454407353 ], [ -64.984846305433493, -11.897107959822119 ], [ -64.984037821677788, -11.897107959822113 ], [ -64.984037821677788, -11.89764694899258 ], [ -64.982959843336843, -11.89764694899258 ], [ -64.982959843336843, -11.898185938163055 ], [ -64.982690348751603, -11.898185938163053 ], [ -64.982690348751603, -11.898455432748301 ], [ -64.982959843336843, -11.898455432748289 ] ] ], [ [ [ -65.003980420985243, -11.873392436321364 ], [ -65.003980420985243, -11.873122941736122 ], [ -65.003441431814764, -11.873122941736121 ], [ -65.003441431814764, -11.873392436321362 ], [ -65.003980420985243, -11.873392436321364 ] ] ] ] } }
]
}
