{
"type": "FeatureCollection",
"name": "tanaru_restricao_de_uso",
"crs": { "type": "name", "properties": { "name": "urn:ogc:def:crs:OGC:1.3:CRS84" } },
"features": [
{ "type": "Feature", "properties": { "area_ha": 81.28 }, "geometry": { "type": "MultiPolygon", "coordinates": [ [ [ [ -61.349094856016556, -12.688883051245064 ], [ -61.349094856016556, -12.688613556659828 ], [ -61.349364350601782, -12.688613556659833 ], [ -61.349364350601782, -12.68834406207459 ], [ -61.349903339772254, -12.688344062074593 ], [ -61.349903339772254, -12.688074567489352 ], [ -61.350172834357501, -12.688074567489346 ], [ -61.350172834357501, -12.68753557831889 ], [ -61.349903339772254, -12.687535578318888 ], [ -61.349903339772254, -12.687266083733654 ], [ -61.349364350601782, -12.68726608373365 ], [ -61.349364350601782, -12.686996589148414 ], [ -61.349094856016556, -12.686996589148414 ], [ -61.349094856016556, -12.687805072904121 ], [ -61.348825361431324, -12.687805072904117 ], [ -61.348825361431324, -12.688883051245066 ], [ -61.349094856016556, -12.688883051245064 ] ] ], [ [ [ -61.40067996378766, -12.651423305101604 ], [ -61.399759838040893, -12.651423303897278 ], [ -61.399759838040893, -12.651692798482511 ], [ -61.40137680555231, -12.651692798482523 ], [ -61.401376805556609, -12.6515387385425 ], [ -61.40067996378766, -12.651423305101604 ] ] ], [ [ [ -61.388171570875755, -12.650075830971094 ], [ -61.388171570875755, -12.650345325556344 ], [ -61.388441065460988, -12.65034532555633 ], [ -61.388441065460988, -12.650075830971101 ], [ -61.388171570875755, -12.650075830971094 ] ] ], [ [ [ -61.385746119608633, -12.650075830971108 ], [ -61.386285108779106, -12.650075830971094 ], [ -61.386285108779106, -12.65034532555633 ], [ -61.386824097949578, -12.650345325556341 ], [ -61.386824097949578, -12.650075830971108 ], [ -61.387093592534811, -12.650075830971105 ], [ -61.387093592534811, -12.650345325556328 ], [ -61.38736308712005, -12.650345325556339 ], [ -61.38736308712005, -12.650075830971097 ], [ -61.387632581705283, -12.650075830971103 ], [ -61.387632581705283, -12.650345325556339 ], [ -61.387902076290516, -12.650345325556328 ], [ -61.387902076290516, -12.650075830971099 ], [ -61.388171570875755, -12.650075830971094 ], [ -61.388171570875755, -12.649806336385854 ], [ -61.387632581705283, -12.649806336385872 ], [ -61.387632581705283, -12.649536841800636 ], [ -61.387093592534811, -12.649536841800634 ], [ -61.387093592534811, -12.649267347215385 ], [ -61.386285108779106, -12.649267347215391 ], [ -61.386285108779106, -12.649536841800632 ], [ -61.386015614193866, -12.649536841800634 ], [ -61.386015614193866, -12.649806336385858 ], [ -61.385746119608633, -12.649806336385867 ], [ -61.385746119608633, -12.650075830971108 ] ] ], [ [ [ -61.378469765807267, -12.647919874289205 ], [ -61.378469765807267, -12.648189368874441 ], [ -61.37900875497774, -12.648189368874444 ], [ -61.37900875497774, -12.648458863459688 ], [ -61.379278249562965, -12.648458863459684 ], [ -61.379278249562965, -12.648189368874441 ], [ -61.379817238733438, -12.648189368874441 ], [ -61.379817238735981, -12.647966471395726 ], [ -61.3795360876572, -12.64791987470991 ], [ -61.378739260392493, -12.64791987428921 ], [ -61.378739260396948, -12.647787810556022 ], [ -61.377910073119494, -12.647650380510974 ], [ -61.377391787466323, -12.647650379703975 ], [ -61.377391787466323, -12.647919874289212 ], [ -61.378469765807267, -12.647919874289205 ] ] ], [ [ [ -61.36688149864213, -12.638757058391194 ], [ -61.36688149864213, -12.639026552976432 ], [ -61.366342509471657, -12.639026552976432 ], [ -61.366342509471657, -12.639565542146904 ], [ -61.36607301488641, -12.639565542146904 ], [ -61.36607301488641, -12.640374025902606 ], [ -61.365803520301185, -12.640374025902615 ], [ -61.365803520301185, -12.640643520487847 ], [ -61.365534025715938, -12.640643520487842 ], [ -61.365534025715938, -12.640913015073078 ], [ -61.365264531130713, -12.640913015073084 ], [ -61.365264531130713, -12.641452004243554 ], [ -61.364995036545466, -12.641452004243549 ], [ -61.364995036545466, -12.642260487999259 ], [ -61.365264531130713, -12.642260487999259 ], [ -61.365264531130713, -12.642529982584504 ], [ -61.364995036545466, -12.64252998258449 ], [ -61.364995036545466, -12.642799477169731 ], [ -61.365264531130713, -12.642799477169723 ], [ -61.365264531130713, -12.643068971754968 ], [ -61.364995036545466, -12.64306897175496 ], [ -61.364995036545466, -12.643338466340213 ], [ -61.365264531130713, -12.643338466340198 ], [ -61.365264531130713, -12.643607960925436 ], [ -61.364995036545466, -12.643607960925438 ], [ -61.364995036545466, -12.643877455510681 ], [ -61.365264531130713, -12.64387745551068 ], [ -61.365264531130713, -12.64441644468115 ], [ -61.365534025715938, -12.64441644468115 ], [ -61.365534025715938, -12.644685939266385 ], [ -61.36607301488641, -12.644685939266378 ], [ -61.36607301488641, -12.644146950095918 ], [ -61.366342509471657, -12.644146950095912 ], [ -61.366342509471657, -12.643607960925438 ], [ -61.366612004056883, -12.64360796092544 ], [ -61.366612004056883, -12.643068971754968 ], [ -61.36688149864213, -12.643068971754968 ], [ -61.36688149864213, -12.642529982584499 ], [ -61.366612004056883, -12.642529982584495 ], [ -61.366612004056883, -12.642260487999261 ], [ -61.36688149864213, -12.642260487999266 ], [ -61.36688149864213, -12.641990993414023 ], [ -61.366612004056883, -12.641990993414034 ], [ -61.366612004056883, -12.64172149882879 ], [ -61.36688149864213, -12.641721498828787 ], [ -61.36688149864213, -12.641182509658325 ], [ -61.367959476983074, -12.641182509658318 ], [ -61.367959476983074, -12.641721498828792 ], [ -61.3682289715683, -12.641721498828781 ], [ -61.3682289715683, -12.64199099341403 ], [ -61.368767960738772, -12.641990993414026 ], [ -61.368767960738772, -12.637948574635482 ], [ -61.369037455324019, -12.637948574635478 ], [ -61.369037455324019, -12.637409585465022 ], [ -61.367689982397827, -12.637409585465008 ], [ -61.367689982397827, -12.63794857463548 ], [ -61.367420487812602, -12.637948574635493 ], [ -61.367420487812602, -12.638757058391187 ], [ -61.36688149864213, -12.638757058391194 ] ] ], [ [ [ -61.369306949909245, -12.637679080050258 ], [ -61.369576444494491, -12.637679080050257 ], [ -61.369576444495024, -12.637417799288354 ], [ -61.369306949909436, -12.63741248638433 ], [ -61.369306949909245, -12.637679080050258 ] ] ], [ [ [ -61.361222112352159, -12.633906155856938 ], [ -61.361222112352159, -12.633636661271714 ], [ -61.360952617766934, -12.633636661271705 ], [ -61.360952617766934, -12.63417565044219 ], [ -61.360683123181701, -12.634175650442179 ], [ -61.360683123181701, -12.63471463961265 ], [ -61.360413628596461, -12.634714639612648 ], [ -61.360413628596461, -12.635792617953596 ], [ -61.360144134011229, -12.635792617953607 ], [ -61.360144134011229, -12.636331607124067 ], [ -61.359605144840756, -12.63633160712407 ], [ -61.359605144840756, -12.636870596294537 ], [ -61.359066155670284, -12.636870596294534 ], [ -61.359066155670284, -12.637140090879781 ], [ -61.359335650255517, -12.637140090879782 ], [ -61.359335650255517, -12.637409585465008 ], [ -61.359605144840756, -12.637409585465024 ], [ -61.359605144840756, -12.637679080050253 ], [ -61.360144134011229, -12.637679080050249 ], [ -61.360144134011229, -12.637948574635484 ], [ -61.360683123181701, -12.637948574635486 ], [ -61.360683123181701, -12.638218069220718 ], [ -61.361222112352159, -12.638218069220731 ], [ -61.361222112352159, -12.638487563805954 ], [ -61.361761101522632, -12.638487563805949 ], [ -61.361761101522632, -12.638218069220716 ], [ -61.362300090693104, -12.638218069220729 ], [ -61.362300090693104, -12.637948574635484 ], [ -61.362839079863576, -12.637948574635489 ], [ -61.362839079863576, -12.637679080050251 ], [ -61.363378069034049, -12.637679080050244 ], [ -61.363378069034049, -12.63740958546502 ], [ -61.362300090693104, -12.637409585465015 ], [ -61.362300090697609, -12.637274255375141 ], [ -61.36196854, -12.63726771 ], [ -61.36197711646814, -12.635523123390032 ], [ -61.361761101522632, -12.635523123368358 ], [ -61.361761101522632, -12.634984134197886 ], [ -61.361491606937406, -12.634984134197893 ], [ -61.361491606937406, -12.633906155856952 ], [ -61.361222112352159, -12.633906155856938 ] ] ], [ [ [ -61.359605144840756, -12.626629802055575 ], [ -61.358796661085044, -12.626629802055579 ], [ -61.358796661085044, -12.626899296640822 ], [ -61.358527166499812, -12.62689929664081 ], [ -61.358527166499812, -12.627438285811296 ], [ -61.358796661085044, -12.627438285811287 ], [ -61.358796661085044, -12.628516264152235 ], [ -61.357179693573627, -12.62851626415223 ], [ -61.357179693573627, -12.628246769566996 ], [ -61.356910198988395, -12.628246769567003 ], [ -61.356910198988395, -12.626899296640813 ], [ -61.356640704403169, -12.626899296640822 ], [ -61.356640704403169, -12.627168791226056 ], [ -61.356371209817922, -12.62716879122606 ], [ -61.356371209817922, -12.626629802055579 ], [ -61.356101715232697, -12.626629802055577 ], [ -61.356101715232697, -12.626360307470339 ], [ -61.356371209817922, -12.626360307470339 ], [ -61.356371209817922, -12.625551823714639 ], [ -61.356101715232697, -12.625551823714639 ], [ -61.356101715232697, -12.625012834544167 ], [ -61.35583222064745, -12.625012834544158 ], [ -61.35583222064745, -12.623665361617984 ], [ -61.356101715232697, -12.623665361617993 ], [ -61.356101715232697, -12.623395867032745 ], [ -61.35583222064745, -12.623395867032741 ], [ -61.35583222064745, -12.622856877862281 ], [ -61.355562726062224, -12.622856877862279 ], [ -61.355562726062224, -12.623126372447521 ], [ -61.355293231476978, -12.623126372447517 ], [ -61.355293231476978, -12.62366536161799 ], [ -61.355023736891752, -12.623665361617984 ], [ -61.355023736891752, -12.623934856203224 ], [ -61.355293231476978, -12.623934856203215 ], [ -61.355293231476978, -12.624204350788466 ], [ -61.355023736891752, -12.624204350788448 ], [ -61.355023736891752, -12.624473845373696 ], [ -61.355293231476978, -12.624473845373696 ], [ -61.355293231476978, -12.626899296640811 ], [ -61.355023736891752, -12.626899296640811 ], [ -61.355023736891752, -12.627438285811291 ], [ -61.354754242306505, -12.627438285811291 ], [ -61.354754242306505, -12.627977274981768 ], [ -61.35448474772128, -12.627977274981765 ], [ -61.35448474772128, -12.628516264152232 ], [ -61.354754242306505, -12.628516264152228 ], [ -61.354754242306505, -12.62905525332271 ], [ -61.355023736891752, -12.629055253322694 ], [ -61.355023736891752, -12.631480704589823 ], [ -61.354754242306505, -12.63148070458983 ], [ -61.354754242306505, -12.633906155856948 ], [ -61.354215253136033, -12.633906155856948 ], [ -61.354215253136033, -12.634445145027422 ], [ -61.353676263965561, -12.634445145027428 ], [ -61.353676263965561, -12.634714639612662 ], [ -61.353406769380335, -12.634714639612662 ], [ -61.353406769380335, -12.634984134197895 ], [ -61.352059296454144, -12.634984134197889 ], [ -61.352059296454144, -12.635523123368355 ], [ -61.35232879103939, -12.635523123368369 ], [ -61.35232879103939, -12.635792617953598 ], [ -61.352867780209863, -12.635792617953603 ], [ -61.352867780209863, -12.636062112538834 ], [ -61.353137274795088, -12.636062112538841 ], [ -61.353137274795088, -12.635792617953602 ], [ -61.353406769380335, -12.635792617953607 ], [ -61.353406769380335, -12.636062112538836 ], [ -61.354215253136033, -12.636062112538827 ], [ -61.354215253136033, -12.636331607124067 ], [ -61.35448474772128, -12.636331607124067 ], [ -61.35448474772128, -12.636062112538832 ], [ -61.354754242306505, -12.636062112538841 ], [ -61.354754242306505, -12.63633160712407 ], [ -61.355562726062224, -12.636331607124067 ], [ -61.355562726062224, -12.636601101709305 ], [ -61.35583222064745, -12.636601101709307 ], [ -61.35583222064745, -12.636331607124077 ], [ -61.356371209817922, -12.636331607124063 ], [ -61.356371209817922, -12.636062112538839 ], [ -61.356640704403169, -12.636062112538841 ], [ -61.356640704403169, -12.635792617953605 ], [ -61.356910198988395, -12.635792617953596 ], [ -61.356910198988395, -12.635523123368355 ], [ -61.356640704403169, -12.635523123368362 ], [ -61.356640704403169, -12.635253628783135 ], [ -61.356910198988395, -12.635253628783122 ], [ -61.356910198988395, -12.634984134197897 ], [ -61.356640704403169, -12.634984134197888 ], [ -61.356640704403169, -12.634714639612652 ], [ -61.356910198988395, -12.634714639612653 ], [ -61.356910198988395, -12.634175650442176 ], [ -61.357179693573627, -12.63417565044219 ], [ -61.357179693573627, -12.633906155856947 ], [ -61.356910198988395, -12.633906155856948 ], [ -61.356910198988395, -12.633367166686467 ], [ -61.356640704403169, -12.633367166686471 ], [ -61.356640704403169, -12.633097672101236 ], [ -61.356101715232697, -12.633097672101242 ], [ -61.356101715232697, -12.632558682930773 ], [ -61.35583222064745, -12.632558682930773 ], [ -61.35583222064745, -12.631750199175062 ], [ -61.355562726062224, -12.631750199175057 ], [ -61.355562726062224, -12.630133231663645 ], [ -61.35583222064745, -12.630133231663647 ], [ -61.35583222064745, -12.629863737078418 ], [ -61.356101715232697, -12.629863737078406 ], [ -61.356101715232697, -12.629594242493173 ], [ -61.356371209817922, -12.629594242493175 ], [ -61.356371209817922, -12.62932474790794 ], [ -61.357718682744114, -12.629324747907946 ], [ -61.357718682744114, -12.630402726248876 ], [ -61.357449188158867, -12.630402726248889 ], [ -61.357449188158867, -12.630672220834121 ], [ -61.357988177329339, -12.630672220834118 ], [ -61.357988177329339, -12.630133231663645 ], [ -61.358527166499812, -12.630133231663647 ], [ -61.358527166499812, -12.629863737078411 ], [ -61.358796661085044, -12.629863737078409 ], [ -61.358796661085044, -12.629594242493166 ], [ -61.359335650255517, -12.629594242493171 ], [ -61.359335650255517, -12.629324747907946 ], [ -61.359874639425989, -12.629324747907944 ], [ -61.359874639425989, -12.628785758737463 ], [ -61.360144134011229, -12.628785758737466 ], [ -61.360144134011229, -12.628516264152232 ], [ -61.360413628596461, -12.628516264152225 ], [ -61.360413628596461, -12.628246769567001 ], [ -61.360683123181701, -12.628246769567005 ], [ -61.360683123181701, -12.627707780396527 ], [ -61.361222112352159, -12.627707780396522 ], [ -61.361222112352159, -12.627168791226044 ], [ -61.361491606937406, -12.627168791226051 ], [ -61.361491606937406, -12.627438285811291 ], [ -61.361761101522632, -12.627438285811291 ], [ -61.361761101522632, -12.62716879122606 ], [ -61.362018164201977, -12.627168791232052 ], [ -61.362024781310687, -12.625821318302737 ], [ -61.361761101522632, -12.625821318299872 ], [ -61.361761101522632, -12.626090812885115 ], [ -61.361491606937406, -12.626090812885106 ], [ -61.361491606937406, -12.626360307470339 ], [ -61.359605144840756, -12.626360307470341 ], [ -61.359605144840756, -12.626629802055575 ] ] ], [ [ [ -61.359874639425989, -12.623934856203213 ], [ -61.360413628596461, -12.623934856203213 ], [ -61.360413628596461, -12.624473845373686 ], [ -61.360683123181701, -12.624473845373698 ], [ -61.360683123181701, -12.624743339958934 ], [ -61.360952617766934, -12.624743339958926 ], [ -61.360952617766934, -12.625012834544171 ], [ -61.361761101522632, -12.625012834544158 ], [ -61.361761101522632, -12.624743339958926 ], [ -61.361491606937406, -12.624743339958931 ], [ -61.361491606937406, -12.624473845373704 ], [ -61.361222112352159, -12.624473845373689 ], [ -61.361222112352159, -12.624204350788458 ], [ -61.360952617766934, -12.624204350788455 ], [ -61.360952617766934, -12.623934856203228 ], [ -61.360683123181701, -12.623934856203229 ], [ -61.360683123181701, -12.623665361617991 ], [ -61.360413628596461, -12.623665361617991 ], [ -61.360413628596461, -12.62339586703275 ], [ -61.360144134011229, -12.623395867032745 ], [ -61.360144134011229, -12.622856877862283 ], [ -61.359874639425989, -12.622856877862271 ], [ -61.359874639425989, -12.622587383277043 ], [ -61.359605144840756, -12.622587383277033 ], [ -61.359605144840756, -12.622856877862279 ], [ -61.359066155670284, -12.622856877862276 ], [ -61.359066155670284, -12.623395867032743 ], [ -61.359874639425989, -12.623395867032745 ], [ -61.359874639425989, -12.623934856203213 ] ] ], [ [ [ -61.341279513044725, -12.693733953779315 ], [ -61.341279513044725, -12.694003448364549 ], [ -61.341549007629951, -12.694003448364548 ], [ -61.341549007629951, -12.694272942949773 ], [ -61.341279513044725, -12.694272942949784 ], [ -61.341279513044725, -12.694542437535016 ], [ -61.340740523874253, -12.69454243753502 ], [ -61.340740523874253, -12.694811932120256 ], [ -61.341010018459478, -12.694811932120249 ], [ -61.341010018459478, -12.695081426705487 ], [ -61.341279513044725, -12.695081426705487 ], [ -61.341279513044725, -12.695620415875954 ], [ -61.341549007629951, -12.69562041587595 ], [ -61.341549007629951, -12.695889910461196 ], [ -61.342087996800423, -12.695889910461197 ], [ -61.342087996800423, -12.695620415875956 ], [ -61.342357491385656, -12.695620415875954 ], [ -61.342357491385656, -12.695350921290725 ], [ -61.342087996800423, -12.69535092129073 ], [ -61.342087996800423, -12.695081426705487 ], [ -61.342357491385656, -12.695081426705491 ], [ -61.342357491385656, -12.694542437535016 ], [ -61.342896480556128, -12.694542437535022 ], [ -61.342896480556128, -12.694003448364542 ], [ -61.3434354697266, -12.694003448364549 ], [ -61.3434354697266, -12.69373395377931 ], [ -61.342896480556128, -12.693733953779301 ], [ -61.342896480556128, -12.693464459194077 ], [ -61.342087996800423, -12.693464459194072 ], [ -61.342087996800423, -12.693194964608843 ], [ -61.341818502215197, -12.693194964608848 ], [ -61.341818502215197, -12.693464459194077 ], [ -61.341549007629951, -12.693464459194079 ], [ -61.341549007629951, -12.693733953779304 ], [ -61.341279513044725, -12.693733953779315 ] ], [ [ -61.342087996800423, -12.694003448364544 ], [ -61.341818502215197, -12.694003448364553 ], [ -61.341818502215197, -12.693733953779306 ], [ -61.342087996800423, -12.693733953779297 ], [ -61.342087996800423, -12.694003448364544 ] ] ], [ [ [ -61.341010018459478, -12.694003448364541 ], [ -61.341010018459478, -12.694272942949775 ], [ -61.341279513044725, -12.694272942949784 ], [ -61.341279513044725, -12.694003448364549 ], [ -61.341010018459478, -12.694003448364541 ] ] ], [ [ [ -61.348555866846084, -12.68888305124506 ], [ -61.348555866846084, -12.689152545830304 ], [ -61.348825361431324, -12.689152545830291 ], [ -61.348825361431324, -12.688883051245066 ], [ -61.348555866846084, -12.68888305124506 ] ] ], [ [ [ -61.328343772953403, -12.665167527744304 ], [ -61.328074278368156, -12.665167527744305 ], [ -61.328074278368156, -12.665437022329542 ], [ -61.328613267538628, -12.665437022329554 ], [ -61.328613267538628, -12.665167527744311 ], [ -61.328882762123875, -12.665167527744305 ], [ -61.328882762123875, -12.66543702232954 ], [ -61.329152256709101, -12.665437022329547 ], [ -61.329152256709101, -12.665167527744307 ], [ -61.329421751294348, -12.665167527744314 ], [ -61.329421751294348, -12.665437022329538 ], [ -61.329691245879573, -12.665437022329543 ], [ -61.329691245879573, -12.665167527744311 ], [ -61.32996074046482, -12.665167527744314 ], [ -61.32996074046482, -12.665437022329538 ], [ -61.330230235050045, -12.665437022329549 ], [ -61.330230235050045, -12.664898033159066 ], [ -61.329691245879573, -12.664898033159075 ], [ -61.329691245879573, -12.664359043988606 ], [ -61.329421751294348, -12.664359043988609 ], [ -61.329421751294348, -12.664089549403375 ], [ -61.329152256709101, -12.664089549403366 ], [ -61.329152256709101, -12.664359043988602 ], [ -61.328613267538628, -12.664359043988592 ], [ -61.328613267538628, -12.664898033159069 ], [ -61.328343772953403, -12.664898033159064 ], [ -61.328343772953403, -12.665167527744304 ] ] ], [ [ [ -61.328343772953403, -12.660316625210067 ], [ -61.328882762123875, -12.660316625210069 ], [ -61.328882762123875, -12.660047130624832 ], [ -61.328343772953403, -12.660047130624829 ], [ -61.328343772953403, -12.660316625210067 ] ] ], [ [ [ -61.326996300027226, -12.659238646869115 ], [ -61.326996300027226, -12.659508141454348 ], [ -61.327265794612458, -12.659508141454346 ], [ -61.327265794612458, -12.659777636039596 ], [ -61.327535289197684, -12.659777636039596 ], [ -61.327535289197684, -12.660047130624822 ], [ -61.328343772953403, -12.660047130624829 ], [ -61.328343772953403, -12.659777636039596 ], [ -61.328074278368156, -12.659777636039589 ], [ -61.328074278368156, -12.659508141454348 ], [ -61.327804783782931, -12.659508141454351 ], [ -61.327804783782931, -12.65923864686911 ], [ -61.327265794612458, -12.659238646869115 ], [ -61.327265794612458, -12.658699657698651 ], [ -61.326726805441986, -12.658699657698637 ], [ -61.326726805441986, -12.658160668528177 ], [ -61.326457310856753, -12.658160668528168 ], [ -61.326457310856753, -12.658969152283886 ], [ -61.326726805441986, -12.658969152283881 ], [ -61.326726805441986, -12.659238646869124 ], [ -61.326996300027226, -12.659238646869115 ] ] ], [ [ [ -61.332386191731935, -12.587553087196374 ], [ -61.332386191731935, -12.587822581781614 ], [ -61.332655686317167, -12.587822581781612 ], [ -61.332655686317167, -12.58755308719638 ], [ -61.332386191731935, -12.587553087196374 ] ] ], [ [ [ -61.332655686317167, -12.587283592611142 ], [ -61.332655686317167, -12.587014098025913 ], [ -61.3323891398298, -12.587014098027359 ], [ -61.332387375399698, -12.587283592611737 ], [ -61.332655686317167, -12.587283592611142 ] ] ], [ [ [ -61.332655686317167, -12.586475108855439 ], [ -61.332392668568822, -12.58647510885862 ], [ -61.332390904219494, -12.586744603443019 ], [ -61.332655686317167, -12.58674460344068 ], [ -61.332655686317167, -12.586475108855439 ] ] ], [ [ [ -61.332655686317167, -12.586205614270208 ], [ -61.332655686317167, -12.578659765883602 ], [ -61.332466088443908, -12.578659765911894 ], [ -61.33240694, -12.584295 ], [ -61.332394432877742, -12.58620561427422 ], [ -61.332655686317167, -12.586205614270208 ] ] ] ] } }
]
}
