{
"type": "FeatureCollection",
"name": "tanaru_(_restrição_de_uso_)",
"crs": { "type": "name", "properties": { "name": "urn:ogc:def:crs:OGC:1.3:CRS84" } },
"features": [
{ "type": "Feature", "properties": { "DN": 3 }, "geometry": { "type": "Polygon", "coordinates": [ [ [ -61.342087996800423, -12.695889910461196 ], [ -61.342087996800423, -12.695620415875959 ], [ -61.342357491385656, -12.695620415875959 ], [ -61.342357491385656, -12.695350921290725 ], [ -61.342087996800423, -12.695350921290725 ], [ -61.342087996800423, -12.695081426705489 ], [ -61.342357491385656, -12.695081426705489 ], [ -61.342357491385656, -12.694542437535016 ], [ -61.342896480556128, -12.694542437535016 ], [ -61.342896480556128, -12.694003448364544 ], [ -61.3434354697266, -12.694003448364544 ], [ -61.3434354697266, -12.693733953779308 ], [ -61.342896480556128, -12.693733953779308 ], [ -61.342896480556128, -12.693464459194074 ], [ -61.342087996800423, -12.693464459194074 ], [ -61.342087996800423, -12.693194964608837 ], [ -61.34181850221519, -12.693194964608837 ], [ -61.34181850221519, -12.693464459194074 ], [ -61.341549007629951, -12.693464459194074 ], [ -61.341549007629951, -12.693733953779308 ], [ -61.341279513044718, -12.693733953779308 ], [ -61.341279513044718, -12.694003448364544 ], [ -61.341549007629951, -12.694003448364544 ], [ -61.341549007629951, -12.69427294294978 ], [ -61.341279513044718, -12.69427294294978 ], [ -61.341279513044718, -12.694542437535016 ], [ -61.340740523874246, -12.694542437535016 ], [ -61.340740523874246, -12.694811932120253 ], [ -61.341010018459478, -12.694811932120253 ], [ -61.341010018459478, -12.695081426705489 ], [ -61.341279513044718, -12.695081426705489 ], [ -61.341279513044718, -12.695620415875959 ], [ -61.341549007629951, -12.695620415875959 ], [ -61.341549007629951, -12.695889785095337 ], [ -61.341570272630499, -12.695889910461196 ], [ -61.342087996800423, -12.695889910461196 ] ], [ [ -61.342087996800423, -12.694003448364544 ], [ -61.34181850221519, -12.694003448364544 ], [ -61.34181850221519, -12.693733953779308 ], [ -61.342087996800423, -12.693733953779308 ], [ -61.342087996800423, -12.694003448364544 ] ] ] } },
{ "type": "Feature", "properties": { "DN": 3 }, "geometry": { "type": "Polygon", "coordinates": [ [ [ -61.341010018459478, -12.694003448364544 ], [ -61.341010018459478, -12.69427294294978 ], [ -61.341279513044718, -12.69427294294978 ], [ -61.341279513044718, -12.694003448364544 ], [ -61.341010018459478, -12.694003448364544 ] ] ] } },
{ "type": "Feature", "properties": { "DN": 3 }, "geometry": { "type": "Polygon", "coordinates": [ [ [ -61.348555866846084, -12.688883051245064 ], [ -61.348555866846084, -12.6891525458303 ], [ -61.348825361431324, -12.6891525458303 ], [ -61.348825361431324, -12.688883051245064 ], [ -61.348555866846084, -12.688883051245064 ] ] ] } },
{ "type": "Feature", "properties": { "DN": 3 }, "geometry": { "type": "Polygon", "coordinates": [ [ [ -61.349094856016556, -12.686996589148412 ], [ -61.349094856016556, -12.687805072904119 ], [ -61.348825361431324, -12.687805072904119 ], [ -61.348825361431324, -12.688883051245064 ], [ -61.349094856016556, -12.688883051245064 ], [ -61.349094856016556, -12.688613556659828 ], [ -61.349364350601789, -12.688613556659828 ], [ -61.349364350601789, -12.688344062074592 ], [ -61.349903339772261, -12.688344062074592 ], [ -61.349903339772261, -12.688074567489355 ], [ -61.350172834357501, -12.688074567489355 ], [ -61.350172834357501, -12.687535578318885 ], [ -61.349903339772261, -12.687535578318885 ], [ -61.349903339772261, -12.687266083733649 ], [ -61.349364350601789, -12.687266083733649 ], [ -61.349364350601789, -12.686996589148412 ], [ -61.349094856016556, -12.686996589148412 ] ] ] } },
{ "type": "Feature", "properties": { "DN": 3 }, "geometry": { "type": "Polygon", "coordinates": [ [ [ -61.329152256709101, -12.664089549403364 ], [ -61.329152256709101, -12.6643590439886 ], [ -61.328613267538628, -12.6643590439886 ], [ -61.328613267538628, -12.664898033159073 ], [ -61.328343772953396, -12.664898033159073 ], [ -61.328343772953396, -12.665167527744309 ], [ -61.328074278368156, -12.665167527744309 ], [ -61.328074278368156, -12.665437022329545 ], [ -61.328613267538628, -12.665437022329545 ], [ -61.328613267538628, -12.665167527744309 ], [ -61.328882762123868, -12.665167527744309 ], [ -61.328882762123868, -12.665437022329545 ], [ -61.329152256709101, -12.665437022329545 ], [ -61.329152256709101, -12.665167527744309 ], [ -61.32942175129434, -12.665167527744309 ], [ -61.32942175129434, -12.665437022329545 ], [ -61.329691245879573, -12.665437022329545 ], [ -61.329691245879573, -12.665167527744309 ], [ -61.329960740464813, -12.665167527744309 ], [ -61.329960740464813, -12.665437022329545 ], [ -61.330230235050045, -12.665437022329545 ], [ -61.330230235050045, -12.664898033159073 ], [ -61.329691245879573, -12.664898033159073 ], [ -61.329691245879573, -12.6643590439886 ], [ -61.32942175129434, -12.6643590439886 ], [ -61.32942175129434, -12.664089549403364 ], [ -61.329152256709101, -12.664089549403364 ] ] ] } },
{ "type": "Feature", "properties": { "DN": 3 }, "geometry": { "type": "Polygon", "coordinates": [ [ [ -61.328343772953396, -12.660047130624827 ], [ -61.328343772953396, -12.660316625210063 ], [ -61.328882762123868, -12.660316625210063 ], [ -61.328882762123868, -12.660047130624827 ], [ -61.328343772953396, -12.660047130624827 ] ] ] } },
{ "type": "Feature", "properties": { "DN": 3 }, "geometry": { "type": "Polygon", "coordinates": [ [ [ -61.326457310856746, -12.658160668528176 ], [ -61.326457310856746, -12.658969152283884 ], [ -61.326726805441979, -12.658969152283884 ], [ -61.326726805441979, -12.65923864686912 ], [ -61.326996300027218, -12.65923864686912 ], [ -61.326996300027218, -12.659508141454355 ], [ -61.327265794612451, -12.659508141454355 ], [ -61.327265794612451, -12.659777636039591 ], [ -61.327535289197684, -12.659777636039591 ], [ -61.327535289197684, -12.660047130624827 ], [ -61.328343772953396, -12.660047130624827 ], [ -61.328343772953396, -12.659777636039591 ], [ -61.328074278368156, -12.659777636039591 ], [ -61.328074278368156, -12.659508141454355 ], [ -61.327804783782923, -12.659508141454355 ], [ -61.327804783782923, -12.65923864686912 ], [ -61.327265794612451, -12.65923864686912 ], [ -61.327265794612451, -12.658699657698648 ], [ -61.326726805441979, -12.658699657698648 ], [ -61.326726805441979, -12.658160668528176 ], [ -61.326457310856746, -12.658160668528176 ] ] ] } },
{ "type": "Feature", "properties": { "DN": 3 }, "geometry": { "type": "Polygon", "coordinates": [ [ [ -61.399759838040893, -12.65142330389728 ], [ -61.399759838040893, -12.651692798482514 ], [ -61.40137680555231, -12.651692798482514 ], [ -61.40137680555231, -12.651537760836124 ], [ -61.400685904168704, -12.65142330389728 ], [ -61.399759838040893, -12.65142330389728 ] ] ] } },
{ "type": "Feature", "properties": { "DN": 3 }, "geometry": { "type": "Polygon", "coordinates": [ [ [ -61.388171570875755, -12.650075830971101 ], [ -61.388171570875755, -12.650345325556337 ], [ -61.388441065460988, -12.650345325556337 ], [ -61.388441065460988, -12.650075830971101 ], [ -61.388171570875755, -12.650075830971101 ] ] ] } },
{ "type": "Feature", "properties": { "DN": 3 }, "geometry": { "type": "Polygon", "coordinates": [ [ [ -61.386285108779106, -12.649267347215392 ], [ -61.386285108779106, -12.649536841800629 ], [ -61.386015614193866, -12.649536841800629 ], [ -61.386015614193866, -12.649806336385865 ], [ -61.385746119608633, -12.649806336385865 ], [ -61.385746119608633, -12.650075830971101 ], [ -61.386285108779106, -12.650075830971101 ], [ -61.386285108779106, -12.650345325556337 ], [ -61.386824097949578, -12.650345325556337 ], [ -61.386824097949578, -12.650075830971101 ], [ -61.387093592534811, -12.650075830971101 ], [ -61.387093592534811, -12.650345325556337 ], [ -61.38736308712005, -12.650345325556337 ], [ -61.38736308712005, -12.650075830971101 ], [ -61.387632581705283, -12.650075830971101 ], [ -61.387632581705283, -12.650345325556337 ], [ -61.387902076290516, -12.650345325556337 ], [ -61.387902076290516, -12.650075830971101 ], [ -61.388171570875755, -12.650075830971101 ], [ -61.388171570875755, -12.649806336385865 ], [ -61.387632581705283, -12.649806336385865 ], [ -61.387632581705283, -12.649536841800629 ], [ -61.387093592534811, -12.649536841800629 ], [ -61.387093592534811, -12.649267347215392 ], [ -61.386285108779106, -12.649267347215392 ] ] ] } },
{ "type": "Feature", "properties": { "DN": 3 }, "geometry": { "type": "Polygon", "coordinates": [ [ [ -61.3787392603925, -12.647919874289213 ], [ -61.3787392603925, -12.647787552509129 ], [ -61.377911238239982, -12.647650379703977 ], [ -61.377391787466323, -12.647650379703977 ], [ -61.377391787466323, -12.647919874289213 ], [ -61.378469765807267, -12.647919874289213 ], [ -61.378469765807267, -12.64818936887445 ], [ -61.379008754977733, -12.64818936887445 ], [ -61.379008754977733, -12.648458863459686 ], [ -61.379278249562972, -12.648458863459686 ], [ -61.379278249562972, -12.64818936887445 ], [ -61.379817238733445, -12.64818936887445 ], [ -61.379817238733445, -12.647966133858034 ], [ -61.379538000092033, -12.647919874289213 ], [ -61.3787392603925, -12.647919874289213 ] ] ] } },
{ "type": "Feature", "properties": { "DN": 3 }, "geometry": { "type": "Polygon", "coordinates": [ [ [ -61.367689982397827, -12.637409585465015 ], [ -61.367689982397827, -12.637948574635487 ], [ -61.367420487812595, -12.637948574635487 ], [ -61.367420487812595, -12.638757058391194 ], [ -61.366881498642122, -12.638757058391194 ], [ -61.366881498642122, -12.63902655297643 ], [ -61.36634250947165, -12.63902655297643 ], [ -61.36634250947165, -12.639565542146901 ], [ -61.366073014886418, -12.639565542146901 ], [ -61.366073014886418, -12.640374025902609 ], [ -61.365803520301178, -12.640374025902609 ], [ -61.365803520301178, -12.640643520487846 ], [ -61.365534025715945, -12.640643520487846 ], [ -61.365534025715945, -12.640913015073082 ], [ -61.365264531130705, -12.640913015073082 ], [ -61.365264531130705, -12.641452004243552 ], [ -61.364995036545473, -12.641452004243552 ], [ -61.364995036545473, -12.642260487999261 ], [ -61.365264531130705, -12.642260487999261 ], [ -61.365264531130705, -12.642529982584495 ], [ -61.364995036545473, -12.642529982584495 ], [ -61.364995036545473, -12.642799477169731 ], [ -61.365264531130705, -12.642799477169731 ], [ -61.365264531130705, -12.643068971754968 ], [ -61.364995036545473, -12.643068971754968 ], [ -61.364995036545473, -12.643338466340204 ], [ -61.365264531130705, -12.643338466340204 ], [ -61.365264531130705, -12.64360796092544 ], [ -61.364995036545473, -12.64360796092544 ], [ -61.364995036545473, -12.643877455510676 ], [ -61.365264531130705, -12.643877455510676 ], [ -61.365264531130705, -12.644416444681147 ], [ -61.365534025715945, -12.644416444681147 ], [ -61.365534025715945, -12.644685939266383 ], [ -61.366073014886418, -12.644685939266383 ], [ -61.366073014886418, -12.644146950095912 ], [ -61.36634250947165, -12.644146950095912 ], [ -61.36634250947165, -12.64360796092544 ], [ -61.36661200405689, -12.64360796092544 ], [ -61.36661200405689, -12.643068971754968 ], [ -61.366881498642122, -12.643068971754968 ], [ -61.366881498642122, -12.642529982584495 ], [ -61.36661200405689, -12.642529982584495 ], [ -61.36661200405689, -12.642260487999261 ], [ -61.366881498642122, -12.642260487999261 ], [ -61.366881498642122, -12.641990993414025 ], [ -61.36661200405689, -12.641990993414025 ], [ -61.36661200405689, -12.641721498828788 ], [ -61.366881498642122, -12.641721498828788 ], [ -61.366881498642122, -12.641182509658318 ], [ -61.367959476983067, -12.641182509658318 ], [ -61.367959476983067, -12.641721498828788 ], [ -61.3682289715683, -12.641721498828788 ], [ -61.3682289715683, -12.641990993414025 ], [ -61.368767960738772, -12.641990993414025 ], [ -61.368767960738772, -12.637948574635487 ], [ -61.369037455324012, -12.637948574635487 ], [ -61.369037455324012, -12.637409585465015 ], [ -61.367689982397827, -12.637409585465015 ] ] ] } },
{ "type": "Feature", "properties": { "DN": 3 }, "geometry": { "type": "Polygon", "coordinates": [ [ [ -61.369306949909245, -12.637679080050251 ], [ -61.369576444494484, -12.637679080050251 ], [ -61.369576444494484, -12.637417709701831 ], [ -61.369306949909245, -12.637412396266646 ], [ -61.369306949909245, -12.637679080050251 ] ] ] } },
{ "type": "Feature", "properties": { "DN": 3 }, "geometry": { "type": "Polygon", "coordinates": [ [ [ -61.361761101522639, -12.635523123368364 ], [ -61.361761101522639, -12.634984134197893 ], [ -61.361491606937406, -12.634984134197893 ], [ -61.361491606937406, -12.633906155856948 ], [ -61.361222112352166, -12.633906155856948 ], [ -61.361222112352166, -12.633636661271712 ], [ -61.360952617766934, -12.633636661271712 ], [ -61.360952617766934, -12.634175650442184 ], [ -61.360683123181701, -12.634175650442184 ], [ -61.360683123181701, -12.634714639612657 ], [ -61.360413628596461, -12.634714639612657 ], [ -61.360413628596461, -12.6357926179536 ], [ -61.360144134011229, -12.6357926179536 ], [ -61.360144134011229, -12.636331607124072 ], [ -61.359605144840756, -12.636331607124072 ], [ -61.359605144840756, -12.636870596294543 ], [ -61.359066155670284, -12.636870596294543 ], [ -61.359066155670284, -12.637140090879779 ], [ -61.359335650255517, -12.637140090879779 ], [ -61.359335650255517, -12.637409585465015 ], [ -61.359605144840756, -12.637409585465015 ], [ -61.359605144840756, -12.637679080050251 ], [ -61.360144134011229, -12.637679080050251 ], [ -61.360144134011229, -12.637948574635487 ], [ -61.360683123181701, -12.637948574635487 ], [ -61.360683123181701, -12.638218069220724 ], [ -61.361222112352166, -12.638218069220724 ], [ -61.361222112352166, -12.638487563805958 ], [ -61.361761101522639, -12.638487563805958 ], [ -61.361761101522639, -12.638218069220724 ], [ -61.362300090693111, -12.638218069220724 ], [ -61.362300090693111, -12.637948574635487 ], [ -61.362839079863583, -12.637948574635487 ], [ -61.362839079863583, -12.637679080050251 ], [ -61.363378069034056, -12.637679080050251 ], [ -61.363378069034056, -12.637409585465015 ], [ -61.362300090693111, -12.637409585465015 ], [ -61.362300090693111, -12.637274246951817 ], [ -61.36196854, -12.63726771 ], [ -61.361977089611827, -12.635523123368364 ], [ -61.361761101522639, -12.635523123368364 ] ] ] } },
{ "type": "Feature", "properties": { "DN": 3 }, "geometry": { "type": "Polygon", "coordinates": [ [ [ -61.361761101522639, -12.625821318299874 ], [ -61.361761101522639, -12.62609081288511 ], [ -61.361491606937406, -12.62609081288511 ], [ -61.361491606937406, -12.626360307470344 ], [ -61.359605144840756, -12.626360307470344 ], [ -61.359605144840756, -12.62662980205558 ], [ -61.358796661085044, -12.62662980205558 ], [ -61.358796661085044, -12.626899296640817 ], [ -61.358527166499812, -12.626899296640817 ], [ -61.358527166499812, -12.627438285811287 ], [ -61.358796661085044, -12.627438285811287 ], [ -61.358796661085044, -12.628516264152232 ], [ -61.357179693573627, -12.628516264152232 ], [ -61.357179693573627, -12.628246769566996 ], [ -61.356910198988395, -12.628246769566996 ], [ -61.356910198988395, -12.626899296640817 ], [ -61.356640704403162, -12.626899296640817 ], [ -61.356640704403162, -12.627168791226053 ], [ -61.356371209817922, -12.627168791226053 ], [ -61.356371209817922, -12.62662980205558 ], [ -61.35610171523269, -12.62662980205558 ], [ -61.35610171523269, -12.626360307470344 ], [ -61.356371209817922, -12.626360307470344 ], [ -61.356371209817922, -12.625551823714638 ], [ -61.35610171523269, -12.625551823714638 ], [ -61.35610171523269, -12.625012834544165 ], [ -61.35583222064745, -12.625012834544165 ], [ -61.35583222064745, -12.623665361617986 ], [ -61.35610171523269, -12.623665361617986 ], [ -61.35610171523269, -12.62339586703275 ], [ -61.35583222064745, -12.62339586703275 ], [ -61.35583222064745, -12.622856877862279 ], [ -61.355562726062217, -12.622856877862279 ], [ -61.355562726062217, -12.623126372447516 ], [ -61.355293231476978, -12.623126372447516 ], [ -61.355293231476978, -12.623665361617986 ], [ -61.355023736891745, -12.623665361617986 ], [ -61.355023736891745, -12.623934856203222 ], [ -61.355293231476978, -12.623934856203222 ], [ -61.355293231476978, -12.624204350788458 ], [ -61.355023736891745, -12.624204350788458 ], [ -61.355023736891745, -12.624473845373693 ], [ -61.355293231476978, -12.624473845373693 ], [ -61.355293231476978, -12.626899296640817 ], [ -61.355023736891745, -12.626899296640817 ], [ -61.355023736891745, -12.627438285811287 ], [ -61.354754242306512, -12.627438285811287 ], [ -61.354754242306512, -12.62797727498176 ], [ -61.354484747721273, -12.62797727498176 ], [ -61.354484747721273, -12.628516264152232 ], [ -61.354754242306512, -12.628516264152232 ], [ -61.354754242306512, -12.629055253322704 ], [ -61.355023736891745, -12.629055253322704 ], [ -61.355023736891745, -12.631480704589826 ], [ -61.354754242306512, -12.631480704589826 ], [ -61.354754242306512, -12.633906155856948 ], [ -61.354215253136033, -12.633906155856948 ], [ -61.354215253136033, -12.634445145027421 ], [ -61.353676263965568, -12.634445145027421 ], [ -61.353676263965568, -12.634714639612657 ], [ -61.353406769380328, -12.634714639612657 ], [ -61.353406769380328, -12.634984134197893 ], [ -61.352059296454151, -12.634984134197893 ], [ -61.352059296454151, -12.635523123368364 ], [ -61.352328791039383, -12.635523123368364 ], [ -61.352328791039383, -12.6357926179536 ], [ -61.352867780209856, -12.6357926179536 ], [ -61.352867780209856, -12.636062112538836 ], [ -61.353137274795095, -12.636062112538836 ], [ -61.353137274795095, -12.6357926179536 ], [ -61.353406769380328, -12.6357926179536 ], [ -61.353406769380328, -12.636062112538836 ], [ -61.354215253136033, -12.636062112538836 ], [ -61.354215253136033, -12.636331607124072 ], [ -61.354484747721273, -12.636331607124072 ], [ -61.354484747721273, -12.636062112538836 ], [ -61.354754242306512, -12.636062112538836 ], [ -61.354754242306512, -12.636331607124072 ], [ -61.355562726062217, -12.636331607124072 ], [ -61.355562726062217, -12.636601101709307 ], [ -61.35583222064745, -12.636601101709307 ], [ -61.35583222064745, -12.636331607124072 ], [ -61.356371209817922, -12.636331607124072 ], [ -61.356371209817922, -12.636062112538836 ], [ -61.356640704403162, -12.636062112538836 ], [ -61.356640704403162, -12.6357926179536 ], [ -61.356910198988395, -12.6357926179536 ], [ -61.356910198988395, -12.635523123368364 ], [ -61.356640704403162, -12.635523123368364 ], [ -61.356640704403162, -12.635253628783129 ], [ -61.356910198988395, -12.635253628783129 ], [ -61.356910198988395, -12.634984134197893 ], [ -61.356640704403162, -12.634984134197893 ], [ -61.356640704403162, -12.634714639612657 ], [ -61.356910198988395, -12.634714639612657 ], [ -61.356910198988395, -12.634175650442184 ], [ -61.357179693573627, -12.634175650442184 ], [ -61.357179693573627, -12.633906155856948 ], [ -61.356910198988395, -12.633906155856948 ], [ -61.356910198988395, -12.633367166686478 ], [ -61.356640704403162, -12.633367166686478 ], [ -61.356640704403162, -12.633097672101242 ], [ -61.35610171523269, -12.633097672101242 ], [ -61.35610171523269, -12.632558682930769 ], [ -61.35583222064745, -12.632558682930769 ], [ -61.35583222064745, -12.631750199175062 ], [ -61.355562726062217, -12.631750199175062 ], [ -61.355562726062217, -12.630133231663647 ], [ -61.35583222064745, -12.630133231663647 ], [ -61.35583222064745, -12.629863737078411 ], [ -61.35610171523269, -12.629863737078411 ], [ -61.35610171523269, -12.629594242493175 ], [ -61.356371209817922, -12.629594242493175 ], [ -61.356371209817922, -12.629324747907939 ], [ -61.357718682744107, -12.629324747907939 ], [ -61.357718682744107, -12.630402726248883 ], [ -61.357449188158867, -12.630402726248883 ], [ -61.357449188158867, -12.630672220834118 ], [ -61.357988177329339, -12.630672220834118 ], [ -61.357988177329339, -12.630133231663647 ], [ -61.358527166499812, -12.630133231663647 ], [ -61.358527166499812, -12.629863737078411 ], [ -61.358796661085044, -12.629863737078411 ], [ -61.358796661085044, -12.629594242493175 ], [ -61.359335650255517, -12.629594242493175 ], [ -61.359335650255517, -12.629324747907939 ], [ -61.359874639425989, -12.629324747907939 ], [ -61.359874639425989, -12.628785758737468 ], [ -61.360144134011229, -12.628785758737468 ], [ -61.360144134011229, -12.628516264152232 ], [ -61.360413628596461, -12.628516264152232 ], [ -61.360413628596461, -12.628246769566996 ], [ -61.360683123181701, -12.628246769566996 ], [ -61.360683123181701, -12.627707780396523 ], [ -61.361222112352166, -12.627707780396523 ], [ -61.361222112352166, -12.627168791226053 ], [ -61.361491606937406, -12.627168791226053 ], [ -61.361491606937406, -12.627438285811287 ], [ -61.361761101522639, -12.627438285811287 ], [ -61.361761101522639, -12.627168791226053 ], [ -61.362018031285665, -12.627168791226053 ], [ -61.362024634781449, -12.625821318299874 ], [ -61.361761101522639, -12.625821318299874 ] ] ] } },
{ "type": "Feature", "properties": { "DN": 3 }, "geometry": { "type": "Polygon", "coordinates": [ [ [ -61.359605144840756, -12.622587383277043 ], [ -61.359605144840756, -12.622856877862279 ], [ -61.359066155670284, -12.622856877862279 ], [ -61.359066155670284, -12.62339586703275 ], [ -61.359874639425989, -12.62339586703275 ], [ -61.359874639425989, -12.623934856203222 ], [ -61.360413628596461, -12.623934856203222 ], [ -61.360413628596461, -12.624473845373693 ], [ -61.360683123181701, -12.624473845373693 ], [ -61.360683123181701, -12.624743339958929 ], [ -61.360952617766934, -12.624743339958929 ], [ -61.360952617766934, -12.625012834544165 ], [ -61.361761101522639, -12.625012834544165 ], [ -61.361761101522639, -12.624743339958929 ], [ -61.361491606937406, -12.624743339958929 ], [ -61.361491606937406, -12.624473845373693 ], [ -61.361222112352166, -12.624473845373693 ], [ -61.361222112352166, -12.624204350788458 ], [ -61.360952617766934, -12.624204350788458 ], [ -61.360952617766934, -12.623934856203222 ], [ -61.360683123181701, -12.623934856203222 ], [ -61.360683123181701, -12.623665361617986 ], [ -61.360413628596461, -12.623665361617986 ], [ -61.360413628596461, -12.62339586703275 ], [ -61.360144134011229, -12.62339586703275 ], [ -61.360144134011229, -12.622856877862279 ], [ -61.359874639425989, -12.622856877862279 ], [ -61.359874639425989, -12.622587383277043 ], [ -61.359605144840756, -12.622587383277043 ] ] ] } },
{ "type": "Feature", "properties": { "DN": 3 }, "geometry": { "type": "Polygon", "coordinates": [ [ [ -61.332386191731935, -12.587553087196381 ], [ -61.332386191731935, -12.587822581781618 ], [ -61.332655686317167, -12.587822581781618 ], [ -61.332655686317167, -12.587553087196381 ], [ -61.332386191731935, -12.587553087196381 ] ] ] } },
{ "type": "Feature", "properties": { "DN": 3 }, "geometry": { "type": "Polygon", "coordinates": [ [ [ -61.332655686317167, -12.587283592611145 ], [ -61.332655686317167, -12.587014098025911 ], [ -61.332389110858266, -12.587014098025911 ], [ -61.332387343780688, -12.587283592611145 ], [ -61.332655686317167, -12.587283592611145 ] ] ] } },
{ "type": "Feature", "properties": { "DN": 3 }, "geometry": { "type": "Polygon", "coordinates": [ [ [ -61.332655686317167, -12.586744603440675 ], [ -61.332655686317167, -12.586475108855439 ], [ -61.332392645013428, -12.586475108855439 ], [ -61.332390877935843, -12.586744603440675 ], [ -61.332655686317167, -12.586744603440675 ] ] ] } },
{ "type": "Feature", "properties": { "DN": 3 }, "geometry": { "type": "Polygon", "coordinates": [ [ [ -61.332655686317167, -12.586205614270202 ], [ -61.332655686317167, -12.578659765883598 ], [ -61.33246608731335, -12.578659765883598 ], [ -61.33240694, -12.584295 ], [ -61.332394412091006, -12.586205614270202 ], [ -61.332655686317167, -12.586205614270202 ] ] ] } }
]
}
