{
"type": "FeatureCollection",
"name": "uty_xunati",
"crs": { "type": "name", "properties": { "name": "urn:ogc:def:crs:OGC:1.3:CRS84" } },
"features": [
{ "type": "Feature", "properties": { "area_ha": 61.67 }, "geometry": { "type": "MultiPolygon", "coordinates": [ [ [ [ -60.023181496656143, -12.414807058060198 ], [ -60.023181496656143, -12.415346047230669 ], [ -60.021834023729966, -12.415346047230669 ], [ -60.021834023729966, -12.415615541815905 ], [ -60.022642507485671, -12.415615541815905 ], [ -60.022642507485671, -12.415885036401141 ], [ -60.023181496656143, -12.415885036401141 ], [ -60.023181496656143, -12.415615541815905 ], [ -60.023611092612661, -12.415615541815905 ], [ -60.023720485826615, -12.415454935556783 ], [ -60.023720485826615, -12.414537563474962 ], [ -60.023450991241376, -12.414537563474962 ], [ -60.023450991241376, -12.414807058060198 ], [ -60.023181496656143, -12.414807058060198 ] ] ], [ [ [ -60.020756045389021, -12.415346047230669 ], [ -60.021834023729966, -12.415346047230669 ], [ -60.021834023729966, -12.415076552645434 ], [ -60.021295034559493, -12.415076552645434 ], [ -60.021295034559493, -12.414807058060198 ], [ -60.021025539974254, -12.414807058060198 ], [ -60.021025539974254, -12.415076552645434 ], [ -60.020756045389021, -12.415076552645434 ], [ -60.020756045389021, -12.415346047230669 ] ] ], [ [ [ -60.021025539974254, -12.408339188014537 ], [ -60.020756045389021, -12.408339188014537 ], [ -60.020756045389021, -12.408878177185009 ], [ -60.019947561633309, -12.408878177185009 ], [ -60.019947561633309, -12.409686660940716 ], [ -60.019678067048076, -12.409686660940716 ], [ -60.019678067048076, -12.409956155525952 ], [ -60.019408572462837, -12.409956155525952 ], [ -60.019408572462837, -12.410495144696423 ], [ -60.019139077877604, -12.410495144696423 ], [ -60.019139077877604, -12.411034133866895 ], [ -60.019408572462837, -12.411034133866895 ], [ -60.019408572462837, -12.410764639281659 ], [ -60.019678067048076, -12.410764639281659 ], [ -60.019678067048076, -12.410225650111189 ], [ -60.020486550803781, -12.410225650111189 ], [ -60.020486550803781, -12.409956155525952 ], [ -60.020756045389021, -12.409956155525952 ], [ -60.020756045389021, -12.409686660940716 ], [ -60.021025539974254, -12.409686660940716 ], [ -60.021025539974254, -12.409147671770246 ], [ -60.021295034559493, -12.409147671770246 ], [ -60.021295034559493, -12.408608682599773 ], [ -60.021564529144726, -12.408608682599773 ], [ -60.021564529144726, -12.407800198844065 ], [ -60.021295034559493, -12.407800198844065 ], [ -60.021295034559493, -12.408069693429301 ], [ -60.021025539974254, -12.408069693429301 ], [ -60.021025539974254, -12.408339188014537 ] ] ], [ [ [ -60.021564529144726, -12.406722220503122 ], [ -60.021564529144726, -12.407800198844065 ], [ -60.021834023729966, -12.407800198844065 ], [ -60.021834023729966, -12.406722220503122 ], [ -60.021564529144726, -12.406722220503122 ] ] ], [ [ [ -60.02452896958232, -12.402410307139348 ], [ -60.02452896958232, -12.402140812554112 ], [ -60.024259474997088, -12.402140812554112 ], [ -60.024259474997088, -12.401871317968876 ], [ -60.023720485826615, -12.401871317968876 ], [ -60.023720485826615, -12.40160182338364 ], [ -60.023450991241376, -12.40160182338364 ], [ -60.023450991241376, -12.400254350457461 ], [ -60.023181496656143, -12.400254350457461 ], [ -60.023181496656143, -12.399984855872226 ], [ -60.022912002070903, -12.399984855872226 ], [ -60.022912002070903, -12.40160182338364 ], [ -60.023181496656143, -12.40160182338364 ], [ -60.023181496656143, -12.401871317968876 ], [ -60.023450991241376, -12.401871317968876 ], [ -60.023450991241376, -12.402140812554112 ], [ -60.023720485826615, -12.402140812554112 ], [ -60.023720485826615, -12.402410307139348 ], [ -60.023989980411848, -12.402410307139348 ], [ -60.023989980411848, -12.402679801724585 ], [ -60.024259474997088, -12.402679801724585 ], [ -60.024259474997088, -12.402949296309821 ], [ -60.02452896958232, -12.402949296309821 ], [ -60.02452896958232, -12.403488285480291 ], [ -60.02479846416756, -12.403488285480291 ], [ -60.02479846416756, -12.404027274650764 ], [ -60.025067958752793, -12.404027274650764 ], [ -60.025067958752793, -12.404566263821234 ], [ -60.02479846416756, -12.404566263821234 ], [ -60.02479846416756, -12.405644242162179 ], [ -60.025337453338025, -12.405644242162179 ], [ -60.025337453338025, -12.405913736747415 ], [ -60.025606947923265, -12.405913736747415 ], [ -60.025606947923265, -12.406183231332651 ], [ -60.025876442508498, -12.406183231332651 ], [ -60.025876442508498, -12.407800198844065 ], [ -60.02641543167897, -12.407800198844065 ], [ -60.02641543167897, -12.408339188014537 ], [ -60.026954420849442, -12.408339188014537 ], [ -60.026954420849442, -12.407800198844065 ], [ -60.02668492626421, -12.407800198844065 ], [ -60.02668492626421, -12.407530704258829 ], [ -60.02641543167897, -12.407530704258829 ], [ -60.02641543167897, -12.407261209673594 ], [ -60.026145937093737, -12.407261209673594 ], [ -60.026145937093737, -12.406722220503122 ], [ -60.02641543167897, -12.406722220503122 ], [ -60.02641543167897, -12.406991715088358 ], [ -60.026954420849442, -12.406991715088358 ], [ -60.026954420849442, -12.407261209673594 ], [ -60.027223915434682, -12.407261209673594 ], [ -60.027223915434682, -12.406991715088358 ], [ -60.027493410019915, -12.406991715088358 ], [ -60.027493410019915, -12.407261209673594 ], [ -60.027762904605154, -12.407261209673594 ], [ -60.027762904605154, -12.407800198844065 ], [ -60.028032399190387, -12.407800198844065 ], [ -60.028032399190387, -12.408069693429301 ], [ -60.027762904605154, -12.408069693429301 ], [ -60.027762904605154, -12.408608682599773 ], [ -60.02830189377562, -12.408608682599773 ], [ -60.02830189377562, -12.408339188014537 ], [ -60.028567211586903, -12.408339188014537 ], [ -60.028571388360859, -12.40833305586048 ], [ -60.028571388360859, -12.408069693429301 ], [ -60.028750771548907, -12.408069693429301 ], [ -60.028840882946092, -12.407937395877356 ], [ -60.028840882946092, -12.407530704258829 ], [ -60.029110377531332, -12.407530704258829 ], [ -60.029110377531332, -12.406991715088358 ], [ -60.029379872116564, -12.406991715088358 ], [ -60.029379872116564, -12.406722220503122 ], [ -60.029649366701804, -12.406722220503122 ], [ -60.029649366701804, -12.406183231332651 ], [ -60.029918861287037, -12.406183231332651 ], [ -60.029918861287037, -12.405913736747415 ], [ -60.030188355872276, -12.405913736747415 ], [ -60.030188355872276, -12.405644242162179 ], [ -60.03040281120699, -12.405644242162179 ], [ -60.030457850457509, -12.405563435978586 ], [ -60.030457850457509, -12.405374747576943 ], [ -60.030586371169001, -12.405374747576943 ], [ -60.030593759124265, -12.405363900909082 ], [ -60.030727345042749, -12.405178236864716 ], [ -60.030727345042749, -12.404027274650764 ], [ -60.030457850457509, -12.404027274650764 ], [ -60.030457850457509, -12.403315882579793 ], [ -60.030345842275125, -12.403218790895057 ], [ -60.029918861287037, -12.403218790895057 ], [ -60.029918861287037, -12.40303410147099 ], [ -60.029696209325358, -12.402995998499069 ], [ -60.029649366701804, -12.402996065170678 ], [ -60.029649366701804, -12.403218790895057 ], [ -60.029110377531332, -12.403218790895057 ], [ -60.029110377531332, -12.403488285480291 ], [ -60.027762904605154, -12.403488285480291 ], [ -60.027762904605154, -12.403218790895057 ], [ -60.027493410019915, -12.403218790895057 ], [ -60.027493410019915, -12.402949296309821 ], [ -60.027223915434682, -12.402949296309821 ], [ -60.027223915434682, -12.402410307139348 ], [ -60.026954420849442, -12.402410307139348 ], [ -60.026954420849442, -12.402072003411043 ], [ -60.026614354420225, -12.401871317968876 ], [ -60.026145937093737, -12.401871317968876 ], [ -60.026145937093737, -12.402140812554112 ], [ -60.025876442508498, -12.402140812554112 ], [ -60.025876442508498, -12.402410307139348 ], [ -60.02452896958232, -12.402410307139348 ] ], [ [ -60.025606947923265, -12.405374747576943 ], [ -60.025337453338025, -12.405374747576943 ], [ -60.025337453338025, -12.405105252991707 ], [ -60.025067958752793, -12.405105252991707 ], [ -60.025067958752793, -12.40483575840647 ], [ -60.025337453338025, -12.40483575840647 ], [ -60.025337453338025, -12.404566263821234 ], [ -60.026145937093737, -12.404566263821234 ], [ -60.026145937093737, -12.405913736747415 ], [ -60.025876442508498, -12.405913736747415 ], [ -60.025876442508498, -12.405644242162179 ], [ -60.025606947923265, -12.405644242162179 ], [ -60.025606947923265, -12.405374747576943 ] ], [ [ -60.028571388360859, -12.406452725917886 ], [ -60.02830189377562, -12.406452725917886 ], [ -60.02830189377562, -12.406183231332651 ], [ -60.028032399190387, -12.406183231332651 ], [ -60.028032399190387, -12.405374747576943 ], [ -60.02830189377562, -12.405374747576943 ], [ -60.02830189377562, -12.405105252991707 ], [ -60.029110377531332, -12.405105252991707 ], [ -60.029110377531332, -12.405644242162179 ], [ -60.028840882946092, -12.405644242162179 ], [ -60.028840882946092, -12.405913736747415 ], [ -60.028571388360859, -12.405913736747415 ], [ -60.028571388360859, -12.406452725917886 ] ] ], [ [ [ -60.021834023729966, -12.391630523729914 ], [ -60.021564529144726, -12.391630523729914 ], [ -60.021564529144726, -12.39190001831515 ], [ -60.022912002070903, -12.39190001831515 ], [ -60.022912002070903, -12.391630523729914 ], [ -60.022642507485671, -12.391630523729914 ], [ -60.022642507485671, -12.391091534559443 ], [ -60.021564529144726, -12.391091534559443 ], [ -60.021564529144726, -12.391361029144678 ], [ -60.021834023729966, -12.391361029144678 ], [ -60.021834023729966, -12.391630523729914 ] ] ], [ [ [ -60.007011821541994, -12.409686660940716 ], [ -60.007011821541994, -12.409956155525952 ], [ -60.007820305297699, -12.409956155525952 ], [ -60.007820305297699, -12.409686660940716 ], [ -60.007550810712459, -12.409686660940716 ], [ -60.007550810712459, -12.409147671770246 ], [ -60.007011821541994, -12.409147671770246 ], [ -60.007011821541994, -12.408878177185009 ], [ -60.005933843201049, -12.408878177185009 ], [ -60.005933843201049, -12.40941716635548 ], [ -60.006472832371522, -12.40941716635548 ], [ -60.006472832371522, -12.409686660940716 ], [ -60.007011821541994, -12.409686660940716 ] ] ], [ [ [ -60.016983121195715, -12.40483575840647 ], [ -60.016983121195715, -12.405105252991707 ], [ -60.016713626610482, -12.405105252991707 ], [ -60.016713626610482, -12.405374747576943 ], [ -60.016444132025242, -12.405374747576943 ], [ -60.016444132025242, -12.405644242162179 ], [ -60.016713626610482, -12.405644242162179 ], [ -60.016713626610482, -12.406452725917886 ], [ -60.01617463744001, -12.406452725917886 ], [ -60.01617463744001, -12.406183231332651 ], [ -60.015905142854777, -12.406183231332651 ], [ -60.015905142854777, -12.407530704258829 ], [ -60.016444132025242, -12.407530704258829 ], [ -60.016444132025242, -12.407261209673594 ], [ -60.016713626610482, -12.407261209673594 ], [ -60.016713626610482, -12.407530704258829 ], [ -60.016983121195715, -12.407530704258829 ], [ -60.016983121195715, -12.407261209673594 ], [ -60.017252615780954, -12.407261209673594 ], [ -60.017252615780954, -12.406991715088358 ], [ -60.017522110366187, -12.406991715088358 ], [ -60.017522110366187, -12.406722220503122 ], [ -60.017791604951427, -12.406722220503122 ], [ -60.017791604951427, -12.406452725917886 ], [ -60.018061099536659, -12.406452725917886 ], [ -60.018061099536659, -12.406183231332651 ], [ -60.018330594121899, -12.406183231332651 ], [ -60.018330594121899, -12.405644242162179 ], [ -60.018600088707132, -12.405644242162179 ], [ -60.018600088707132, -12.405105252991707 ], [ -60.018061099536659, -12.405105252991707 ], [ -60.018061099536659, -12.40483575840647 ], [ -60.017522110366187, -12.40483575840647 ], [ -60.017522110366187, -12.405105252991707 ], [ -60.017252615780954, -12.405105252991707 ], [ -60.017252615780954, -12.40483575840647 ], [ -60.016983121195715, -12.40483575840647 ] ] ], [ [ [ -60.009706767394349, -12.402949296309821 ], [ -60.009706767394349, -12.402410307139348 ], [ -60.009437272809116, -12.402410307139348 ], [ -60.009437272809116, -12.402140812554112 ], [ -60.009167778223876, -12.402140812554112 ], [ -60.009167778223876, -12.401871317968876 ], [ -60.008898283638644, -12.401871317968876 ], [ -60.008898283638644, -12.402410307139348 ], [ -60.009167778223876, -12.402410307139348 ], [ -60.009167778223876, -12.402949296309821 ], [ -60.009437272809116, -12.402949296309821 ], [ -60.009437272809116, -12.403488285480291 ], [ -60.009167778223876, -12.403488285480291 ], [ -60.009167778223876, -12.403757780065527 ], [ -60.008359294468171, -12.403757780065527 ], [ -60.008359294468171, -12.404027274650764 ], [ -60.007550810712459, -12.404027274650764 ], [ -60.007550810712459, -12.404296769236 ], [ -60.007011821541994, -12.404296769236 ], [ -60.007011821541994, -12.404566263821234 ], [ -60.006472832371522, -12.404566263821234 ], [ -60.006472832371522, -12.40483575840647 ], [ -60.006203337786282, -12.40483575840647 ], [ -60.006203337786282, -12.405105252991707 ], [ -60.006472832371522, -12.405105252991707 ], [ -60.006472832371522, -12.405913736747415 ], [ -60.007011821541994, -12.405913736747415 ], [ -60.007011821541994, -12.406452725917886 ], [ -60.006742326956754, -12.406452725917886 ], [ -60.006742326956754, -12.407530704258829 ], [ -60.007550810712459, -12.407530704258829 ], [ -60.007550810712459, -12.407800198844065 ], [ -60.007820305297699, -12.407800198844065 ], [ -60.007820305297699, -12.407530704258829 ], [ -60.008089799882931, -12.407530704258829 ], [ -60.008089799882931, -12.407261209673594 ], [ -60.008898283638644, -12.407261209673594 ], [ -60.008898283638644, -12.406722220503122 ], [ -60.009167778223876, -12.406722220503122 ], [ -60.009167778223876, -12.406452725917886 ], [ -60.009976261979588, -12.406452725917886 ], [ -60.009976261979588, -12.405374747576943 ], [ -60.010245756564821, -12.405374747576943 ], [ -60.010245756564821, -12.405105252991707 ], [ -60.010515251150053, -12.405105252991707 ], [ -60.010515251150053, -12.40483575840647 ], [ -60.011862724076238, -12.40483575840647 ], [ -60.011862724076238, -12.404566263821234 ], [ -60.011593229490998, -12.404566263821234 ], [ -60.011593229490998, -12.404027274650764 ], [ -60.011054240320526, -12.404027274650764 ], [ -60.011054240320526, -12.403757780065527 ], [ -60.010784745735293, -12.403757780065527 ], [ -60.010784745735293, -12.403218790895057 ], [ -60.011054240320526, -12.403218790895057 ], [ -60.011054240320526, -12.402949296309821 ], [ -60.009706767394349, -12.402949296309821 ] ], [ [ -60.010784745735293, -12.404027274650764 ], [ -60.010515251150053, -12.404027274650764 ], [ -60.010515251150053, -12.403757780065527 ], [ -60.010784745735293, -12.403757780065527 ], [ -60.010784745735293, -12.404027274650764 ] ] ], [ [ [ -60.01240171324671, -12.395403447923215 ], [ -60.012940702417183, -12.395403447923215 ], [ -60.012940702417183, -12.395133953337981 ], [ -60.013210197002415, -12.395133953337981 ], [ -60.013210197002415, -12.394594964167508 ], [ -60.012940702417183, -12.394594964167508 ], [ -60.012940702417183, -12.394325469582272 ], [ -60.012671207831943, -12.394325469582272 ], [ -60.012671207831943, -12.394594964167508 ], [ -60.011887912126227, -12.394594964167508 ], [ -60.011862724076238, -12.394619641057576 ], [ -60.011862724076238, -12.394864458752744 ], [ -60.011612835199315, -12.394864458752744 ], [ -60.011593229490998, -12.394883666587772 ], [ -60.011593229490998, -12.395403447923215 ], [ -60.011323734905766, -12.395403447923215 ], [ -60.011323734905766, -12.396211931678923 ], [ -60.01240171324671, -12.396211931678923 ], [ -60.01240171324671, -12.395403447923215 ] ] ], [ [ [ -60.017791604951427, -12.389205072462792 ], [ -60.017389450664453, -12.389205072462792 ], [ -60.017252615780954, -12.389339130453726 ], [ -60.017252615780954, -12.389474567048026 ], [ -60.017114373737542, -12.389474567048026 ], [ -60.016983121195715, -12.389603155983922 ], [ -60.016983121195715, -12.390013556218499 ], [ -60.018061099536659, -12.390013556218499 ], [ -60.018061099536659, -12.389474567048026 ], [ -60.017791604951427, -12.389474567048026 ], [ -60.017791604951427, -12.389205072462792 ] ] ] ] } }
]
}
